<?xml version="1.0" encoding="UTF-8" standalone="no"?><gpx xmlns="http://www.topografix.com/GPX/1/1" xmlns:gpxtpx="http://www.garmin.com/xmlschemas/TrackPointExtension/v1" xmlns:xsi="http://www.w3.org/2001/XMLSchema-instance" creator="Sports Tracker" version="1.1" xsi:schemaLocation="http://www.topografix.com/GPX/1/1 http://www.topografix.com/GPX/1/1/gpx.xsd http://www.garmin.com/xmlschemas/TrackPointExtension/v1 http://www.garmin.com/xmlschemas/TrackPointExtensionv1.xsd"><metadata><name/><desc/><author><name>anttipehkonen240</name></author></metadata><trk><name/><trkseg><trkpt lat="60.16159" lon="24.931075"><ele>24.0</ele><time>2026-07-28T06:11:51Z</time></trkpt><trkpt lat="60.16159" lon="24.931075"><ele>24.0</ele><time>2026-07-28T06:11:58Z</time><extensions><gpxtpx:TrackPointExtension><gpxtpx:hr>85</gpxtpx:hr></gpxtpx:TrackPointExtension></extensions></trkpt><trkpt lat="60.16159" lon="24.931075"><ele>24.0</ele><time>2026-07-28T06:12:03Z</time><extensions><gpxtpx:TrackPointExtension><gpxtpx:hr>93</gpxtpx:hr></gpxtpx:TrackPointExtension></extensions></trkpt><trkpt lat="60.16159" lon="24.931075"><ele>24.0</ele><time>2026-07-28T06:12:05Z</time><extensions><gpxtpx:TrackPointExtension><gpxtpx:hr>94</gpxtpx:hr></gpxtpx:TrackPointExtension></extensions></trkpt><trkpt lat="60.16159" lon="24.931075"><ele>24.0</ele><time>2026-07-28T06:12:27Z</time><extensions><gpxtpx:TrackPointExtension><gpxtpx:hr>110</gpxtpx:hr></gpxtpx:TrackPointExtension></extensions></trkpt><trkpt lat="60.16159" lon="24.931075"><ele>24.0</ele><time>2026-07-28T06:12:33Z</time><extensions><gpxtpx:TrackPointExtension><gpxtpx:hr>118</gpxtpx:hr></gpxtpx:TrackPointExtension></extensions></trkpt><trkpt lat="60.16159" lon="24.931075"><ele>24.0</ele><time>2026-07-28T06:12:34Z</time><extensions><gpxtpx:TrackPointExtension><gpxtpx:hr>118</gpxtpx:hr></gpxtpx:TrackPointExtension></extensions></trkpt><trkpt lat="60.16159" lon="24.931075"><ele>24.0</ele><time>2026-07-28T06:12:41Z</time><extensions><gpxtpx:TrackPointExtension><gpxtpx:hr>124</gpxtpx:hr></gpxtpx:TrackPointExtension></extensions></trkpt><trkpt lat="60.16159" lon="24.931075"><ele>24.0</ele><time>2026-07-28T06:12:48Z</time><extensions><gpxtpx:TrackPointExtension><gpxtpx:hr>125</gpxtpx:hr></gpxtpx:TrackPointExtension></extensions></trkpt><trkpt lat="60.16159" lon="24.931075"><ele>24.0</ele><time>2026-07-28T06:12:53Z</time><extensions><gpxtpx:TrackPointExtension><gpxtpx:hr>127</gpxtpx:hr></gpxtpx:TrackPointExtension></extensions></trkpt><trkpt lat="60.16159" lon="24.931075"><ele>24.0</ele><time>2026-07-28T06:12:58Z</time><extensions><gpxtpx:TrackPointExtension><gpxtpx:hr>129</gpxtpx:hr></gpxtpx:TrackPointExtension></extensions></trkpt><trkpt lat="60.16159" lon="24.931075"><ele>24.0</ele><time>2026-07-28T06:12:59Z</time><extensions><gpxtpx:TrackPointExtension><gpxtpx:hr>130</gpxtpx:hr></gpxtpx:TrackPointExtension></extensions></trkpt><trkpt lat="60.16159" lon="24.931075"><ele>24.0</ele><time>2026-07-28T06:13:08Z</time><extensions><gpxtpx:TrackPointExtension><gpxtpx:hr>133</gpxtpx:hr></gpxtpx:TrackPointExtension></extensions></trkpt><trkpt lat="60.16159" lon="24.931075"><ele>24.0</ele><time>2026-07-28T06:13:11Z</time><extensions><gpxtpx:TrackPointExtension><gpxtpx:hr>135</gpxtpx:hr></gpxtpx:TrackPointExtension></extensions></trkpt><trkpt lat="60.16159" lon="24.931075"><ele>24.0</ele><time>2026-07-28T06:13:14Z</time><extensions><gpxtpx:TrackPointExtension><gpxtpx:hr>135</gpxtpx:hr></gpxtpx:TrackPointExtension></extensions></trkpt><trkpt lat="60.16159" lon="24.931075"><ele>24.0</ele><time>2026-07-28T06:13:19Z</time><extensions><gpxtpx:TrackPointExtension><gpxtpx:hr>135</gpxtpx:hr></gpxtpx:TrackPointExtension></extensions></trkpt><trkpt lat="60.16159" lon="24.931075"><ele>24.0</ele><time>2026-07-28T06:13:26Z</time><extensions><gpxtpx:TrackPointExtension><gpxtpx:hr>137</gpxtpx:hr></gpxtpx:TrackPointExtension></extensions></trkpt><trkpt lat="60.16159" lon="24.931075"><ele>24.0</ele><time>2026-07-28T06:13:30Z</time><extensions><gpxtpx:TrackPointExtension><gpxtpx:hr>142</gpxtpx:hr></gpxtpx:TrackPointExtension></extensions></trkpt><trkpt lat="60.16159" lon="24.931075"><ele>24.0</ele><time>2026-07-28T06:13:52Z</time><extensions><gpxtpx:TrackPointExtension><gpxtpx:hr>145</gpxtpx:hr></gpxtpx:TrackPointExtension></extensions></trkpt><trkpt lat="60.16159" lon="24.931075"><ele>24.0</ele><time>2026-07-28T06:13:58Z</time><extensions><gpxtpx:TrackPointExtension><gpxtpx:hr>144</gpxtpx:hr></gpxtpx:TrackPointExtension></extensions></trkpt><trkpt lat="60.16159" lon="24.931075"><ele>24.0</ele><time>2026-07-28T06:14:03Z</time><extensions><gpxtpx:TrackPointExtension><gpxtpx:hr>142</gpxtpx:hr></gpxtpx:TrackPointExtension></extensions></trkpt><trkpt lat="60.16159" lon="24.931075"><ele>24.0</ele><time>2026-07-28T06:14:08Z</time><extensions><gpxtpx:TrackPointExtension><gpxtpx:hr>141</gpxtpx:hr></gpxtpx:TrackPointExtension></extensions></trkpt><trkpt lat="60.16159" lon="24.931075"><ele>24.0</ele><time>2026-07-28T06:14:10Z</time><extensions><gpxtpx:TrackPointExtension><gpxtpx:hr>141</gpxtpx:hr></gpxtpx:TrackPointExtension></extensions></trkpt><trkpt lat="60.16159" lon="24.931075"><ele>24.0</ele><time>2026-07-28T06:14:14Z</time><extensions><gpxtpx:TrackPointExtension><gpxtpx:hr>141</gpxtpx:hr></gpxtpx:TrackPointExtension></extensions></trkpt><trkpt lat="60.16159" lon="24.931075"><ele>24.0</ele><time>2026-07-28T06:14:20Z</time><extensions><gpxtpx:TrackPointExtension><gpxtpx:hr>138</gpxtpx:hr></gpxtpx:TrackPointExtension></extensions></trkpt><trkpt lat="60.16159" lon="24.931075"><ele>24.0</ele><time>2026-07-28T06:14:25Z</time><extensions><gpxtpx:TrackPointExtension><gpxtpx:hr>136</gpxtpx:hr></gpxtpx:TrackPointExtension></extensions></trkpt><trkpt lat="60.16159" lon="24.931075"><ele>24.0</ele><time>2026-07-28T06:14:29Z</time><extensions><gpxtpx:TrackPointExtension><gpxtpx:hr>135</gpxtpx:hr></gpxtpx:TrackPointExtension></extensions></trkpt><trkpt lat="60.16159" lon="24.931075"><ele>24.0</ele><time>2026-07-28T06:14:38Z</time><extensions><gpxtpx:TrackPointExtension><gpxtpx:hr>138</gpxtpx:hr></gpxtpx:TrackPointExtension></extensions></trkpt><trkpt lat="60.16159" lon="24.931075"><ele>24.0</ele><time>2026-07-28T06:14:43Z</time><extensions><gpxtpx:TrackPointExtension><gpxtpx:hr>143</gpxtpx:hr></gpxtpx:TrackPointExtension></extensions></trkpt><trkpt lat="60.16159" lon="24.931075"><ele>24.0</ele><time>2026-07-28T06:14:44Z</time><extensions><gpxtpx:TrackPointExtension><gpxtpx:hr>143</gpxtpx:hr></gpxtpx:TrackPointExtension></extensions></trkpt><trkpt lat="60.16159" lon="24.931075"><ele>24.0</ele><time>2026-07-28T06:14:52Z</time><extensions><gpxtpx:TrackPointExtension><gpxtpx:hr>144</gpxtpx:hr></gpxtpx:TrackPointExtension></extensions></trkpt><trkpt lat="60.16159" lon="24.931075"><ele>24.0</ele><time>2026-07-28T06:14:54Z</time><extensions><gpxtpx:TrackPointExtension><gpxtpx:hr>143</gpxtpx:hr></gpxtpx:TrackPointExtension></extensions></trkpt><trkpt lat="60.16159" lon="24.931075"><ele>24.0</ele><time>2026-07-28T06:15:01Z</time><extensions><gpxtpx:TrackPointExtension><gpxtpx:hr>141</gpxtpx:hr></gpxtpx:TrackPointExtension></extensions></trkpt><trkpt lat="60.16159" lon="24.931075"><ele>24.0</ele><time>2026-07-28T06:15:04Z</time><extensions><gpxtpx:TrackPointExtension><gpxtpx:hr>139</gpxtpx:hr></gpxtpx:TrackPointExtension></extensions></trkpt><trkpt lat="60.16159" lon="24.931075"><ele>24.0</ele><time>2026-07-28T06:15:13Z</time><extensions><gpxtpx:TrackPointExtension><gpxtpx:hr>143</gpxtpx:hr></gpxtpx:TrackPointExtension></extensions></trkpt><trkpt lat="60.16159" lon="24.931075"><ele>24.0</ele><time>2026-07-28T06:15:18Z</time><extensions><gpxtpx:TrackPointExtension><gpxtpx:hr>148</gpxtpx:hr></gpxtpx:TrackPointExtension></extensions></trkpt><trkpt lat="60.16159" lon="24.931075"><ele>24.0</ele><time>2026-07-28T06:15:19Z</time><extensions><gpxtpx:TrackPointExtension><gpxtpx:hr>148</gpxtpx:hr></gpxtpx:TrackPointExtension></extensions></trkpt><trkpt lat="60.16159" lon="24.931075"><ele>24.0</ele><time>2026-07-28T06:15:24Z</time><extensions><gpxtpx:TrackPointExtension><gpxtpx:hr>148</gpxtpx:hr></gpxtpx:TrackPointExtension></extensions></trkpt><trkpt lat="60.16159" lon="24.931075"><ele>24.0</ele><time>2026-07-28T06:15:31Z</time><extensions><gpxtpx:TrackPointExtension><gpxtpx:hr>149</gpxtpx:hr></gpxtpx:TrackPointExtension></extensions></trkpt><trkpt lat="60.16159" lon="24.931075"><ele>24.0</ele><time>2026-07-28T06:15:34Z</time><extensions><gpxtpx:TrackPointExtension><gpxtpx:hr>148</gpxtpx:hr></gpxtpx:TrackPointExtension></extensions></trkpt><trkpt lat="60.16159" lon="24.931075"><ele>24.0</ele><time>2026-07-28T06:15:39Z</time><extensions><gpxtpx:TrackPointExtension><gpxtpx:hr>147</gpxtpx:hr></gpxtpx:TrackPointExtension></extensions></trkpt><trkpt lat="60.16159" lon="24.931075"><ele>24.0</ele><time>2026-07-28T06:15:44Z</time><extensions><gpxtpx:TrackPointExtension><gpxtpx:hr>149</gpxtpx:hr></gpxtpx:TrackPointExtension></extensions></trkpt><trkpt lat="60.16159" lon="24.931075"><ele>24.0</ele><time>2026-07-28T06:15:51Z</time><extensions><gpxtpx:TrackPointExtension><gpxtpx:hr>153</gpxtpx:hr></gpxtpx:TrackPointExtension></extensions></trkpt><trkpt lat="60.16159" lon="24.931075"><ele>24.0</ele><time>2026-07-28T06:15:54Z</time><extensions><gpxtpx:TrackPointExtension><gpxtpx:hr>154</gpxtpx:hr></gpxtpx:TrackPointExtension></extensions></trkpt><trkpt lat="60.16159" lon="24.931075"><ele>24.0</ele><time>2026-07-28T06:15:59Z</time><extensions><gpxtpx:TrackPointExtension><gpxtpx:hr>155</gpxtpx:hr></gpxtpx:TrackPointExtension></extensions></trkpt><trkpt lat="60.16159" lon="24.931075"><ele>24.0</ele><time>2026-07-28T06:16:07Z</time><extensions><gpxtpx:TrackPointExtension><gpxtpx:hr>156</gpxtpx:hr></gpxtpx:TrackPointExtension></extensions></trkpt><trkpt lat="60.16159" lon="24.931075"><ele>24.0</ele><time>2026-07-28T06:16:12Z</time><extensions><gpxtpx:TrackPointExtension><gpxtpx:hr>158</gpxtpx:hr></gpxtpx:TrackPointExtension></extensions></trkpt><trkpt lat="60.16159" lon="24.931075"><ele>24.0</ele><time>2026-07-28T06:16:18Z</time><extensions><gpxtpx:TrackPointExtension><gpxtpx:hr>155</gpxtpx:hr></gpxtpx:TrackPointExtension></extensions></trkpt><trkpt lat="60.16159" lon="24.931075"><ele>24.0</ele><time>2026-07-28T06:16:22Z</time><extensions><gpxtpx:TrackPointExtension><gpxtpx:hr>153</gpxtpx:hr></gpxtpx:TrackPointExtension></extensions></trkpt><trkpt lat="60.16159" lon="24.931075"><ele>24.0</ele><time>2026-07-28T06:16:26Z</time><extensions><gpxtpx:TrackPointExtension><gpxtpx:hr>153</gpxtpx:hr></gpxtpx:TrackPointExtension></extensions></trkpt><trkpt lat="60.16159" lon="24.931075"><ele>24.0</ele><time>2026-07-28T06:16:29Z</time><extensions><gpxtpx:TrackPointExtension><gpxtpx:hr>151</gpxtpx:hr></gpxtpx:TrackPointExtension></extensions></trkpt><trkpt lat="60.16159" lon="24.931075"><ele>24.0</ele><time>2026-07-28T06:16:34Z</time><extensions><gpxtpx:TrackPointExtension><gpxtpx:hr>149</gpxtpx:hr></gpxtpx:TrackPointExtension></extensions></trkpt><trkpt lat="60.16159" lon="24.931075"><ele>24.0</ele><time>2026-07-28T06:16:42Z</time><extensions><gpxtpx:TrackPointExtension><gpxtpx:hr>146</gpxtpx:hr></gpxtpx:TrackPointExtension></extensions></trkpt><trkpt lat="60.16159" lon="24.931075"><ele>24.0</ele><time>2026-07-28T06:16:44Z</time><extensions><gpxtpx:TrackPointExtension><gpxtpx:hr>146</gpxtpx:hr></gpxtpx:TrackPointExtension></extensions></trkpt><trkpt lat="60.16159" lon="24.931075"><ele>24.0</ele><time>2026-07-28T06:16:50Z</time><extensions><gpxtpx:TrackPointExtension><gpxtpx:hr>148</gpxtpx:hr></gpxtpx:TrackPointExtension></extensions></trkpt><trkpt lat="60.16159" lon="24.931075"><ele>24.0</ele><time>2026-07-28T06:16:55Z</time><extensions><gpxtpx:TrackPointExtension><gpxtpx:hr>150</gpxtpx:hr></gpxtpx:TrackPointExtension></extensions></trkpt><trkpt lat="60.16159" lon="24.931075"><ele>24.0</ele><time>2026-07-28T06:17:02Z</time><extensions><gpxtpx:TrackPointExtension><gpxtpx:hr>151</gpxtpx:hr></gpxtpx:TrackPointExtension></extensions></trkpt><trkpt lat="60.16159" lon="24.931075"><ele>24.0</ele><time>2026-07-28T06:17:05Z</time><extensions><gpxtpx:TrackPointExtension><gpxtpx:hr>152</gpxtpx:hr></gpxtpx:TrackPointExtension></extensions></trkpt><trkpt lat="60.16159" lon="24.931075"><ele>24.0</ele><time>2026-07-28T06:17:10Z</time><extensions><gpxtpx:TrackPointExtension><gpxtpx:hr>153</gpxtpx:hr></gpxtpx:TrackPointExtension></extensions></trkpt><trkpt lat="60.16159" lon="24.931075"><ele>24.0</ele><time>2026-07-28T06:17:14Z</time><extensions><gpxtpx:TrackPointExtension><gpxtpx:hr>153</gpxtpx:hr></gpxtpx:TrackPointExtension></extensions></trkpt><trkpt lat="60.16159" lon="24.931075"><ele>24.0</ele><time>2026-07-28T06:17:22Z</time><extensions><gpxtpx:TrackPointExtension><gpxtpx:hr>153</gpxtpx:hr></gpxtpx:TrackPointExtension></extensions></trkpt><trkpt lat="60.16159" lon="24.931075"><ele>24.0</ele><time>2026-07-28T06:17:28Z</time><extensions><gpxtpx:TrackPointExtension><gpxtpx:hr>153</gpxtpx:hr></gpxtpx:TrackPointExtension></extensions></trkpt><trkpt lat="60.16159" lon="24.931075"><ele>24.0</ele><time>2026-07-28T06:17:31Z</time><extensions><gpxtpx:TrackPointExtension><gpxtpx:hr>153</gpxtpx:hr></gpxtpx:TrackPointExtension></extensions></trkpt><trkpt lat="60.16159" lon="24.931075"><ele>24.0</ele><time>2026-07-28T06:17:37Z</time><extensions><gpxtpx:TrackPointExtension><gpxtpx:hr>152</gpxtpx:hr></gpxtpx:TrackPointExtension></extensions></trkpt><trkpt lat="60.16159" lon="24.931075"><ele>24.0</ele><time>2026-07-28T06:17:43Z</time><extensions><gpxtpx:TrackPointExtension><gpxtpx:hr>152</gpxtpx:hr></gpxtpx:TrackPointExtension></extensions></trkpt><trkpt lat="60.16159" lon="24.931075"><ele>24.0</ele><time>2026-07-28T06:17:45Z</time><extensions><gpxtpx:TrackPointExtension><gpxtpx:hr>151</gpxtpx:hr></gpxtpx:TrackPointExtension></extensions></trkpt><trkpt lat="60.16159" lon="24.931075"><ele>24.0</ele><time>2026-07-28T06:17:53Z</time><extensions><gpxtpx:TrackPointExtension><gpxtpx:hr>152</gpxtpx:hr></gpxtpx:TrackPointExtension></extensions></trkpt><trkpt lat="60.16159" lon="24.931075"><ele>24.0</ele><time>2026-07-28T06:17:58Z</time><extensions><gpxtpx:TrackPointExtension><gpxtpx:hr>152</gpxtpx:hr></gpxtpx:TrackPointExtension></extensions></trkpt><trkpt lat="60.16159" lon="24.931075"><ele>24.0</ele><time>2026-07-28T06:17:59Z</time><extensions><gpxtpx:TrackPointExtension><gpxtpx:hr>153</gpxtpx:hr></gpxtpx:TrackPointExtension></extensions></trkpt><trkpt lat="60.16159" lon="24.931075"><ele>24.0</ele><time>2026-07-28T06:18:04Z</time><extensions><gpxtpx:TrackPointExtension><gpxtpx:hr>152</gpxtpx:hr></gpxtpx:TrackPointExtension></extensions></trkpt><trkpt lat="60.16159" lon="24.931075"><ele>24.0</ele><time>2026-07-28T06:18:09Z</time><extensions><gpxtpx:TrackPointExtension><gpxtpx:hr>151</gpxtpx:hr></gpxtpx:TrackPointExtension></extensions></trkpt><trkpt lat="60.16159" lon="24.931075"><ele>24.0</ele><time>2026-07-28T06:18:15Z</time><extensions><gpxtpx:TrackPointExtension><gpxtpx:hr>151</gpxtpx:hr></gpxtpx:TrackPointExtension></extensions></trkpt><trkpt lat="60.16159" lon="24.931075"><ele>24.0</ele><time>2026-07-28T06:18:23Z</time><extensions><gpxtpx:TrackPointExtension><gpxtpx:hr>145</gpxtpx:hr></gpxtpx:TrackPointExtension></extensions></trkpt><trkpt lat="60.16159" lon="24.931075"><ele>24.0</ele><time>2026-07-28T06:18:27Z</time><extensions><gpxtpx:TrackPointExtension><gpxtpx:hr>144</gpxtpx:hr></gpxtpx:TrackPointExtension></extensions></trkpt><trkpt lat="60.16159" lon="24.931075"><ele>24.0</ele><time>2026-07-28T06:18:32Z</time><extensions><gpxtpx:TrackPointExtension><gpxtpx:hr>143</gpxtpx:hr></gpxtpx:TrackPointExtension></extensions></trkpt><trkpt lat="60.16159" lon="24.931075"><ele>24.0</ele><time>2026-07-28T06:18:35Z</time><extensions><gpxtpx:TrackPointExtension><gpxtpx:hr>141</gpxtpx:hr></gpxtpx:TrackPointExtension></extensions></trkpt><trkpt lat="60.16159" lon="24.931075"><ele>24.0</ele><time>2026-07-28T06:18:39Z</time><extensions><gpxtpx:TrackPointExtension><gpxtpx:hr>139</gpxtpx:hr></gpxtpx:TrackPointExtension></extensions></trkpt><trkpt lat="60.16159" lon="24.931075"><ele>24.0</ele><time>2026-07-28T06:18:44Z</time><extensions><gpxtpx:TrackPointExtension><gpxtpx:hr>137</gpxtpx:hr></gpxtpx:TrackPointExtension></extensions></trkpt><trkpt lat="60.16159" lon="24.931075"><ele>24.0</ele><time>2026-07-28T06:18:51Z</time><extensions><gpxtpx:TrackPointExtension><gpxtpx:hr>138</gpxtpx:hr></gpxtpx:TrackPointExtension></extensions></trkpt><trkpt lat="60.16159" lon="24.931075"><ele>24.0</ele><time>2026-07-28T06:18:58Z</time><extensions><gpxtpx:TrackPointExtension><gpxtpx:hr>143</gpxtpx:hr></gpxtpx:TrackPointExtension></extensions></trkpt><trkpt lat="60.16159" lon="24.931075"><ele>24.0</ele><time>2026-07-28T06:19:03Z</time><extensions><gpxtpx:TrackPointExtension><gpxtpx:hr>145</gpxtpx:hr></gpxtpx:TrackPointExtension></extensions></trkpt><trkpt lat="60.16159" lon="24.931075"><ele>24.0</ele><time>2026-07-28T06:19:05Z</time><extensions><gpxtpx:TrackPointExtension><gpxtpx:hr>145</gpxtpx:hr></gpxtpx:TrackPointExtension></extensions></trkpt><trkpt lat="60.16159" lon="24.931075"><ele>24.0</ele><time>2026-07-28T06:19:09Z</time><extensions><gpxtpx:TrackPointExtension><gpxtpx:hr>145</gpxtpx:hr></gpxtpx:TrackPointExtension></extensions></trkpt><trkpt lat="60.16159" lon="24.931075"><ele>24.0</ele><time>2026-07-28T06:19:14Z</time><extensions><gpxtpx:TrackPointExtension><gpxtpx:hr>145</gpxtpx:hr></gpxtpx:TrackPointExtension></extensions></trkpt><trkpt lat="60.16159" lon="24.931075"><ele>24.0</ele><time>2026-07-28T06:19:19Z</time><extensions><gpxtpx:TrackPointExtension><gpxtpx:hr>141</gpxtpx:hr></gpxtpx:TrackPointExtension></extensions></trkpt><trkpt lat="60.16159" lon="24.931075"><ele>24.0</ele><time>2026-07-28T06:19:28Z</time><extensions><gpxtpx:TrackPointExtension><gpxtpx:hr>141</gpxtpx:hr></gpxtpx:TrackPointExtension></extensions></trkpt><trkpt lat="60.16159" lon="24.931075"><ele>24.0</ele><time>2026-07-28T06:19:29Z</time><extensions><gpxtpx:TrackPointExtension><gpxtpx:hr>141</gpxtpx:hr></gpxtpx:TrackPointExtension></extensions></trkpt><trkpt lat="60.16159" lon="24.931075"><ele>24.0</ele><time>2026-07-28T06:19:34Z</time><extensions><gpxtpx:TrackPointExtension><gpxtpx:hr>142</gpxtpx:hr></gpxtpx:TrackPointExtension></extensions></trkpt><trkpt lat="60.16159" lon="24.931075"><ele>24.0</ele><time>2026-07-28T06:19:39Z</time><extensions><gpxtpx:TrackPointExtension><gpxtpx:hr>144</gpxtpx:hr></gpxtpx:TrackPointExtension></extensions></trkpt><trkpt lat="60.16159" lon="24.931075"><ele>24.0</ele><time>2026-07-28T06:19:46Z</time><extensions><gpxtpx:TrackPointExtension><gpxtpx:hr>147</gpxtpx:hr></gpxtpx:TrackPointExtension></extensions></trkpt><trkpt lat="60.16159" lon="24.931075"><ele>24.0</ele><time>2026-07-28T06:19:50Z</time><extensions><gpxtpx:TrackPointExtension><gpxtpx:hr>149</gpxtpx:hr></gpxtpx:TrackPointExtension></extensions></trkpt><trkpt lat="60.16159" lon="24.931075"><ele>24.0</ele><time>2026-07-28T06:19:55Z</time><extensions><gpxtpx:TrackPointExtension><gpxtpx:hr>151</gpxtpx:hr></gpxtpx:TrackPointExtension></extensions></trkpt><trkpt lat="60.16159" lon="24.931075"><ele>24.0</ele><time>2026-07-28T06:20:03Z</time><extensions><gpxtpx:TrackPointExtension><gpxtpx:hr>153</gpxtpx:hr></gpxtpx:TrackPointExtension></extensions></trkpt><trkpt lat="60.16159" lon="24.931075"><ele>24.0</ele><time>2026-07-28T06:20:07Z</time><extensions><gpxtpx:TrackPointExtension><gpxtpx:hr>153</gpxtpx:hr></gpxtpx:TrackPointExtension></extensions></trkpt><trkpt lat="60.16159" lon="24.931075"><ele>24.0</ele><time>2026-07-28T06:20:10Z</time><extensions><gpxtpx:TrackPointExtension><gpxtpx:hr>154</gpxtpx:hr></gpxtpx:TrackPointExtension></extensions></trkpt><trkpt lat="60.16159" lon="24.931075"><ele>24.0</ele><time>2026-07-28T06:20:16Z</time><extensions><gpxtpx:TrackPointExtension><gpxtpx:hr>154</gpxtpx:hr></gpxtpx:TrackPointExtension></extensions></trkpt><trkpt lat="60.16159" lon="24.931075"><ele>24.0</ele><time>2026-07-28T06:20:23Z</time><extensions><gpxtpx:TrackPointExtension><gpxtpx:hr>155</gpxtpx:hr></gpxtpx:TrackPointExtension></extensions></trkpt><trkpt lat="60.16159" lon="24.931075"><ele>24.0</ele><time>2026-07-28T06:20:24Z</time><extensions><gpxtpx:TrackPointExtension><gpxtpx:hr>156</gpxtpx:hr></gpxtpx:TrackPointExtension></extensions></trkpt><trkpt lat="60.16159" lon="24.931075"><ele>24.0</ele><time>2026-07-28T06:20:31Z</time><extensions><gpxtpx:TrackPointExtension><gpxtpx:hr>157</gpxtpx:hr></gpxtpx:TrackPointExtension></extensions></trkpt><trkpt lat="60.16159" lon="24.931075"><ele>24.0</ele><time>2026-07-28T06:20:37Z</time><extensions><gpxtpx:TrackPointExtension><gpxtpx:hr>159</gpxtpx:hr></gpxtpx:TrackPointExtension></extensions></trkpt><trkpt lat="60.16159" lon="24.931075"><ele>24.0</ele><time>2026-07-28T06:20:43Z</time><extensions><gpxtpx:TrackPointExtension><gpxtpx:hr>155</gpxtpx:hr></gpxtpx:TrackPointExtension></extensions></trkpt><trkpt lat="60.16159" lon="24.931075"><ele>24.0</ele><time>2026-07-28T06:20:46Z</time><extensions><gpxtpx:TrackPointExtension><gpxtpx:hr>152</gpxtpx:hr></gpxtpx:TrackPointExtension></extensions></trkpt><trkpt lat="60.16159" lon="24.931075"><ele>24.0</ele><time>2026-07-28T06:20:50Z</time><extensions><gpxtpx:TrackPointExtension><gpxtpx:hr>150</gpxtpx:hr></gpxtpx:TrackPointExtension></extensions></trkpt><trkpt lat="60.16159" lon="24.931075"><ele>24.0</ele><time>2026-07-28T06:20:54Z</time><extensions><gpxtpx:TrackPointExtension><gpxtpx:hr>148</gpxtpx:hr></gpxtpx:TrackPointExtension></extensions></trkpt><trkpt lat="60.16159" lon="24.931075"><ele>24.0</ele><time>2026-07-28T06:21:00Z</time><extensions><gpxtpx:TrackPointExtension><gpxtpx:hr>145</gpxtpx:hr></gpxtpx:TrackPointExtension></extensions></trkpt><trkpt lat="60.16159" lon="24.931075"><ele>24.0</ele><time>2026-07-28T06:21:04Z</time><extensions><gpxtpx:TrackPointExtension><gpxtpx:hr>144</gpxtpx:hr></gpxtpx:TrackPointExtension></extensions></trkpt><trkpt lat="60.16159" lon="24.931075"><ele>24.0</ele><time>2026-07-28T06:21:09Z</time><extensions><gpxtpx:TrackPointExtension><gpxtpx:hr>142</gpxtpx:hr></gpxtpx:TrackPointExtension></extensions></trkpt><trkpt lat="60.16159" lon="24.931075"><ele>24.0</ele><time>2026-07-28T06:21:14Z</time><extensions><gpxtpx:TrackPointExtension><gpxtpx:hr>137</gpxtpx:hr></gpxtpx:TrackPointExtension></extensions></trkpt><trkpt lat="60.16159" lon="24.931075"><ele>24.0</ele><time>2026-07-28T06:21:21Z</time><extensions><gpxtpx:TrackPointExtension><gpxtpx:hr>138</gpxtpx:hr></gpxtpx:TrackPointExtension></extensions></trkpt><trkpt lat="60.16159" lon="24.931075"><ele>24.0</ele><time>2026-07-28T06:21:25Z</time><extensions><gpxtpx:TrackPointExtension><gpxtpx:hr>138</gpxtpx:hr></gpxtpx:TrackPointExtension></extensions></trkpt><trkpt lat="60.16159" lon="24.931075"><ele>24.0</ele><time>2026-07-28T06:21:29Z</time><extensions><gpxtpx:TrackPointExtension><gpxtpx:hr>135</gpxtpx:hr></gpxtpx:TrackPointExtension></extensions></trkpt><trkpt lat="60.16159" lon="24.931075"><ele>24.0</ele><time>2026-07-28T06:21:37Z</time><extensions><gpxtpx:TrackPointExtension><gpxtpx:hr>146</gpxtpx:hr></gpxtpx:TrackPointExtension></extensions></trkpt><trkpt lat="60.16159" lon="24.931075"><ele>24.0</ele><time>2026-07-28T06:21:41Z</time><extensions><gpxtpx:TrackPointExtension><gpxtpx:hr>142</gpxtpx:hr></gpxtpx:TrackPointExtension></extensions></trkpt><trkpt lat="60.16159" lon="24.931075"><ele>24.0</ele><time>2026-07-28T06:21:45Z</time><extensions><gpxtpx:TrackPointExtension><gpxtpx:hr>141</gpxtpx:hr></gpxtpx:TrackPointExtension></extensions></trkpt><trkpt lat="60.16159" lon="24.931075"><ele>24.0</ele><time>2026-07-28T06:22:18Z</time><extensions><gpxtpx:TrackPointExtension><gpxtpx:hr>152</gpxtpx:hr></gpxtpx:TrackPointExtension></extensions></trkpt><trkpt lat="60.16159" lon="24.931075"><ele>24.0</ele><time>2026-07-28T06:22:21Z</time><extensions><gpxtpx:TrackPointExtension><gpxtpx:hr>151</gpxtpx:hr></gpxtpx:TrackPointExtension></extensions></trkpt><trkpt lat="60.16159" lon="24.931075"><ele>24.0</ele><time>2026-07-28T06:22:24Z</time><extensions><gpxtpx:TrackPointExtension><gpxtpx:hr>150</gpxtpx:hr></gpxtpx:TrackPointExtension></extensions></trkpt><trkpt lat="60.16159" lon="24.931075"><ele>24.0</ele><time>2026-07-28T06:22:30Z</time><extensions><gpxtpx:TrackPointExtension><gpxtpx:hr>148</gpxtpx:hr></gpxtpx:TrackPointExtension></extensions></trkpt><trkpt lat="60.16159" lon="24.931075"><ele>24.0</ele><time>2026-07-28T06:22:34Z</time><extensions><gpxtpx:TrackPointExtension><gpxtpx:hr>147</gpxtpx:hr></gpxtpx:TrackPointExtension></extensions></trkpt><trkpt lat="60.16159" lon="24.931075"><ele>24.0</ele><time>2026-07-28T06:22:39Z</time><extensions><gpxtpx:TrackPointExtension><gpxtpx:hr>147</gpxtpx:hr></gpxtpx:TrackPointExtension></extensions></trkpt><trkpt lat="60.16159" lon="24.931075"><ele>24.0</ele><time>2026-07-28T06:22:44Z</time><extensions><gpxtpx:TrackPointExtension><gpxtpx:hr>148</gpxtpx:hr></gpxtpx:TrackPointExtension></extensions></trkpt><trkpt lat="60.16159" lon="24.931075"><ele>24.0</ele><time>2026-07-28T06:22:52Z</time><extensions><gpxtpx:TrackPointExtension><gpxtpx:hr>150</gpxtpx:hr></gpxtpx:TrackPointExtension></extensions></trkpt><trkpt lat="60.16159" lon="24.931075"><ele>24.0</ele><time>2026-07-28T06:22:58Z</time><extensions><gpxtpx:TrackPointExtension><gpxtpx:hr>151</gpxtpx:hr></gpxtpx:TrackPointExtension></extensions></trkpt><trkpt lat="60.16159" lon="24.931075"><ele>24.0</ele><time>2026-07-28T06:23:03Z</time><extensions><gpxtpx:TrackPointExtension><gpxtpx:hr>153</gpxtpx:hr></gpxtpx:TrackPointExtension></extensions></trkpt><trkpt lat="60.16159" lon="24.931075"><ele>24.0</ele><time>2026-07-28T06:23:04Z</time><extensions><gpxtpx:TrackPointExtension><gpxtpx:hr>152</gpxtpx:hr></gpxtpx:TrackPointExtension></extensions></trkpt><trkpt lat="60.16159" lon="24.931075"><ele>24.0</ele><time>2026-07-28T06:23:13Z</time><extensions><gpxtpx:TrackPointExtension><gpxtpx:hr>155</gpxtpx:hr></gpxtpx:TrackPointExtension></extensions></trkpt><trkpt lat="60.16159" lon="24.931075"><ele>24.0</ele><time>2026-07-28T06:23:14Z</time><extensions><gpxtpx:TrackPointExtension><gpxtpx:hr>157</gpxtpx:hr></gpxtpx:TrackPointExtension></extensions></trkpt><trkpt lat="60.16159" lon="24.931075"><ele>24.0</ele><time>2026-07-28T06:23:20Z</time><extensions><gpxtpx:TrackPointExtension><gpxtpx:hr>154</gpxtpx:hr></gpxtpx:TrackPointExtension></extensions></trkpt><trkpt lat="60.16159" lon="24.931075"><ele>24.0</ele><time>2026-07-28T06:23:25Z</time><extensions><gpxtpx:TrackPointExtension><gpxtpx:hr>153</gpxtpx:hr></gpxtpx:TrackPointExtension></extensions></trkpt><trkpt lat="60.16159" lon="24.931075"><ele>24.0</ele><time>2026-07-28T06:23:29Z</time><extensions><gpxtpx:TrackPointExtension><gpxtpx:hr>154</gpxtpx:hr></gpxtpx:TrackPointExtension></extensions></trkpt><trkpt lat="60.16159" lon="24.931075"><ele>24.0</ele><time>2026-07-28T06:23:36Z</time><extensions><gpxtpx:TrackPointExtension><gpxtpx:hr>155</gpxtpx:hr></gpxtpx:TrackPointExtension></extensions></trkpt><trkpt lat="60.16159" lon="24.931075"><ele>24.0</ele><time>2026-07-28T06:23:42Z</time><extensions><gpxtpx:TrackPointExtension><gpxtpx:hr>157</gpxtpx:hr></gpxtpx:TrackPointExtension></extensions></trkpt><trkpt lat="60.16159" lon="24.931075"><ele>24.0</ele><time>2026-07-28T06:23:44Z</time><extensions><gpxtpx:TrackPointExtension><gpxtpx:hr>157</gpxtpx:hr></gpxtpx:TrackPointExtension></extensions></trkpt><trkpt lat="60.16159" lon="24.931075"><ele>24.0</ele><time>2026-07-28T06:23:52Z</time><extensions><gpxtpx:TrackPointExtension><gpxtpx:hr>158</gpxtpx:hr></gpxtpx:TrackPointExtension></extensions></trkpt><trkpt lat="60.16159" lon="24.931075"><ele>24.0</ele><time>2026-07-28T06:23:57Z</time><extensions><gpxtpx:TrackPointExtension><gpxtpx:hr>158</gpxtpx:hr></gpxtpx:TrackPointExtension></extensions></trkpt><trkpt lat="60.16159" lon="24.931075"><ele>24.0</ele><time>2026-07-28T06:24:03Z</time><extensions><gpxtpx:TrackPointExtension><gpxtpx:hr>159</gpxtpx:hr></gpxtpx:TrackPointExtension></extensions></trkpt><trkpt lat="60.16159" lon="24.931075"><ele>24.0</ele><time>2026-07-28T06:24:05Z</time><extensions><gpxtpx:TrackPointExtension><gpxtpx:hr>160</gpxtpx:hr></gpxtpx:TrackPointExtension></extensions></trkpt><trkpt lat="60.16159" lon="24.931075"><ele>24.0</ele><time>2026-07-28T06:24:10Z</time><extensions><gpxtpx:TrackPointExtension><gpxtpx:hr>160</gpxtpx:hr></gpxtpx:TrackPointExtension></extensions></trkpt><trkpt lat="60.16159" lon="24.931075"><ele>24.0</ele><time>2026-07-28T06:24:14Z</time><extensions><gpxtpx:TrackPointExtension><gpxtpx:hr>160</gpxtpx:hr></gpxtpx:TrackPointExtension></extensions></trkpt><trkpt lat="60.16159" lon="24.931075"><ele>24.0</ele><time>2026-07-28T06:24:23Z</time><extensions><gpxtpx:TrackPointExtension><gpxtpx:hr>161</gpxtpx:hr></gpxtpx:TrackPointExtension></extensions></trkpt><trkpt lat="60.16159" lon="24.931075"><ele>24.0</ele><time>2026-07-28T06:24:24Z</time><extensions><gpxtpx:TrackPointExtension><gpxtpx:hr>161</gpxtpx:hr></gpxtpx:TrackPointExtension></extensions></trkpt><trkpt lat="60.16159" lon="24.931075"><ele>24.0</ele><time>2026-07-28T06:24:31Z</time><extensions><gpxtpx:TrackPointExtension><gpxtpx:hr>161</gpxtpx:hr></gpxtpx:TrackPointExtension></extensions></trkpt><trkpt lat="60.16159" lon="24.931075"><ele>24.0</ele><time>2026-07-28T06:24:38Z</time><extensions><gpxtpx:TrackPointExtension><gpxtpx:hr>162</gpxtpx:hr></gpxtpx:TrackPointExtension></extensions></trkpt><trkpt lat="60.16159" lon="24.931075"><ele>24.0</ele><time>2026-07-28T06:24:39Z</time><extensions><gpxtpx:TrackPointExtension><gpxtpx:hr>162</gpxtpx:hr></gpxtpx:TrackPointExtension></extensions></trkpt><trkpt lat="60.16159" lon="24.931075"><ele>24.0</ele><time>2026-07-28T06:24:46Z</time><extensions><gpxtpx:TrackPointExtension><gpxtpx:hr>163</gpxtpx:hr></gpxtpx:TrackPointExtension></extensions></trkpt><trkpt lat="60.16159" lon="24.931075"><ele>24.0</ele><time>2026-07-28T06:24:52Z</time><extensions><gpxtpx:TrackPointExtension><gpxtpx:hr>163</gpxtpx:hr></gpxtpx:TrackPointExtension></extensions></trkpt><trkpt lat="60.16159" lon="24.931075"><ele>24.0</ele><time>2026-07-28T06:24:58Z</time><extensions><gpxtpx:TrackPointExtension><gpxtpx:hr>163</gpxtpx:hr></gpxtpx:TrackPointExtension></extensions></trkpt><trkpt lat="60.16159" lon="24.931075"><ele>24.0</ele><time>2026-07-28T06:25:00Z</time><extensions><gpxtpx:TrackPointExtension><gpxtpx:hr>163</gpxtpx:hr></gpxtpx:TrackPointExtension></extensions></trkpt><trkpt lat="60.16159" lon="24.931075"><ele>24.0</ele><time>2026-07-28T06:25:04Z</time><extensions><gpxtpx:TrackPointExtension><gpxtpx:hr>163</gpxtpx:hr></gpxtpx:TrackPointExtension></extensions></trkpt><trkpt lat="60.16159" lon="24.931075"><ele>24.0</ele><time>2026-07-28T06:25:10Z</time><extensions><gpxtpx:TrackPointExtension><gpxtpx:hr>162</gpxtpx:hr></gpxtpx:TrackPointExtension></extensions></trkpt><trkpt lat="60.16159" lon="24.931075"><ele>24.0</ele><time>2026-07-28T06:25:18Z</time><extensions><gpxtpx:TrackPointExtension><gpxtpx:hr>161</gpxtpx:hr></gpxtpx:TrackPointExtension></extensions></trkpt><trkpt lat="60.16159" lon="24.931075"><ele>24.0</ele><time>2026-07-28T06:25:22Z</time><extensions><gpxtpx:TrackPointExtension><gpxtpx:hr>160</gpxtpx:hr></gpxtpx:TrackPointExtension></extensions></trkpt><trkpt lat="60.16159" lon="24.931075"><ele>24.0</ele><time>2026-07-28T06:25:24Z</time><extensions><gpxtpx:TrackPointExtension><gpxtpx:hr>158</gpxtpx:hr></gpxtpx:TrackPointExtension></extensions></trkpt><trkpt lat="60.16159" lon="24.931075"><ele>24.0</ele><time>2026-07-28T06:25:32Z</time><extensions><gpxtpx:TrackPointExtension><gpxtpx:hr>159</gpxtpx:hr></gpxtpx:TrackPointExtension></extensions></trkpt><trkpt lat="60.16159" lon="24.931075"><ele>24.0</ele><time>2026-07-28T06:25:36Z</time><extensions><gpxtpx:TrackPointExtension><gpxtpx:hr>156</gpxtpx:hr></gpxtpx:TrackPointExtension></extensions></trkpt><trkpt lat="60.16159" lon="24.931075"><ele>24.0</ele><time>2026-07-28T06:25:39Z</time><extensions><gpxtpx:TrackPointExtension><gpxtpx:hr>153</gpxtpx:hr></gpxtpx:TrackPointExtension></extensions></trkpt><trkpt lat="60.16159" lon="24.931075"><ele>24.0</ele><time>2026-07-28T06:25:47Z</time><extensions><gpxtpx:TrackPointExtension><gpxtpx:hr>149</gpxtpx:hr></gpxtpx:TrackPointExtension></extensions></trkpt><trkpt lat="60.16159" lon="24.931075"><ele>24.0</ele><time>2026-07-28T06:25:49Z</time><extensions><gpxtpx:TrackPointExtension><gpxtpx:hr>149</gpxtpx:hr></gpxtpx:TrackPointExtension></extensions></trkpt><trkpt lat="60.16159" lon="24.931075"><ele>24.0</ele><time>2026-07-28T06:25:54Z</time><extensions><gpxtpx:TrackPointExtension><gpxtpx:hr>148</gpxtpx:hr></gpxtpx:TrackPointExtension></extensions></trkpt><trkpt lat="60.16159" lon="24.931075"><ele>24.0</ele><time>2026-07-28T06:25:59Z</time><extensions><gpxtpx:TrackPointExtension><gpxtpx:hr>150</gpxtpx:hr></gpxtpx:TrackPointExtension></extensions></trkpt><trkpt lat="60.16159" lon="24.931075"><ele>24.0</ele><time>2026-07-28T06:26:04Z</time><extensions><gpxtpx:TrackPointExtension><gpxtpx:hr>152</gpxtpx:hr></gpxtpx:TrackPointExtension></extensions></trkpt><trkpt lat="60.16159" lon="24.931075"><ele>24.0</ele><time>2026-07-28T06:26:12Z</time><extensions><gpxtpx:TrackPointExtension><gpxtpx:hr>157</gpxtpx:hr></gpxtpx:TrackPointExtension></extensions></trkpt><trkpt lat="60.16159" lon="24.931075"><ele>24.0</ele><time>2026-07-28T06:26:18Z</time><extensions><gpxtpx:TrackPointExtension><gpxtpx:hr>158</gpxtpx:hr></gpxtpx:TrackPointExtension></extensions></trkpt><trkpt lat="60.16159" lon="24.931075"><ele>24.0</ele><time>2026-07-28T06:26:23Z</time><extensions><gpxtpx:TrackPointExtension><gpxtpx:hr>160</gpxtpx:hr></gpxtpx:TrackPointExtension></extensions></trkpt><trkpt lat="60.16159" lon="24.931075"><ele>24.0</ele><time>2026-07-28T06:26:27Z</time><extensions><gpxtpx:TrackPointExtension><gpxtpx:hr>160</gpxtpx:hr></gpxtpx:TrackPointExtension></extensions></trkpt><trkpt lat="60.16159" lon="24.931075"><ele>24.0</ele><time>2026-07-28T06:26:33Z</time><extensions><gpxtpx:TrackPointExtension><gpxtpx:hr>162</gpxtpx:hr></gpxtpx:TrackPointExtension></extensions></trkpt><trkpt lat="60.16159" lon="24.931075"><ele>24.0</ele><time>2026-07-28T06:26:38Z</time><extensions><gpxtpx:TrackPointExtension><gpxtpx:hr>163</gpxtpx:hr></gpxtpx:TrackPointExtension></extensions></trkpt><trkpt lat="60.16159" lon="24.931075"><ele>24.0</ele><time>2026-07-28T06:26:41Z</time><extensions><gpxtpx:TrackPointExtension><gpxtpx:hr>163</gpxtpx:hr></gpxtpx:TrackPointExtension></extensions></trkpt><trkpt lat="60.16159" lon="24.931075"><ele>24.0</ele><time>2026-07-28T06:26:44Z</time><extensions><gpxtpx:TrackPointExtension><gpxtpx:hr>164</gpxtpx:hr></gpxtpx:TrackPointExtension></extensions></trkpt><trkpt lat="60.16159" lon="24.931075"><ele>24.0</ele><time>2026-07-28T06:26:49Z</time><extensions><gpxtpx:TrackPointExtension><gpxtpx:hr>163</gpxtpx:hr></gpxtpx:TrackPointExtension></extensions></trkpt><trkpt lat="60.16159" lon="24.931075"><ele>24.0</ele><time>2026-07-28T06:26:55Z</time><extensions><gpxtpx:TrackPointExtension><gpxtpx:hr>164</gpxtpx:hr></gpxtpx:TrackPointExtension></extensions></trkpt><trkpt lat="60.16159" lon="24.931075"><ele>24.0</ele><time>2026-07-28T06:27:03Z</time><extensions><gpxtpx:TrackPointExtension><gpxtpx:hr>164</gpxtpx:hr></gpxtpx:TrackPointExtension></extensions></trkpt><trkpt lat="60.16159" lon="24.931075"><ele>24.0</ele><time>2026-07-28T06:27:06Z</time><extensions><gpxtpx:TrackPointExtension><gpxtpx:hr>165</gpxtpx:hr></gpxtpx:TrackPointExtension></extensions></trkpt><trkpt lat="60.16159" lon="24.931075"><ele>24.0</ele><time>2026-07-28T06:27:12Z</time><extensions><gpxtpx:TrackPointExtension><gpxtpx:hr>155</gpxtpx:hr></gpxtpx:TrackPointExtension></extensions></trkpt><trkpt lat="60.16159" lon="24.931075"><ele>24.0</ele><time>2026-07-28T06:27:17Z</time><extensions><gpxtpx:TrackPointExtension><gpxtpx:hr>152</gpxtpx:hr></gpxtpx:TrackPointExtension></extensions></trkpt><trkpt lat="60.16159" lon="24.931075"><ele>24.0</ele><time>2026-07-28T06:27:20Z</time><extensions><gpxtpx:TrackPointExtension><gpxtpx:hr>151</gpxtpx:hr></gpxtpx:TrackPointExtension></extensions></trkpt><trkpt lat="60.16159" lon="24.931075"><ele>24.0</ele><time>2026-07-28T06:27:24Z</time><extensions><gpxtpx:TrackPointExtension><gpxtpx:hr>150</gpxtpx:hr></gpxtpx:TrackPointExtension></extensions></trkpt><trkpt lat="60.16159" lon="24.931075"><ele>24.0</ele><time>2026-07-28T06:27:32Z</time><extensions><gpxtpx:TrackPointExtension><gpxtpx:hr>146</gpxtpx:hr></gpxtpx:TrackPointExtension></extensions></trkpt><trkpt lat="60.16159" lon="24.931075"><ele>24.0</ele><time>2026-07-28T06:27:34Z</time><extensions><gpxtpx:TrackPointExtension><gpxtpx:hr>145</gpxtpx:hr></gpxtpx:TrackPointExtension></extensions></trkpt><trkpt lat="60.16159" lon="24.931075"><ele>24.0</ele><time>2026-07-28T06:27:43Z</time><extensions><gpxtpx:TrackPointExtension><gpxtpx:hr>143</gpxtpx:hr></gpxtpx:TrackPointExtension></extensions></trkpt><trkpt lat="60.16159" lon="24.931075"><ele>24.0</ele><time>2026-07-28T06:27:48Z</time><extensions><gpxtpx:TrackPointExtension><gpxtpx:hr>141</gpxtpx:hr></gpxtpx:TrackPointExtension></extensions></trkpt><trkpt lat="60.16159" lon="24.931075"><ele>24.0</ele><time>2026-07-28T06:27:50Z</time><extensions><gpxtpx:TrackPointExtension><gpxtpx:hr>141</gpxtpx:hr></gpxtpx:TrackPointExtension></extensions></trkpt><trkpt lat="60.16159" lon="24.931075"><ele>24.0</ele><time>2026-07-28T06:27:54Z</time><extensions><gpxtpx:TrackPointExtension><gpxtpx:hr>141</gpxtpx:hr></gpxtpx:TrackPointExtension></extensions></trkpt><trkpt lat="60.16159" lon="24.931075"><ele>24.0</ele><time>2026-07-28T06:28:03Z</time><extensions><gpxtpx:TrackPointExtension><gpxtpx:hr>147</gpxtpx:hr></gpxtpx:TrackPointExtension></extensions></trkpt><trkpt lat="60.16159" lon="24.931075"><ele>24.0</ele><time>2026-07-28T06:28:04Z</time><extensions><gpxtpx:TrackPointExtension><gpxtpx:hr>147</gpxtpx:hr></gpxtpx:TrackPointExtension></extensions></trkpt><trkpt lat="60.16159" lon="24.931075"><ele>24.0</ele><time>2026-07-28T06:28:11Z</time><extensions><gpxtpx:TrackPointExtension><gpxtpx:hr>145</gpxtpx:hr></gpxtpx:TrackPointExtension></extensions></trkpt><trkpt lat="60.16159" lon="24.931075"><ele>24.0</ele><time>2026-07-28T06:28:15Z</time><extensions><gpxtpx:TrackPointExtension><gpxtpx:hr>146</gpxtpx:hr></gpxtpx:TrackPointExtension></extensions></trkpt><trkpt lat="60.16159" lon="24.931075"><ele>24.0</ele><time>2026-07-28T06:28:23Z</time><extensions><gpxtpx:TrackPointExtension><gpxtpx:hr>143</gpxtpx:hr></gpxtpx:TrackPointExtension></extensions></trkpt><trkpt lat="60.16159" lon="24.931075"><ele>24.0</ele><time>2026-07-28T06:28:24Z</time><extensions><gpxtpx:TrackPointExtension><gpxtpx:hr>143</gpxtpx:hr></gpxtpx:TrackPointExtension></extensions></trkpt><trkpt lat="60.16159" lon="24.931075"><ele>24.0</ele><time>2026-07-28T06:28:32Z</time><extensions><gpxtpx:TrackPointExtension><gpxtpx:hr>139</gpxtpx:hr></gpxtpx:TrackPointExtension></extensions></trkpt><trkpt lat="60.16159" lon="24.931075"><ele>24.0</ele><time>2026-07-28T06:28:35Z</time><extensions><gpxtpx:TrackPointExtension><gpxtpx:hr>141</gpxtpx:hr></gpxtpx:TrackPointExtension></extensions></trkpt><trkpt lat="60.16159" lon="24.931075"><ele>24.0</ele><time>2026-07-28T06:28:39Z</time><extensions><gpxtpx:TrackPointExtension><gpxtpx:hr>142</gpxtpx:hr></gpxtpx:TrackPointExtension></extensions></trkpt><trkpt lat="60.16159" lon="24.931075"><ele>24.0</ele><time>2026-07-28T06:28:48Z</time><extensions><gpxtpx:TrackPointExtension><gpxtpx:hr>146</gpxtpx:hr></gpxtpx:TrackPointExtension></extensions></trkpt><trkpt lat="60.16159" lon="24.931075"><ele>24.0</ele><time>2026-07-28T06:28:52Z</time><extensions><gpxtpx:TrackPointExtension><gpxtpx:hr>149</gpxtpx:hr></gpxtpx:TrackPointExtension></extensions></trkpt><trkpt lat="60.16159" lon="24.931075"><ele>24.0</ele><time>2026-07-28T06:28:55Z</time><extensions><gpxtpx:TrackPointExtension><gpxtpx:hr>150</gpxtpx:hr></gpxtpx:TrackPointExtension></extensions></trkpt><trkpt lat="60.16159" lon="24.931075"><ele>24.0</ele><time>2026-07-28T06:29:03Z</time><extensions><gpxtpx:TrackPointExtension><gpxtpx:hr>155</gpxtpx:hr></gpxtpx:TrackPointExtension></extensions></trkpt><trkpt lat="60.16159" lon="24.931075"><ele>24.0</ele><time>2026-07-28T06:29:05Z</time><extensions><gpxtpx:TrackPointExtension><gpxtpx:hr>155</gpxtpx:hr></gpxtpx:TrackPointExtension></extensions></trkpt><trkpt lat="60.16159" lon="24.931075"><ele>24.0</ele><time>2026-07-28T06:29:11Z</time><extensions><gpxtpx:TrackPointExtension><gpxtpx:hr>158</gpxtpx:hr></gpxtpx:TrackPointExtension></extensions></trkpt><trkpt lat="60.16159" lon="24.931075"><ele>24.0</ele><time>2026-07-28T06:29:16Z</time><extensions><gpxtpx:TrackPointExtension><gpxtpx:hr>159</gpxtpx:hr></gpxtpx:TrackPointExtension></extensions></trkpt><trkpt lat="60.16159" lon="24.931075"><ele>24.0</ele><time>2026-07-28T06:29:21Z</time><extensions><gpxtpx:TrackPointExtension><gpxtpx:hr>160</gpxtpx:hr></gpxtpx:TrackPointExtension></extensions></trkpt><trkpt lat="60.16159" lon="24.931075"><ele>24.0</ele><time>2026-07-28T06:29:26Z</time><extensions><gpxtpx:TrackPointExtension><gpxtpx:hr>161</gpxtpx:hr></gpxtpx:TrackPointExtension></extensions></trkpt><trkpt lat="60.16159" lon="24.931075"><ele>24.0</ele><time>2026-07-28T06:29:29Z</time><extensions><gpxtpx:TrackPointExtension><gpxtpx:hr>161</gpxtpx:hr></gpxtpx:TrackPointExtension></extensions></trkpt><trkpt lat="60.16159" lon="24.931075"><ele>24.0</ele><time>2026-07-28T06:29:35Z</time><extensions><gpxtpx:TrackPointExtension><gpxtpx:hr>162</gpxtpx:hr></gpxtpx:TrackPointExtension></extensions></trkpt><trkpt lat="60.16159" lon="24.931075"><ele>24.0</ele><time>2026-07-28T06:29:43Z</time><extensions><gpxtpx:TrackPointExtension><gpxtpx:hr>163</gpxtpx:hr></gpxtpx:TrackPointExtension></extensions></trkpt><trkpt lat="60.16159" lon="24.931075"><ele>24.0</ele><time>2026-07-28T06:29:44Z</time><extensions><gpxtpx:TrackPointExtension><gpxtpx:hr>163</gpxtpx:hr></gpxtpx:TrackPointExtension></extensions></trkpt><trkpt lat="60.16159" lon="24.931075"><ele>24.0</ele><time>2026-07-28T06:29:49Z</time><extensions><gpxtpx:TrackPointExtension><gpxtpx:hr>164</gpxtpx:hr></gpxtpx:TrackPointExtension></extensions></trkpt><trkpt lat="60.16159" lon="24.931075"><ele>24.0</ele><time>2026-07-28T06:29:54Z</time><extensions><gpxtpx:TrackPointExtension><gpxtpx:hr>156</gpxtpx:hr></gpxtpx:TrackPointExtension></extensions></trkpt><trkpt lat="60.16159" lon="24.931075"><ele>24.0</ele><time>2026-07-28T06:30:02Z</time><extensions><gpxtpx:TrackPointExtension><gpxtpx:hr>157</gpxtpx:hr></gpxtpx:TrackPointExtension></extensions></trkpt><trkpt lat="60.16159" lon="24.931075"><ele>24.0</ele><time>2026-07-28T06:30:04Z</time><extensions><gpxtpx:TrackPointExtension><gpxtpx:hr>156</gpxtpx:hr></gpxtpx:TrackPointExtension></extensions></trkpt><trkpt lat="60.16159" lon="24.931075"><ele>24.0</ele><time>2026-07-28T06:30:12Z</time><extensions><gpxtpx:TrackPointExtension><gpxtpx:hr>155</gpxtpx:hr></gpxtpx:TrackPointExtension></extensions></trkpt><trkpt lat="60.16159" lon="24.931075"><ele>24.0</ele><time>2026-07-28T06:30:14Z</time><extensions><gpxtpx:TrackPointExtension><gpxtpx:hr>154</gpxtpx:hr></gpxtpx:TrackPointExtension></extensions></trkpt><trkpt lat="60.16159" lon="24.931075"><ele>24.0</ele><time>2026-07-28T06:30:23Z</time><extensions><gpxtpx:TrackPointExtension><gpxtpx:hr>152</gpxtpx:hr></gpxtpx:TrackPointExtension></extensions></trkpt><trkpt lat="60.16159" lon="24.931075"><ele>24.0</ele><time>2026-07-28T06:30:28Z</time><extensions><gpxtpx:TrackPointExtension><gpxtpx:hr>143</gpxtpx:hr></gpxtpx:TrackPointExtension></extensions></trkpt><trkpt lat="60.16159" lon="24.931075"><ele>24.0</ele><time>2026-07-28T06:30:30Z</time><extensions><gpxtpx:TrackPointExtension><gpxtpx:hr>142</gpxtpx:hr></gpxtpx:TrackPointExtension></extensions></trkpt><trkpt lat="60.16159" lon="24.931075"><ele>24.0</ele><time>2026-07-28T06:30:34Z</time><extensions><gpxtpx:TrackPointExtension><gpxtpx:hr>138</gpxtpx:hr></gpxtpx:TrackPointExtension></extensions></trkpt><trkpt lat="60.16159" lon="24.931075"><ele>24.0</ele><time>2026-07-28T06:30:39Z</time><extensions><gpxtpx:TrackPointExtension><gpxtpx:hr>136</gpxtpx:hr></gpxtpx:TrackPointExtension></extensions></trkpt><trkpt lat="60.16159" lon="24.931075"><ele>24.0</ele><time>2026-07-28T06:30:44Z</time><extensions><gpxtpx:TrackPointExtension><gpxtpx:hr>134</gpxtpx:hr></gpxtpx:TrackPointExtension></extensions></trkpt><trkpt lat="60.16159" lon="24.931075"><ele>24.0</ele><time>2026-07-28T06:30:49Z</time><extensions><gpxtpx:TrackPointExtension><gpxtpx:hr>137</gpxtpx:hr></gpxtpx:TrackPointExtension></extensions></trkpt><trkpt lat="60.16159" lon="24.931075"><ele>24.0</ele><time>2026-07-28T06:30:58Z</time><extensions><gpxtpx:TrackPointExtension><gpxtpx:hr>144</gpxtpx:hr></gpxtpx:TrackPointExtension></extensions></trkpt><trkpt lat="60.16159" lon="24.931075"><ele>24.0</ele><time>2026-07-28T06:30:59Z</time><extensions><gpxtpx:TrackPointExtension><gpxtpx:hr>144</gpxtpx:hr></gpxtpx:TrackPointExtension></extensions></trkpt><trkpt lat="60.16159" lon="24.931075"><ele>24.0</ele><time>2026-07-28T06:31:05Z</time><extensions><gpxtpx:TrackPointExtension><gpxtpx:hr>148</gpxtpx:hr></gpxtpx:TrackPointExtension></extensions></trkpt><trkpt lat="60.16159" lon="24.931075"><ele>24.0</ele><time>2026-07-28T06:31:13Z</time><extensions><gpxtpx:TrackPointExtension><gpxtpx:hr>151</gpxtpx:hr></gpxtpx:TrackPointExtension></extensions></trkpt><trkpt lat="60.16159" lon="24.931075"><ele>24.0</ele><time>2026-07-28T06:31:15Z</time><extensions><gpxtpx:TrackPointExtension><gpxtpx:hr>152</gpxtpx:hr></gpxtpx:TrackPointExtension></extensions></trkpt><trkpt lat="60.16159" lon="24.931075"><ele>24.0</ele><time>2026-07-28T06:31:23Z</time><extensions><gpxtpx:TrackPointExtension><gpxtpx:hr>153</gpxtpx:hr></gpxtpx:TrackPointExtension></extensions></trkpt><trkpt lat="60.16159" lon="24.931075"><ele>24.0</ele><time>2026-07-28T06:31:28Z</time><extensions><gpxtpx:TrackPointExtension><gpxtpx:hr>155</gpxtpx:hr></gpxtpx:TrackPointExtension></extensions></trkpt><trkpt lat="60.16159" lon="24.931075"><ele>24.0</ele><time>2026-07-28T06:31:32Z</time><extensions><gpxtpx:TrackPointExtension><gpxtpx:hr>154</gpxtpx:hr></gpxtpx:TrackPointExtension></extensions></trkpt><trkpt lat="60.16159" lon="24.931075"><ele>24.0</ele><time>2026-07-28T06:31:34Z</time><extensions><gpxtpx:TrackPointExtension><gpxtpx:hr>153</gpxtpx:hr></gpxtpx:TrackPointExtension></extensions></trkpt><trkpt lat="60.16159" lon="24.931075"><ele>24.0</ele><time>2026-07-28T06:31:39Z</time><extensions><gpxtpx:TrackPointExtension><gpxtpx:hr>149</gpxtpx:hr></gpxtpx:TrackPointExtension></extensions></trkpt><trkpt lat="60.16159" lon="24.931075"><ele>24.0</ele><time>2026-07-28T06:31:44Z</time><extensions><gpxtpx:TrackPointExtension><gpxtpx:hr>145</gpxtpx:hr></gpxtpx:TrackPointExtension></extensions></trkpt><trkpt lat="60.16159" lon="24.931075"><ele>24.0</ele><time>2026-07-28T06:31:49Z</time><extensions><gpxtpx:TrackPointExtension><gpxtpx:hr>145</gpxtpx:hr></gpxtpx:TrackPointExtension></extensions></trkpt><trkpt lat="60.16159" lon="24.931075"><ele>24.0</ele><time>2026-07-28T06:31:56Z</time><extensions><gpxtpx:TrackPointExtension><gpxtpx:hr>146</gpxtpx:hr></gpxtpx:TrackPointExtension></extensions></trkpt><trkpt lat="60.16159" lon="24.931075"><ele>24.0</ele><time>2026-07-28T06:31:59Z</time><extensions><gpxtpx:TrackPointExtension><gpxtpx:hr>145</gpxtpx:hr></gpxtpx:TrackPointExtension></extensions></trkpt><trkpt lat="60.16159" lon="24.931075"><ele>24.0</ele><time>2026-07-28T06:32:04Z</time><extensions><gpxtpx:TrackPointExtension><gpxtpx:hr>143</gpxtpx:hr></gpxtpx:TrackPointExtension></extensions></trkpt><trkpt lat="60.16159" lon="24.931075"><ele>24.0</ele><time>2026-07-28T06:32:09Z</time><extensions><gpxtpx:TrackPointExtension><gpxtpx:hr>143</gpxtpx:hr></gpxtpx:TrackPointExtension></extensions></trkpt><trkpt lat="60.16159" lon="24.931075"><ele>24.0</ele><time>2026-07-28T06:32:18Z</time><extensions><gpxtpx:TrackPointExtension><gpxtpx:hr>144</gpxtpx:hr></gpxtpx:TrackPointExtension></extensions></trkpt><trkpt lat="60.16159" lon="24.931075"><ele>24.0</ele><time>2026-07-28T06:32:43Z</time><extensions><gpxtpx:TrackPointExtension><gpxtpx:hr>148</gpxtpx:hr></gpxtpx:TrackPointExtension></extensions></trkpt><trkpt lat="60.16159" lon="24.931075"><ele>24.0</ele><time>2026-07-28T06:32:44Z</time><extensions><gpxtpx:TrackPointExtension><gpxtpx:hr>152</gpxtpx:hr></gpxtpx:TrackPointExtension></extensions></trkpt><trkpt lat="60.16159" lon="24.931075"><ele>24.0</ele><time>2026-07-28T06:32:53Z</time><extensions><gpxtpx:TrackPointExtension><gpxtpx:hr>152</gpxtpx:hr></gpxtpx:TrackPointExtension></extensions></trkpt><trkpt lat="60.16159" lon="24.931075"><ele>24.0</ele><time>2026-07-28T06:32:54Z</time><extensions><gpxtpx:TrackPointExtension><gpxtpx:hr>151</gpxtpx:hr></gpxtpx:TrackPointExtension></extensions></trkpt><trkpt lat="60.16159" lon="24.931075"><ele>24.0</ele><time>2026-07-28T06:32:59Z</time><extensions><gpxtpx:TrackPointExtension><gpxtpx:hr>148</gpxtpx:hr></gpxtpx:TrackPointExtension></extensions></trkpt><trkpt lat="60.16159" lon="24.931075"><ele>24.0</ele><time>2026-07-28T06:33:07Z</time><extensions><gpxtpx:TrackPointExtension><gpxtpx:hr>146</gpxtpx:hr></gpxtpx:TrackPointExtension></extensions></trkpt><trkpt lat="60.16159" lon="24.931075"><ele>24.0</ele><time>2026-07-28T06:33:13Z</time><extensions><gpxtpx:TrackPointExtension><gpxtpx:hr>149</gpxtpx:hr></gpxtpx:TrackPointExtension></extensions></trkpt><trkpt lat="60.16159" lon="24.931075"><ele>24.0</ele><time>2026-07-28T06:33:18Z</time><extensions><gpxtpx:TrackPointExtension><gpxtpx:hr>152</gpxtpx:hr></gpxtpx:TrackPointExtension></extensions></trkpt><trkpt lat="60.16159" lon="24.931075"><ele>24.0</ele><time>2026-07-28T06:33:22Z</time><extensions><gpxtpx:TrackPointExtension><gpxtpx:hr>154</gpxtpx:hr></gpxtpx:TrackPointExtension></extensions></trkpt><trkpt lat="60.16159" lon="24.931075"><ele>24.0</ele><time>2026-07-28T06:33:24Z</time><extensions><gpxtpx:TrackPointExtension><gpxtpx:hr>154</gpxtpx:hr></gpxtpx:TrackPointExtension></extensions></trkpt><trkpt lat="60.16159" lon="24.931075"><ele>24.0</ele><time>2026-07-28T06:33:31Z</time><extensions><gpxtpx:TrackPointExtension><gpxtpx:hr>157</gpxtpx:hr></gpxtpx:TrackPointExtension></extensions></trkpt><trkpt lat="60.16159" lon="24.931075"><ele>24.0</ele><time>2026-07-28T06:33:35Z</time><extensions><gpxtpx:TrackPointExtension><gpxtpx:hr>159</gpxtpx:hr></gpxtpx:TrackPointExtension></extensions></trkpt><trkpt lat="60.16159" lon="24.931075"><ele>24.0</ele><time>2026-07-28T06:33:43Z</time><extensions><gpxtpx:TrackPointExtension><gpxtpx:hr>161</gpxtpx:hr></gpxtpx:TrackPointExtension></extensions></trkpt><trkpt lat="60.16159" lon="24.931075"><ele>24.0</ele><time>2026-07-28T06:33:44Z</time><extensions><gpxtpx:TrackPointExtension><gpxtpx:hr>161</gpxtpx:hr></gpxtpx:TrackPointExtension></extensions></trkpt><trkpt lat="60.16159" lon="24.931075"><ele>24.0</ele><time>2026-07-28T06:33:49Z</time><extensions><gpxtpx:TrackPointExtension><gpxtpx:hr>163</gpxtpx:hr></gpxtpx:TrackPointExtension></extensions></trkpt><trkpt lat="60.16159" lon="24.931075"><ele>24.0</ele><time>2026-07-28T06:33:56Z</time><extensions><gpxtpx:TrackPointExtension><gpxtpx:hr>164</gpxtpx:hr></gpxtpx:TrackPointExtension></extensions></trkpt><trkpt lat="60.16159" lon="24.931075"><ele>24.0</ele><time>2026-07-28T06:33:59Z</time><extensions><gpxtpx:TrackPointExtension><gpxtpx:hr>165</gpxtpx:hr></gpxtpx:TrackPointExtension></extensions></trkpt><trkpt lat="60.16159" lon="24.931075"><ele>24.0</ele><time>2026-07-28T06:34:04Z</time><extensions><gpxtpx:TrackPointExtension><gpxtpx:hr>166</gpxtpx:hr></gpxtpx:TrackPointExtension></extensions></trkpt><trkpt lat="60.16159" lon="24.931075"><ele>24.0</ele><time>2026-07-28T06:34:10Z</time><extensions><gpxtpx:TrackPointExtension><gpxtpx:hr>168</gpxtpx:hr></gpxtpx:TrackPointExtension></extensions></trkpt><trkpt lat="60.16159" lon="24.931075"><ele>24.0</ele><time>2026-07-28T06:34:18Z</time><extensions><gpxtpx:TrackPointExtension><gpxtpx:hr>170</gpxtpx:hr></gpxtpx:TrackPointExtension></extensions></trkpt><trkpt lat="60.16159" lon="24.931075"><ele>24.0</ele><time>2026-07-28T06:34:19Z</time><extensions><gpxtpx:TrackPointExtension><gpxtpx:hr>170</gpxtpx:hr></gpxtpx:TrackPointExtension></extensions></trkpt><trkpt lat="60.16159" lon="24.931075"><ele>24.0</ele><time>2026-07-28T06:34:28Z</time><extensions><gpxtpx:TrackPointExtension><gpxtpx:hr>167</gpxtpx:hr></gpxtpx:TrackPointExtension></extensions></trkpt><trkpt lat="60.16159" lon="24.931075"><ele>24.0</ele><time>2026-07-28T06:34:29Z</time><extensions><gpxtpx:TrackPointExtension><gpxtpx:hr>167</gpxtpx:hr></gpxtpx:TrackPointExtension></extensions></trkpt><trkpt lat="60.16159" lon="24.931075"><ele>24.0</ele><time>2026-07-28T06:34:36Z</time><extensions><gpxtpx:TrackPointExtension><gpxtpx:hr>163</gpxtpx:hr></gpxtpx:TrackPointExtension></extensions></trkpt><trkpt lat="60.16159" lon="24.931075"><ele>24.0</ele><time>2026-07-28T06:34:43Z</time><extensions><gpxtpx:TrackPointExtension><gpxtpx:hr>162</gpxtpx:hr></gpxtpx:TrackPointExtension></extensions></trkpt><trkpt lat="60.16159" lon="24.931075"><ele>24.0</ele><time>2026-07-28T06:34:45Z</time><extensions><gpxtpx:TrackPointExtension><gpxtpx:hr>162</gpxtpx:hr></gpxtpx:TrackPointExtension></extensions></trkpt><trkpt lat="60.16159" lon="24.931075"><ele>24.0</ele><time>2026-07-28T06:34:53Z</time><extensions><gpxtpx:TrackPointExtension><gpxtpx:hr>164</gpxtpx:hr></gpxtpx:TrackPointExtension></extensions></trkpt><trkpt lat="60.16159" lon="24.931075"><ele>24.0</ele><time>2026-07-28T06:34:58Z</time><extensions><gpxtpx:TrackPointExtension><gpxtpx:hr>165</gpxtpx:hr></gpxtpx:TrackPointExtension></extensions></trkpt><trkpt lat="60.16159" lon="24.931075"><ele>24.0</ele><time>2026-07-28T06:34:59Z</time><extensions><gpxtpx:TrackPointExtension><gpxtpx:hr>165</gpxtpx:hr></gpxtpx:TrackPointExtension></extensions></trkpt><trkpt lat="60.16159" lon="24.931075"><ele>24.0</ele><time>2026-07-28T06:35:08Z</time><extensions><gpxtpx:TrackPointExtension><gpxtpx:hr>167</gpxtpx:hr></gpxtpx:TrackPointExtension></extensions></trkpt><trkpt lat="60.16159" lon="24.931075"><ele>24.0</ele><time>2026-07-28T06:35:10Z</time><extensions><gpxtpx:TrackPointExtension><gpxtpx:hr>168</gpxtpx:hr></gpxtpx:TrackPointExtension></extensions></trkpt><trkpt lat="60.16159" lon="24.931075"><ele>24.0</ele><time>2026-07-28T06:35:15Z</time><extensions><gpxtpx:TrackPointExtension><gpxtpx:hr>168</gpxtpx:hr></gpxtpx:TrackPointExtension></extensions></trkpt><trkpt lat="60.16159" lon="24.931075"><ele>24.0</ele><time>2026-07-28T06:35:20Z</time><extensions><gpxtpx:TrackPointExtension><gpxtpx:hr>168</gpxtpx:hr></gpxtpx:TrackPointExtension></extensions></trkpt><trkpt lat="60.16159" lon="24.931075"><ele>24.0</ele><time>2026-07-28T06:35:24Z</time><extensions><gpxtpx:TrackPointExtension><gpxtpx:hr>168</gpxtpx:hr></gpxtpx:TrackPointExtension></extensions></trkpt><trkpt lat="60.16159" lon="24.931075"><ele>24.0</ele><time>2026-07-28T06:35:33Z</time><extensions><gpxtpx:TrackPointExtension><gpxtpx:hr>169</gpxtpx:hr></gpxtpx:TrackPointExtension></extensions></trkpt><trkpt lat="60.16159" lon="24.931075"><ele>24.0</ele><time>2026-07-28T06:35:34Z</time><extensions><gpxtpx:TrackPointExtension><gpxtpx:hr>169</gpxtpx:hr></gpxtpx:TrackPointExtension></extensions></trkpt><trkpt lat="60.16159" lon="24.931075"><ele>24.0</ele><time>2026-07-28T06:35:43Z</time><extensions><gpxtpx:TrackPointExtension><gpxtpx:hr>170</gpxtpx:hr></gpxtpx:TrackPointExtension></extensions></trkpt><trkpt lat="60.16159" lon="24.931075"><ele>24.0</ele><time>2026-07-28T06:35:44Z</time><extensions><gpxtpx:TrackPointExtension><gpxtpx:hr>170</gpxtpx:hr></gpxtpx:TrackPointExtension></extensions></trkpt><trkpt lat="60.16159" lon="24.931075"><ele>24.0</ele><time>2026-07-28T06:35:50Z</time><extensions><gpxtpx:TrackPointExtension><gpxtpx:hr>169</gpxtpx:hr></gpxtpx:TrackPointExtension></extensions></trkpt><trkpt lat="60.16159" lon="24.931075"><ele>24.0</ele><time>2026-07-28T06:35:57Z</time><extensions><gpxtpx:TrackPointExtension><gpxtpx:hr>170</gpxtpx:hr></gpxtpx:TrackPointExtension></extensions></trkpt><trkpt lat="60.16159" lon="24.931075"><ele>24.0</ele><time>2026-07-28T06:36:02Z</time><extensions><gpxtpx:TrackPointExtension><gpxtpx:hr>166</gpxtpx:hr></gpxtpx:TrackPointExtension></extensions></trkpt><trkpt lat="60.16159" lon="24.931075"><ele>24.0</ele><time>2026-07-28T06:36:04Z</time><extensions><gpxtpx:TrackPointExtension><gpxtpx:hr>165</gpxtpx:hr></gpxtpx:TrackPointExtension></extensions></trkpt><trkpt lat="60.16159" lon="24.931075"><ele>24.0</ele><time>2026-07-28T06:36:11Z</time><extensions><gpxtpx:TrackPointExtension><gpxtpx:hr>162</gpxtpx:hr></gpxtpx:TrackPointExtension></extensions></trkpt><trkpt lat="60.16159" lon="24.931075"><ele>24.0</ele><time>2026-07-28T06:36:15Z</time><extensions><gpxtpx:TrackPointExtension><gpxtpx:hr>161</gpxtpx:hr></gpxtpx:TrackPointExtension></extensions></trkpt><trkpt lat="60.16159" lon="24.931075"><ele>24.0</ele><time>2026-07-28T06:36:19Z</time><extensions><gpxtpx:TrackPointExtension><gpxtpx:hr>155</gpxtpx:hr></gpxtpx:TrackPointExtension></extensions></trkpt><trkpt lat="60.16159" lon="24.931075"><ele>24.0</ele><time>2026-07-28T06:36:28Z</time><extensions><gpxtpx:TrackPointExtension><gpxtpx:hr>150</gpxtpx:hr></gpxtpx:TrackPointExtension></extensions></trkpt><trkpt lat="60.16159" lon="24.931075"><ele>24.0</ele><time>2026-07-28T06:36:29Z</time><extensions><gpxtpx:TrackPointExtension><gpxtpx:hr>149</gpxtpx:hr></gpxtpx:TrackPointExtension></extensions></trkpt><trkpt lat="60.16159" lon="24.931075"><ele>24.0</ele><time>2026-07-28T06:36:34Z</time><extensions><gpxtpx:TrackPointExtension><gpxtpx:hr>148</gpxtpx:hr></gpxtpx:TrackPointExtension></extensions></trkpt><trkpt lat="60.16159" lon="24.931075"><ele>24.0</ele><time>2026-07-28T06:36:39Z</time><extensions><gpxtpx:TrackPointExtension><gpxtpx:hr>146</gpxtpx:hr></gpxtpx:TrackPointExtension></extensions></trkpt><trkpt lat="60.16159" lon="24.931075"><ele>24.0</ele><time>2026-07-28T06:36:48Z</time><extensions><gpxtpx:TrackPointExtension><gpxtpx:hr>144</gpxtpx:hr></gpxtpx:TrackPointExtension></extensions></trkpt><trkpt lat="60.16159" lon="24.931075"><ele>24.0</ele><time>2026-07-28T06:36:53Z</time><extensions><gpxtpx:TrackPointExtension><gpxtpx:hr>149</gpxtpx:hr></gpxtpx:TrackPointExtension></extensions></trkpt><trkpt lat="60.16159" lon="24.931075"><ele>24.0</ele><time>2026-07-28T06:36:54Z</time><extensions><gpxtpx:TrackPointExtension><gpxtpx:hr>150</gpxtpx:hr></gpxtpx:TrackPointExtension></extensions></trkpt><trkpt lat="60.16159" lon="24.931075"><ele>24.0</ele><time>2026-07-28T06:36:59Z</time><extensions><gpxtpx:TrackPointExtension><gpxtpx:hr>152</gpxtpx:hr></gpxtpx:TrackPointExtension></extensions></trkpt><trkpt lat="60.16159" lon="24.931075"><ele>24.0</ele><time>2026-07-28T06:37:04Z</time><extensions><gpxtpx:TrackPointExtension><gpxtpx:hr>154</gpxtpx:hr></gpxtpx:TrackPointExtension></extensions></trkpt><trkpt lat="60.16159" lon="24.931075"><ele>24.0</ele><time>2026-07-28T06:37:09Z</time><extensions><gpxtpx:TrackPointExtension><gpxtpx:hr>151</gpxtpx:hr></gpxtpx:TrackPointExtension></extensions></trkpt><trkpt lat="60.16159" lon="24.931075"><ele>24.0</ele><time>2026-07-28T06:37:18Z</time><extensions><gpxtpx:TrackPointExtension><gpxtpx:hr>150</gpxtpx:hr></gpxtpx:TrackPointExtension></extensions></trkpt><trkpt lat="60.16159" lon="24.931075"><ele>24.0</ele><time>2026-07-28T06:37:20Z</time><extensions><gpxtpx:TrackPointExtension><gpxtpx:hr>150</gpxtpx:hr></gpxtpx:TrackPointExtension></extensions></trkpt><trkpt lat="60.16159" lon="24.931075"><ele>24.0</ele><time>2026-07-28T06:37:26Z</time><extensions><gpxtpx:TrackPointExtension><gpxtpx:hr>151</gpxtpx:hr></gpxtpx:TrackPointExtension></extensions></trkpt><trkpt lat="60.16159" lon="24.931075"><ele>24.0</ele><time>2026-07-28T06:37:31Z</time><extensions><gpxtpx:TrackPointExtension><gpxtpx:hr>151</gpxtpx:hr></gpxtpx:TrackPointExtension></extensions></trkpt><trkpt lat="60.16159" lon="24.931075"><ele>24.0</ele><time>2026-07-28T06:37:36Z</time><extensions><gpxtpx:TrackPointExtension><gpxtpx:hr>153</gpxtpx:hr></gpxtpx:TrackPointExtension></extensions></trkpt><trkpt lat="60.16159" lon="24.931075"><ele>24.0</ele><time>2026-07-28T06:37:42Z</time><extensions><gpxtpx:TrackPointExtension><gpxtpx:hr>154</gpxtpx:hr></gpxtpx:TrackPointExtension></extensions></trkpt><trkpt lat="60.16159" lon="24.931075"><ele>24.0</ele><time>2026-07-28T06:37:47Z</time><extensions><gpxtpx:TrackPointExtension><gpxtpx:hr>155</gpxtpx:hr></gpxtpx:TrackPointExtension></extensions></trkpt><trkpt lat="60.16159" lon="24.931075"><ele>24.0</ele><time>2026-07-28T06:37:49Z</time><extensions><gpxtpx:TrackPointExtension><gpxtpx:hr>155</gpxtpx:hr></gpxtpx:TrackPointExtension></extensions></trkpt><trkpt lat="60.16159" lon="24.931075"><ele>24.0</ele><time>2026-07-28T06:37:57Z</time><extensions><gpxtpx:TrackPointExtension><gpxtpx:hr>156</gpxtpx:hr></gpxtpx:TrackPointExtension></extensions></trkpt><trkpt lat="60.16159" lon="24.931075"><ele>24.0</ele><time>2026-07-28T06:38:03Z</time><extensions><gpxtpx:TrackPointExtension><gpxtpx:hr>156</gpxtpx:hr></gpxtpx:TrackPointExtension></extensions></trkpt><trkpt lat="60.16159" lon="24.931075"><ele>24.0</ele><time>2026-07-28T06:38:07Z</time><extensions><gpxtpx:TrackPointExtension><gpxtpx:hr>156</gpxtpx:hr></gpxtpx:TrackPointExtension></extensions></trkpt><trkpt lat="60.16159" lon="24.931075"><ele>24.0</ele><time>2026-07-28T06:38:09Z</time><extensions><gpxtpx:TrackPointExtension><gpxtpx:hr>156</gpxtpx:hr></gpxtpx:TrackPointExtension></extensions></trkpt><trkpt lat="60.16159" lon="24.931075"><ele>24.0</ele><time>2026-07-28T06:38:16Z</time><extensions><gpxtpx:TrackPointExtension><gpxtpx:hr>158</gpxtpx:hr></gpxtpx:TrackPointExtension></extensions></trkpt><trkpt lat="60.16159" lon="24.931075"><ele>24.0</ele><time>2026-07-28T06:38:21Z</time><extensions><gpxtpx:TrackPointExtension><gpxtpx:hr>158</gpxtpx:hr></gpxtpx:TrackPointExtension></extensions></trkpt><trkpt lat="60.16159" lon="24.931075"><ele>24.0</ele><time>2026-07-28T06:38:27Z</time><extensions><gpxtpx:TrackPointExtension><gpxtpx:hr>158</gpxtpx:hr></gpxtpx:TrackPointExtension></extensions></trkpt><trkpt lat="60.16159" lon="24.931075"><ele>24.0</ele><time>2026-07-28T06:38:32Z</time><extensions><gpxtpx:TrackPointExtension><gpxtpx:hr>158</gpxtpx:hr></gpxtpx:TrackPointExtension></extensions></trkpt><trkpt lat="60.16159" lon="24.931075"><ele>24.0</ele><time>2026-07-28T06:38:38Z</time><extensions><gpxtpx:TrackPointExtension><gpxtpx:hr>158</gpxtpx:hr></gpxtpx:TrackPointExtension></extensions></trkpt><trkpt lat="60.16159" lon="24.931075"><ele>24.0</ele><time>2026-07-28T06:38:39Z</time><extensions><gpxtpx:TrackPointExtension><gpxtpx:hr>158</gpxtpx:hr></gpxtpx:TrackPointExtension></extensions></trkpt><trkpt lat="60.16159" lon="24.931075"><ele>24.0</ele><time>2026-07-28T06:38:44Z</time><extensions><gpxtpx:TrackPointExtension><gpxtpx:hr>158</gpxtpx:hr></gpxtpx:TrackPointExtension></extensions></trkpt><trkpt lat="60.16159" lon="24.931075"><ele>24.0</ele><time>2026-07-28T06:38:52Z</time><extensions><gpxtpx:TrackPointExtension><gpxtpx:hr>157</gpxtpx:hr></gpxtpx:TrackPointExtension></extensions></trkpt><trkpt lat="60.16159" lon="24.931075"><ele>24.0</ele><time>2026-07-28T06:38:54Z</time><extensions><gpxtpx:TrackPointExtension><gpxtpx:hr>157</gpxtpx:hr></gpxtpx:TrackPointExtension></extensions></trkpt><trkpt lat="60.16159" lon="24.931075"><ele>24.0</ele><time>2026-07-28T06:39:03Z</time><extensions><gpxtpx:TrackPointExtension><gpxtpx:hr>159</gpxtpx:hr></gpxtpx:TrackPointExtension></extensions></trkpt><trkpt lat="60.16159" lon="24.931075"><ele>24.0</ele><time>2026-07-28T06:39:04Z</time><extensions><gpxtpx:TrackPointExtension><gpxtpx:hr>159</gpxtpx:hr></gpxtpx:TrackPointExtension></extensions></trkpt><trkpt lat="60.16159" lon="24.931075"><ele>24.0</ele><time>2026-07-28T06:39:13Z</time><extensions><gpxtpx:TrackPointExtension><gpxtpx:hr>160</gpxtpx:hr></gpxtpx:TrackPointExtension></extensions></trkpt><trkpt lat="60.16159" lon="24.931075"><ele>24.0</ele><time>2026-07-28T06:39:18Z</time><extensions><gpxtpx:TrackPointExtension><gpxtpx:hr>161</gpxtpx:hr></gpxtpx:TrackPointExtension></extensions></trkpt><trkpt lat="60.16159" lon="24.931075"><ele>24.0</ele><time>2026-07-28T06:39:22Z</time><extensions><gpxtpx:TrackPointExtension><gpxtpx:hr>160</gpxtpx:hr></gpxtpx:TrackPointExtension></extensions></trkpt><trkpt lat="60.16159" lon="24.931075"><ele>24.0</ele><time>2026-07-28T06:39:24Z</time><extensions><gpxtpx:TrackPointExtension><gpxtpx:hr>160</gpxtpx:hr></gpxtpx:TrackPointExtension></extensions></trkpt><trkpt lat="60.16159" lon="24.931075"><ele>24.0</ele><time>2026-07-28T06:39:30Z</time><extensions><gpxtpx:TrackPointExtension><gpxtpx:hr>158</gpxtpx:hr></gpxtpx:TrackPointExtension></extensions></trkpt><trkpt lat="60.16159" lon="24.931075"><ele>24.0</ele><time>2026-07-28T06:39:35Z</time><extensions><gpxtpx:TrackPointExtension><gpxtpx:hr>156</gpxtpx:hr></gpxtpx:TrackPointExtension></extensions></trkpt><trkpt lat="60.16159" lon="24.931075"><ele>24.0</ele><time>2026-07-28T06:39:39Z</time><extensions><gpxtpx:TrackPointExtension><gpxtpx:hr>153</gpxtpx:hr></gpxtpx:TrackPointExtension></extensions></trkpt><trkpt lat="60.16159" lon="24.931075"><ele>24.0</ele><time>2026-07-28T06:39:48Z</time><extensions><gpxtpx:TrackPointExtension><gpxtpx:hr>157</gpxtpx:hr></gpxtpx:TrackPointExtension></extensions></trkpt><trkpt lat="60.16159" lon="24.931075"><ele>24.0</ele><time>2026-07-28T06:39:52Z</time><extensions><gpxtpx:TrackPointExtension><gpxtpx:hr>155</gpxtpx:hr></gpxtpx:TrackPointExtension></extensions></trkpt><trkpt lat="60.16159" lon="24.931075"><ele>24.0</ele><time>2026-07-28T06:39:54Z</time><extensions><gpxtpx:TrackPointExtension><gpxtpx:hr>153</gpxtpx:hr></gpxtpx:TrackPointExtension></extensions></trkpt><trkpt lat="60.16159" lon="24.931075"><ele>24.0</ele><time>2026-07-28T06:39:59Z</time><extensions><gpxtpx:TrackPointExtension><gpxtpx:hr>151</gpxtpx:hr></gpxtpx:TrackPointExtension></extensions></trkpt><trkpt lat="60.16159" lon="24.931075"><ele>24.0</ele><time>2026-07-28T06:40:04Z</time><extensions><gpxtpx:TrackPointExtension><gpxtpx:hr>153</gpxtpx:hr></gpxtpx:TrackPointExtension></extensions></trkpt><trkpt lat="60.16159" lon="24.931075"><ele>24.0</ele><time>2026-07-28T06:40:13Z</time><extensions><gpxtpx:TrackPointExtension><gpxtpx:hr>157</gpxtpx:hr></gpxtpx:TrackPointExtension></extensions></trkpt><trkpt lat="60.16159" lon="24.931075"><ele>24.0</ele><time>2026-07-28T06:40:14Z</time><extensions><gpxtpx:TrackPointExtension><gpxtpx:hr>157</gpxtpx:hr></gpxtpx:TrackPointExtension></extensions></trkpt><trkpt lat="60.16159" lon="24.931075"><ele>24.0</ele><time>2026-07-28T06:40:19Z</time><extensions><gpxtpx:TrackPointExtension><gpxtpx:hr>160</gpxtpx:hr></gpxtpx:TrackPointExtension></extensions></trkpt><trkpt lat="60.16159" lon="24.931075"><ele>24.0</ele><time>2026-07-28T06:40:25Z</time><extensions><gpxtpx:TrackPointExtension><gpxtpx:hr>161</gpxtpx:hr></gpxtpx:TrackPointExtension></extensions></trkpt><trkpt lat="60.16159" lon="24.931075"><ele>24.0</ele><time>2026-07-28T06:40:32Z</time><extensions><gpxtpx:TrackPointExtension><gpxtpx:hr>164</gpxtpx:hr></gpxtpx:TrackPointExtension></extensions></trkpt><trkpt lat="60.16159" lon="24.931075"><ele>24.0</ele><time>2026-07-28T06:40:34Z</time><extensions><gpxtpx:TrackPointExtension><gpxtpx:hr>164</gpxtpx:hr></gpxtpx:TrackPointExtension></extensions></trkpt><trkpt lat="60.16159" lon="24.931075"><ele>24.0</ele><time>2026-07-28T06:40:43Z</time><extensions><gpxtpx:TrackPointExtension><gpxtpx:hr>162</gpxtpx:hr></gpxtpx:TrackPointExtension></extensions></trkpt><trkpt lat="60.16159" lon="24.931075"><ele>24.0</ele><time>2026-07-28T06:40:46Z</time><extensions><gpxtpx:TrackPointExtension><gpxtpx:hr>161</gpxtpx:hr></gpxtpx:TrackPointExtension></extensions></trkpt><trkpt lat="60.16159" lon="24.931075"><ele>24.0</ele><time>2026-07-28T06:40:49Z</time><extensions><gpxtpx:TrackPointExtension><gpxtpx:hr>160</gpxtpx:hr></gpxtpx:TrackPointExtension></extensions></trkpt><trkpt lat="60.16159" lon="24.931075"><ele>24.0</ele><time>2026-07-28T06:40:54Z</time><extensions><gpxtpx:TrackPointExtension><gpxtpx:hr>158</gpxtpx:hr></gpxtpx:TrackPointExtension></extensions></trkpt><trkpt lat="60.16159" lon="24.931075"><ele>24.0</ele><time>2026-07-28T06:40:59Z</time><extensions><gpxtpx:TrackPointExtension><gpxtpx:hr>158</gpxtpx:hr></gpxtpx:TrackPointExtension></extensions></trkpt><trkpt lat="60.16159" lon="24.931075"><ele>24.0</ele><time>2026-07-28T06:41:04Z</time><extensions><gpxtpx:TrackPointExtension><gpxtpx:hr>159</gpxtpx:hr></gpxtpx:TrackPointExtension></extensions></trkpt><trkpt lat="60.16159" lon="24.931075"><ele>24.0</ele><time>2026-07-28T06:41:12Z</time><extensions><gpxtpx:TrackPointExtension><gpxtpx:hr>162</gpxtpx:hr></gpxtpx:TrackPointExtension></extensions></trkpt><trkpt lat="60.16159" lon="24.931075"><ele>24.0</ele><time>2026-07-28T06:41:15Z</time><extensions><gpxtpx:TrackPointExtension><gpxtpx:hr>163</gpxtpx:hr></gpxtpx:TrackPointExtension></extensions></trkpt><trkpt lat="60.16159" lon="24.931075"><ele>24.0</ele><time>2026-07-28T06:41:22Z</time><extensions><gpxtpx:TrackPointExtension><gpxtpx:hr>165</gpxtpx:hr></gpxtpx:TrackPointExtension></extensions></trkpt><trkpt lat="60.16159" lon="24.931075"><ele>24.0</ele><time>2026-07-28T06:41:27Z</time><extensions><gpxtpx:TrackPointExtension><gpxtpx:hr>165</gpxtpx:hr></gpxtpx:TrackPointExtension></extensions></trkpt><trkpt lat="60.16159" lon="24.931075"><ele>24.0</ele><time>2026-07-28T06:41:32Z</time><extensions><gpxtpx:TrackPointExtension><gpxtpx:hr>165</gpxtpx:hr></gpxtpx:TrackPointExtension></extensions></trkpt><trkpt lat="60.16159" lon="24.931075"><ele>24.0</ele><time>2026-07-28T06:41:35Z</time><extensions><gpxtpx:TrackPointExtension><gpxtpx:hr>164</gpxtpx:hr></gpxtpx:TrackPointExtension></extensions></trkpt><trkpt lat="60.16159" lon="24.931075"><ele>24.0</ele><time>2026-07-28T06:41:40Z</time><extensions><gpxtpx:TrackPointExtension><gpxtpx:hr>166</gpxtpx:hr></gpxtpx:TrackPointExtension></extensions></trkpt><trkpt lat="60.16159" lon="24.931075"><ele>24.0</ele><time>2026-07-28T06:41:45Z</time><extensions><gpxtpx:TrackPointExtension><gpxtpx:hr>167</gpxtpx:hr></gpxtpx:TrackPointExtension></extensions></trkpt><trkpt lat="60.16159" lon="24.931075"><ele>24.0</ele><time>2026-07-28T06:41:52Z</time><extensions><gpxtpx:TrackPointExtension><gpxtpx:hr>167</gpxtpx:hr></gpxtpx:TrackPointExtension></extensions></trkpt><trkpt lat="60.16159" lon="24.931075"><ele>24.0</ele><time>2026-07-28T06:41:56Z</time><extensions><gpxtpx:TrackPointExtension><gpxtpx:hr>167</gpxtpx:hr></gpxtpx:TrackPointExtension></extensions></trkpt><trkpt lat="60.16159" lon="24.931075"><ele>24.0</ele><time>2026-07-28T06:41:59Z</time><extensions><gpxtpx:TrackPointExtension><gpxtpx:hr>168</gpxtpx:hr></gpxtpx:TrackPointExtension></extensions></trkpt><trkpt lat="60.16159" lon="24.931075"><ele>24.0</ele><time>2026-07-28T06:42:08Z</time><extensions><gpxtpx:TrackPointExtension><gpxtpx:hr>169</gpxtpx:hr></gpxtpx:TrackPointExtension></extensions></trkpt><trkpt lat="60.16159" lon="24.931075"><ele>24.0</ele><time>2026-07-28T06:42:13Z</time><extensions><gpxtpx:TrackPointExtension><gpxtpx:hr>169</gpxtpx:hr></gpxtpx:TrackPointExtension></extensions></trkpt><trkpt lat="60.16159" lon="24.931075"><ele>24.0</ele><time>2026-07-28T06:42:16Z</time><extensions><gpxtpx:TrackPointExtension><gpxtpx:hr>169</gpxtpx:hr></gpxtpx:TrackPointExtension></extensions></trkpt><trkpt lat="60.16159" lon="24.931075"><ele>24.0</ele><time>2026-07-28T06:42:23Z</time><extensions><gpxtpx:TrackPointExtension><gpxtpx:hr>168</gpxtpx:hr></gpxtpx:TrackPointExtension></extensions></trkpt><trkpt lat="60.16159" lon="24.931075"><ele>24.0</ele><time>2026-07-28T06:42:26Z</time><extensions><gpxtpx:TrackPointExtension><gpxtpx:hr>166</gpxtpx:hr></gpxtpx:TrackPointExtension></extensions></trkpt><trkpt lat="60.16159" lon="24.931075"><ele>24.0</ele><time>2026-07-28T06:42:33Z</time><extensions><gpxtpx:TrackPointExtension><gpxtpx:hr>160</gpxtpx:hr></gpxtpx:TrackPointExtension></extensions></trkpt><trkpt lat="60.16159" lon="24.931075"><ele>24.0</ele><time>2026-07-28T06:42:38Z</time><extensions><gpxtpx:TrackPointExtension><gpxtpx:hr>155</gpxtpx:hr></gpxtpx:TrackPointExtension></extensions></trkpt><trkpt lat="60.16159" lon="24.931075"><ele>24.0</ele><time>2026-07-28T06:42:40Z</time><extensions><gpxtpx:TrackPointExtension><gpxtpx:hr>154</gpxtpx:hr></gpxtpx:TrackPointExtension></extensions></trkpt><trkpt lat="60.16159" lon="24.931075"><ele>24.0</ele><time>2026-07-28T06:42:45Z</time><extensions><gpxtpx:TrackPointExtension><gpxtpx:hr>148</gpxtpx:hr></gpxtpx:TrackPointExtension></extensions></trkpt><trkpt lat="60.16159" lon="24.931075"><ele>24.0</ele><time>2026-07-28T06:42:50Z</time><extensions><gpxtpx:TrackPointExtension><gpxtpx:hr>145</gpxtpx:hr></gpxtpx:TrackPointExtension></extensions></trkpt><trkpt lat="60.16159" lon="24.931075"><ele>24.0</ele><time>2026-07-28T06:42:54Z</time><extensions><gpxtpx:TrackPointExtension><gpxtpx:hr>144</gpxtpx:hr></gpxtpx:TrackPointExtension></extensions></trkpt><trkpt lat="60.16159" lon="24.931075"><ele>24.0</ele><time>2026-07-28T06:43:02Z</time><extensions><gpxtpx:TrackPointExtension><gpxtpx:hr>142</gpxtpx:hr></gpxtpx:TrackPointExtension></extensions></trkpt><trkpt lat="60.16159" lon="24.931075"><ele>24.0</ele><time>2026-07-28T06:43:04Z</time><extensions><gpxtpx:TrackPointExtension><gpxtpx:hr>140</gpxtpx:hr></gpxtpx:TrackPointExtension></extensions></trkpt><trkpt lat="60.16159" lon="24.931075"><ele>24.0</ele><time>2026-07-28T06:43:09Z</time><extensions><gpxtpx:TrackPointExtension><gpxtpx:hr>143</gpxtpx:hr></gpxtpx:TrackPointExtension></extensions></trkpt><trkpt lat="60.16159" lon="24.931075"><ele>24.0</ele><time>2026-07-28T06:43:14Z</time><extensions><gpxtpx:TrackPointExtension><gpxtpx:hr>149</gpxtpx:hr></gpxtpx:TrackPointExtension></extensions></trkpt><trkpt lat="60.16159" lon="24.931075"><ele>24.0</ele><time>2026-07-28T06:43:19Z</time><extensions><gpxtpx:TrackPointExtension><gpxtpx:hr>152</gpxtpx:hr></gpxtpx:TrackPointExtension></extensions></trkpt><trkpt lat="60.16159" lon="24.931075"><ele>24.0</ele><time>2026-07-28T06:43:27Z</time><extensions><gpxtpx:TrackPointExtension><gpxtpx:hr>152</gpxtpx:hr></gpxtpx:TrackPointExtension></extensions></trkpt><trkpt lat="60.16159" lon="24.931075"><ele>24.0</ele><time>2026-07-28T06:43:30Z</time><extensions><gpxtpx:TrackPointExtension><gpxtpx:hr>151</gpxtpx:hr></gpxtpx:TrackPointExtension></extensions></trkpt><trkpt lat="60.16159" lon="24.931075"><ele>24.0</ele><time>2026-07-28T06:43:34Z</time><extensions><gpxtpx:TrackPointExtension><gpxtpx:hr>150</gpxtpx:hr></gpxtpx:TrackPointExtension></extensions></trkpt><trkpt lat="60.16159" lon="24.931075"><ele>24.0</ele><time>2026-07-28T06:43:43Z</time><extensions><gpxtpx:TrackPointExtension><gpxtpx:hr>148</gpxtpx:hr></gpxtpx:TrackPointExtension></extensions></trkpt><trkpt lat="60.16159" lon="24.931075"><ele>24.0</ele><time>2026-07-28T06:43:48Z</time><extensions><gpxtpx:TrackPointExtension><gpxtpx:hr>151</gpxtpx:hr></gpxtpx:TrackPointExtension></extensions></trkpt><trkpt lat="60.16159" lon="24.931075"><ele>24.0</ele><time>2026-07-28T06:43:49Z</time><extensions><gpxtpx:TrackPointExtension><gpxtpx:hr>151</gpxtpx:hr></gpxtpx:TrackPointExtension></extensions></trkpt><trkpt lat="60.16159" lon="24.931075"><ele>24.0</ele><time>2026-07-28T06:43:55Z</time><extensions><gpxtpx:TrackPointExtension><gpxtpx:hr>153</gpxtpx:hr></gpxtpx:TrackPointExtension></extensions></trkpt><trkpt lat="60.16159" lon="24.931075"><ele>24.0</ele><time>2026-07-28T06:44:03Z</time><extensions><gpxtpx:TrackPointExtension><gpxtpx:hr>156</gpxtpx:hr></gpxtpx:TrackPointExtension></extensions></trkpt><trkpt lat="60.16159" lon="24.931075"><ele>24.0</ele><time>2026-07-28T06:44:04Z</time><extensions><gpxtpx:TrackPointExtension><gpxtpx:hr>157</gpxtpx:hr></gpxtpx:TrackPointExtension></extensions></trkpt><trkpt lat="60.16159" lon="24.931075"><ele>24.0</ele><time>2026-07-28T06:44:11Z</time><extensions><gpxtpx:TrackPointExtension><gpxtpx:hr>159</gpxtpx:hr></gpxtpx:TrackPointExtension></extensions></trkpt><trkpt lat="60.16159" lon="24.931075"><ele>24.0</ele><time>2026-07-28T06:44:14Z</time><extensions><gpxtpx:TrackPointExtension><gpxtpx:hr>160</gpxtpx:hr></gpxtpx:TrackPointExtension></extensions></trkpt><trkpt lat="60.16159" lon="24.931075"><ele>24.0</ele><time>2026-07-28T06:44:20Z</time><extensions><gpxtpx:TrackPointExtension><gpxtpx:hr>162</gpxtpx:hr></gpxtpx:TrackPointExtension></extensions></trkpt><trkpt lat="60.16159" lon="24.931075"><ele>24.0</ele><time>2026-07-28T06:44:27Z</time><extensions><gpxtpx:TrackPointExtension><gpxtpx:hr>164</gpxtpx:hr></gpxtpx:TrackPointExtension></extensions></trkpt><trkpt lat="60.16159" lon="24.931075"><ele>24.0</ele><time>2026-07-28T06:44:32Z</time><extensions><gpxtpx:TrackPointExtension><gpxtpx:hr>165</gpxtpx:hr></gpxtpx:TrackPointExtension></extensions></trkpt><trkpt lat="60.16159" lon="24.931075"><ele>24.0</ele><time>2026-07-28T06:44:38Z</time><extensions><gpxtpx:TrackPointExtension><gpxtpx:hr>166</gpxtpx:hr></gpxtpx:TrackPointExtension></extensions></trkpt><trkpt lat="60.16159" lon="24.931075"><ele>24.0</ele><time>2026-07-28T06:44:41Z</time><extensions><gpxtpx:TrackPointExtension><gpxtpx:hr>167</gpxtpx:hr></gpxtpx:TrackPointExtension></extensions></trkpt><trkpt lat="60.16159" lon="24.931075"><ele>24.0</ele><time>2026-07-28T06:44:44Z</time><extensions><gpxtpx:TrackPointExtension><gpxtpx:hr>167</gpxtpx:hr></gpxtpx:TrackPointExtension></extensions></trkpt><trkpt lat="60.16159" lon="24.931075"><ele>24.0</ele><time>2026-07-28T06:44:52Z</time><extensions><gpxtpx:TrackPointExtension><gpxtpx:hr>167</gpxtpx:hr></gpxtpx:TrackPointExtension></extensions></trkpt><trkpt lat="60.16159" lon="24.931075"><ele>24.0</ele><time>2026-07-28T06:44:56Z</time><extensions><gpxtpx:TrackPointExtension><gpxtpx:hr>167</gpxtpx:hr></gpxtpx:TrackPointExtension></extensions></trkpt><trkpt lat="60.16159" lon="24.931075"><ele>24.0</ele><time>2026-07-28T06:44:59Z</time><extensions><gpxtpx:TrackPointExtension><gpxtpx:hr>165</gpxtpx:hr></gpxtpx:TrackPointExtension></extensions></trkpt><trkpt lat="60.16159" lon="24.931075"><ele>24.0</ele><time>2026-07-28T06:45:07Z</time><extensions><gpxtpx:TrackPointExtension><gpxtpx:hr>158</gpxtpx:hr></gpxtpx:TrackPointExtension></extensions></trkpt><trkpt lat="60.16159" lon="24.931075"><ele>24.0</ele><time>2026-07-28T06:45:09Z</time><extensions><gpxtpx:TrackPointExtension><gpxtpx:hr>156</gpxtpx:hr></gpxtpx:TrackPointExtension></extensions></trkpt><trkpt lat="60.16159" lon="24.931075"><ele>24.0</ele><time>2026-07-28T06:45:17Z</time><extensions><gpxtpx:TrackPointExtension><gpxtpx:hr>152</gpxtpx:hr></gpxtpx:TrackPointExtension></extensions></trkpt><trkpt lat="60.16159" lon="24.931075"><ele>24.0</ele><time>2026-07-28T06:45:21Z</time><extensions><gpxtpx:TrackPointExtension><gpxtpx:hr>150</gpxtpx:hr></gpxtpx:TrackPointExtension></extensions></trkpt><trkpt lat="60.16159" lon="24.931075"><ele>24.0</ele><time>2026-07-28T06:45:28Z</time><extensions><gpxtpx:TrackPointExtension><gpxtpx:hr>154</gpxtpx:hr></gpxtpx:TrackPointExtension></extensions></trkpt><trkpt lat="60.16159" lon="24.931075"><ele>24.0</ele><time>2026-07-28T06:45:29Z</time><extensions><gpxtpx:TrackPointExtension><gpxtpx:hr>154</gpxtpx:hr></gpxtpx:TrackPointExtension></extensions></trkpt><trkpt lat="60.16159" lon="24.931075"><ele>24.0</ele><time>2026-07-28T06:45:34Z</time><extensions><gpxtpx:TrackPointExtension><gpxtpx:hr>154</gpxtpx:hr></gpxtpx:TrackPointExtension></extensions></trkpt><trkpt lat="60.16159" lon="24.931075"><ele>24.0</ele><time>2026-07-28T06:45:39Z</time><extensions><gpxtpx:TrackPointExtension><gpxtpx:hr>153</gpxtpx:hr></gpxtpx:TrackPointExtension></extensions></trkpt><trkpt lat="60.16159" lon="24.931075"><ele>24.0</ele><time>2026-07-28T06:45:48Z</time><extensions><gpxtpx:TrackPointExtension><gpxtpx:hr>147</gpxtpx:hr></gpxtpx:TrackPointExtension></extensions></trkpt><trkpt lat="60.16159" lon="24.931075"><ele>24.0</ele><time>2026-07-28T06:45:53Z</time><extensions><gpxtpx:TrackPointExtension><gpxtpx:hr>142</gpxtpx:hr></gpxtpx:TrackPointExtension></extensions></trkpt><trkpt lat="60.16159" lon="24.931075"><ele>24.0</ele><time>2026-07-28T06:45:55Z</time><extensions><gpxtpx:TrackPointExtension><gpxtpx:hr>141</gpxtpx:hr></gpxtpx:TrackPointExtension></extensions></trkpt><trkpt lat="60.16159" lon="24.931075"><ele>24.0</ele><time>2026-07-28T06:45:59Z</time><extensions><gpxtpx:TrackPointExtension><gpxtpx:hr>140</gpxtpx:hr></gpxtpx:TrackPointExtension></extensions></trkpt><trkpt lat="60.16159" lon="24.931075"><ele>24.0</ele><time>2026-07-28T06:46:04Z</time><extensions><gpxtpx:TrackPointExtension><gpxtpx:hr>134</gpxtpx:hr></gpxtpx:TrackPointExtension></extensions></trkpt><trkpt lat="60.16159" lon="24.931075"><ele>24.0</ele><time>2026-07-28T06:46:10Z</time><extensions><gpxtpx:TrackPointExtension><gpxtpx:hr>135</gpxtpx:hr></gpxtpx:TrackPointExtension></extensions></trkpt><trkpt lat="60.16159" lon="24.931075"><ele>24.0</ele><time>2026-07-28T06:46:16Z</time><extensions><gpxtpx:TrackPointExtension><gpxtpx:hr>136</gpxtpx:hr></gpxtpx:TrackPointExtension></extensions></trkpt><trkpt lat="60.16159" lon="24.931075"><ele>24.0</ele><time>2026-07-28T06:46:22Z</time><extensions><gpxtpx:TrackPointExtension><gpxtpx:hr>135</gpxtpx:hr></gpxtpx:TrackPointExtension></extensions></trkpt><trkpt lat="60.16159" lon="24.931075"><ele>24.0</ele><time>2026-07-28T06:46:28Z</time><extensions><gpxtpx:TrackPointExtension><gpxtpx:hr>163</gpxtpx:hr></gpxtpx:TrackPointExtension></extensions></trkpt><trkpt lat="60.16159" lon="24.931075"><ele>24.0</ele><time>2026-07-28T06:46:33Z</time><extensions><gpxtpx:TrackPointExtension><gpxtpx:hr>160</gpxtpx:hr></gpxtpx:TrackPointExtension></extensions></trkpt><trkpt lat="60.16159" lon="24.931075"><ele>24.0</ele><time>2026-07-28T06:46:37Z</time><extensions><gpxtpx:TrackPointExtension><gpxtpx:hr>158</gpxtpx:hr></gpxtpx:TrackPointExtension></extensions></trkpt><trkpt lat="60.16159" lon="24.931075"><ele>24.0</ele><time>2026-07-28T06:46:42Z</time><extensions><gpxtpx:TrackPointExtension><gpxtpx:hr>156</gpxtpx:hr></gpxtpx:TrackPointExtension></extensions></trkpt><trkpt lat="60.16159" lon="24.931075"><ele>24.0</ele><time>2026-07-28T06:46:44Z</time><extensions><gpxtpx:TrackPointExtension><gpxtpx:hr>155</gpxtpx:hr></gpxtpx:TrackPointExtension></extensions></trkpt></trkseg></trk></gpx>