<?xml version="1.0" encoding="UTF-8" standalone="no"?><gpx xmlns="http://www.topografix.com/GPX/1/1" xmlns:gpxtpx="http://www.garmin.com/xmlschemas/TrackPointExtension/v1" xmlns:xsi="http://www.w3.org/2001/XMLSchema-instance" creator="Sports Tracker" version="1.1" xsi:schemaLocation="http://www.topografix.com/GPX/1/1 http://www.topografix.com/GPX/1/1/gpx.xsd http://www.garmin.com/xmlschemas/TrackPointExtension/v1 http://www.garmin.com/xmlschemas/TrackPointExtensionv1.xsd"><metadata><name/><desc/><author><name>anttipehkonen240</name></author></metadata><trk><name/><trkseg><trkpt lat="60.232243" lon="24.967628"><ele>29.5</ele><time>2026-05-03T07:50:39Z</time></trkpt><trkpt lat="60.232243" lon="24.967628"><ele>29.5</ele><time>2026-05-03T07:50:56Z</time><extensions><gpxtpx:TrackPointExtension><gpxtpx:hr>79</gpxtpx:hr></gpxtpx:TrackPointExtension></extensions></trkpt><trkpt lat="60.232243" lon="24.967628"><ele>29.5</ele><time>2026-05-03T07:50:57Z</time><extensions><gpxtpx:TrackPointExtension><gpxtpx:hr>80</gpxtpx:hr></gpxtpx:TrackPointExtension></extensions></trkpt><trkpt lat="60.232243" lon="24.967628"><ele>29.5</ele><time>2026-05-03T07:51:05Z</time><extensions><gpxtpx:TrackPointExtension><gpxtpx:hr>80</gpxtpx:hr></gpxtpx:TrackPointExtension></extensions></trkpt><trkpt lat="60.232243" lon="24.967628"><ele>29.5</ele><time>2026-05-03T07:51:07Z</time><extensions><gpxtpx:TrackPointExtension><gpxtpx:hr>80</gpxtpx:hr></gpxtpx:TrackPointExtension></extensions></trkpt><trkpt lat="60.232243" lon="24.967628"><ele>29.5</ele><time>2026-05-03T07:51:12Z</time><extensions><gpxtpx:TrackPointExtension><gpxtpx:hr>81</gpxtpx:hr></gpxtpx:TrackPointExtension></extensions></trkpt><trkpt lat="60.232243" lon="24.967628"><ele>29.5</ele><time>2026-05-03T07:51:18Z</time><extensions><gpxtpx:TrackPointExtension><gpxtpx:hr>82</gpxtpx:hr></gpxtpx:TrackPointExtension></extensions></trkpt><trkpt lat="60.232243" lon="24.967628"><ele>29.5</ele><time>2026-05-03T07:51:24Z</time><extensions><gpxtpx:TrackPointExtension><gpxtpx:hr>82</gpxtpx:hr></gpxtpx:TrackPointExtension></extensions></trkpt><trkpt lat="60.232243" lon="24.967628"><ele>29.5</ele><time>2026-05-03T07:51:31Z</time><extensions><gpxtpx:TrackPointExtension><gpxtpx:hr>84</gpxtpx:hr></gpxtpx:TrackPointExtension></extensions></trkpt><trkpt lat="60.232243" lon="24.967628"><ele>29.5</ele><time>2026-05-03T07:51:32Z</time><extensions><gpxtpx:TrackPointExtension><gpxtpx:hr>84</gpxtpx:hr></gpxtpx:TrackPointExtension></extensions></trkpt><trkpt lat="60.232243" lon="24.967628"><ele>29.5</ele><time>2026-05-03T07:51:41Z</time><extensions><gpxtpx:TrackPointExtension><gpxtpx:hr>86</gpxtpx:hr></gpxtpx:TrackPointExtension></extensions></trkpt><trkpt lat="60.232243" lon="24.967628"><ele>29.5</ele><time>2026-05-03T07:51:46Z</time><extensions><gpxtpx:TrackPointExtension><gpxtpx:hr>87</gpxtpx:hr></gpxtpx:TrackPointExtension></extensions></trkpt><trkpt lat="60.232243" lon="24.967628"><ele>29.5</ele><time>2026-05-03T07:51:47Z</time><extensions><gpxtpx:TrackPointExtension><gpxtpx:hr>87</gpxtpx:hr></gpxtpx:TrackPointExtension></extensions></trkpt><trkpt lat="60.232243" lon="24.967628"><ele>29.5</ele><time>2026-05-03T07:51:55Z</time><extensions><gpxtpx:TrackPointExtension><gpxtpx:hr>85</gpxtpx:hr></gpxtpx:TrackPointExtension></extensions></trkpt><trkpt lat="60.232243" lon="24.967628"><ele>29.5</ele><time>2026-05-03T07:51:57Z</time><extensions><gpxtpx:TrackPointExtension><gpxtpx:hr>84</gpxtpx:hr></gpxtpx:TrackPointExtension></extensions></trkpt><trkpt lat="60.232243" lon="24.967628"><ele>29.5</ele><time>2026-05-03T07:52:06Z</time><extensions><gpxtpx:TrackPointExtension><gpxtpx:hr>83</gpxtpx:hr></gpxtpx:TrackPointExtension></extensions></trkpt><trkpt lat="60.232243" lon="24.967628"><ele>29.5</ele><time>2026-05-03T07:52:07Z</time><extensions><gpxtpx:TrackPointExtension><gpxtpx:hr>83</gpxtpx:hr></gpxtpx:TrackPointExtension></extensions></trkpt><trkpt lat="60.232243" lon="24.967628"><ele>29.5</ele><time>2026-05-03T07:52:12Z</time><extensions><gpxtpx:TrackPointExtension><gpxtpx:hr>85</gpxtpx:hr></gpxtpx:TrackPointExtension></extensions></trkpt><trkpt lat="60.232243" lon="24.967628"><ele>29.5</ele><time>2026-05-03T07:52:20Z</time><extensions><gpxtpx:TrackPointExtension><gpxtpx:hr>84</gpxtpx:hr></gpxtpx:TrackPointExtension></extensions></trkpt><trkpt lat="60.232243" lon="24.967628"><ele>29.5</ele><time>2026-05-03T07:52:22Z</time><extensions><gpxtpx:TrackPointExtension><gpxtpx:hr>83</gpxtpx:hr></gpxtpx:TrackPointExtension></extensions></trkpt><trkpt lat="60.232243" lon="24.967628"><ele>29.5</ele><time>2026-05-03T07:52:31Z</time><extensions><gpxtpx:TrackPointExtension><gpxtpx:hr>86</gpxtpx:hr></gpxtpx:TrackPointExtension></extensions></trkpt><trkpt lat="60.232243" lon="24.967628"><ele>29.5</ele><time>2026-05-03T07:52:36Z</time><extensions><gpxtpx:TrackPointExtension><gpxtpx:hr>85</gpxtpx:hr></gpxtpx:TrackPointExtension></extensions></trkpt><trkpt lat="60.232243" lon="24.967628"><ele>29.5</ele><time>2026-05-03T07:52:37Z</time><extensions><gpxtpx:TrackPointExtension><gpxtpx:hr>85</gpxtpx:hr></gpxtpx:TrackPointExtension></extensions></trkpt><trkpt lat="60.232243" lon="24.967628"><ele>29.5</ele><time>2026-05-03T07:52:46Z</time><extensions><gpxtpx:TrackPointExtension><gpxtpx:hr>85</gpxtpx:hr></gpxtpx:TrackPointExtension></extensions></trkpt><trkpt lat="60.232243" lon="24.967628"><ele>29.5</ele><time>2026-05-03T07:52:49Z</time><extensions><gpxtpx:TrackPointExtension><gpxtpx:hr>85</gpxtpx:hr></gpxtpx:TrackPointExtension></extensions></trkpt><trkpt lat="60.232243" lon="24.967628"><ele>29.5</ele><time>2026-05-03T07:52:56Z</time><extensions><gpxtpx:TrackPointExtension><gpxtpx:hr>86</gpxtpx:hr></gpxtpx:TrackPointExtension></extensions></trkpt><trkpt lat="60.232243" lon="24.967628"><ele>29.5</ele><time>2026-05-03T07:52:57Z</time><extensions><gpxtpx:TrackPointExtension><gpxtpx:hr>85</gpxtpx:hr></gpxtpx:TrackPointExtension></extensions></trkpt><trkpt lat="60.232243" lon="24.967628"><ele>29.5</ele><time>2026-05-03T07:53:05Z</time><extensions><gpxtpx:TrackPointExtension><gpxtpx:hr>85</gpxtpx:hr></gpxtpx:TrackPointExtension></extensions></trkpt><trkpt lat="60.232243" lon="24.967628"><ele>29.5</ele><time>2026-05-03T07:53:08Z</time><extensions><gpxtpx:TrackPointExtension><gpxtpx:hr>85</gpxtpx:hr></gpxtpx:TrackPointExtension></extensions></trkpt><trkpt lat="60.232243" lon="24.967628"><ele>29.5</ele><time>2026-05-03T07:53:12Z</time><extensions><gpxtpx:TrackPointExtension><gpxtpx:hr>85</gpxtpx:hr></gpxtpx:TrackPointExtension></extensions></trkpt><trkpt lat="60.232243" lon="24.967628"><ele>29.5</ele><time>2026-05-03T07:53:21Z</time><extensions><gpxtpx:TrackPointExtension><gpxtpx:hr>85</gpxtpx:hr></gpxtpx:TrackPointExtension></extensions></trkpt><trkpt lat="60.232243" lon="24.967628"><ele>29.5</ele><time>2026-05-03T07:53:22Z</time><extensions><gpxtpx:TrackPointExtension><gpxtpx:hr>84</gpxtpx:hr></gpxtpx:TrackPointExtension></extensions></trkpt><trkpt lat="60.232243" lon="24.967628"><ele>29.5</ele><time>2026-05-03T07:53:28Z</time><extensions><gpxtpx:TrackPointExtension><gpxtpx:hr>81</gpxtpx:hr></gpxtpx:TrackPointExtension></extensions></trkpt><trkpt lat="60.232243" lon="24.967628"><ele>29.5</ele><time>2026-05-03T07:53:32Z</time><extensions><gpxtpx:TrackPointExtension><gpxtpx:hr>81</gpxtpx:hr></gpxtpx:TrackPointExtension></extensions></trkpt><trkpt lat="60.232243" lon="24.967628"><ele>29.5</ele><time>2026-05-03T07:53:37Z</time><extensions><gpxtpx:TrackPointExtension><gpxtpx:hr>80</gpxtpx:hr></gpxtpx:TrackPointExtension></extensions></trkpt><trkpt lat="60.232243" lon="24.967628"><ele>29.5</ele><time>2026-05-03T07:53:42Z</time><extensions><gpxtpx:TrackPointExtension><gpxtpx:hr>80</gpxtpx:hr></gpxtpx:TrackPointExtension></extensions></trkpt><trkpt lat="60.232243" lon="24.967628"><ele>29.5</ele><time>2026-05-03T07:53:51Z</time><extensions><gpxtpx:TrackPointExtension><gpxtpx:hr>81</gpxtpx:hr></gpxtpx:TrackPointExtension></extensions></trkpt><trkpt lat="60.232243" lon="24.967628"><ele>29.5</ele><time>2026-05-03T07:53:56Z</time><extensions><gpxtpx:TrackPointExtension><gpxtpx:hr>82</gpxtpx:hr></gpxtpx:TrackPointExtension></extensions></trkpt><trkpt lat="60.232243" lon="24.967628"><ele>29.5</ele><time>2026-05-03T07:53:58Z</time><extensions><gpxtpx:TrackPointExtension><gpxtpx:hr>82</gpxtpx:hr></gpxtpx:TrackPointExtension></extensions></trkpt><trkpt lat="60.232243" lon="24.967628"><ele>29.5</ele><time>2026-05-03T07:54:06Z</time><extensions><gpxtpx:TrackPointExtension><gpxtpx:hr>81</gpxtpx:hr></gpxtpx:TrackPointExtension></extensions></trkpt><trkpt lat="60.232243" lon="24.967628"><ele>29.5</ele><time>2026-05-03T07:54:11Z</time><extensions><gpxtpx:TrackPointExtension><gpxtpx:hr>81</gpxtpx:hr></gpxtpx:TrackPointExtension></extensions></trkpt><trkpt lat="60.232243" lon="24.967628"><ele>29.5</ele><time>2026-05-03T07:54:15Z</time><extensions><gpxtpx:TrackPointExtension><gpxtpx:hr>81</gpxtpx:hr></gpxtpx:TrackPointExtension></extensions></trkpt><trkpt lat="60.232243" lon="24.967628"><ele>29.5</ele><time>2026-05-03T07:54:17Z</time><extensions><gpxtpx:TrackPointExtension><gpxtpx:hr>81</gpxtpx:hr></gpxtpx:TrackPointExtension></extensions></trkpt><trkpt lat="60.232243" lon="24.967628"><ele>29.5</ele><time>2026-05-03T07:54:22Z</time><extensions><gpxtpx:TrackPointExtension><gpxtpx:hr>81</gpxtpx:hr></gpxtpx:TrackPointExtension></extensions></trkpt><trkpt lat="60.232243" lon="24.967628"><ele>29.5</ele><time>2026-05-03T07:54:30Z</time><extensions><gpxtpx:TrackPointExtension><gpxtpx:hr>81</gpxtpx:hr></gpxtpx:TrackPointExtension></extensions></trkpt><trkpt lat="60.232243" lon="24.967628"><ele>29.5</ele><time>2026-05-03T07:54:32Z</time><extensions><gpxtpx:TrackPointExtension><gpxtpx:hr>80</gpxtpx:hr></gpxtpx:TrackPointExtension></extensions></trkpt><trkpt lat="60.232243" lon="24.967628"><ele>29.5</ele><time>2026-05-03T07:54:37Z</time><extensions><gpxtpx:TrackPointExtension><gpxtpx:hr>81</gpxtpx:hr></gpxtpx:TrackPointExtension></extensions></trkpt><trkpt lat="60.232243" lon="24.967628"><ele>29.5</ele><time>2026-05-03T07:54:46Z</time><extensions><gpxtpx:TrackPointExtension><gpxtpx:hr>81</gpxtpx:hr></gpxtpx:TrackPointExtension></extensions></trkpt><trkpt lat="60.232243" lon="24.967628"><ele>29.5</ele><time>2026-05-03T07:54:47Z</time><extensions><gpxtpx:TrackPointExtension><gpxtpx:hr>81</gpxtpx:hr></gpxtpx:TrackPointExtension></extensions></trkpt><trkpt lat="60.232243" lon="24.967628"><ele>29.5</ele><time>2026-05-03T07:54:52Z</time><extensions><gpxtpx:TrackPointExtension><gpxtpx:hr>81</gpxtpx:hr></gpxtpx:TrackPointExtension></extensions></trkpt><trkpt lat="60.232243" lon="24.967628"><ele>29.5</ele><time>2026-05-03T07:54:57Z</time><extensions><gpxtpx:TrackPointExtension><gpxtpx:hr>79</gpxtpx:hr></gpxtpx:TrackPointExtension></extensions></trkpt><trkpt lat="60.232243" lon="24.967628"><ele>29.5</ele><time>2026-05-03T07:55:05Z</time><extensions><gpxtpx:TrackPointExtension><gpxtpx:hr>78</gpxtpx:hr></gpxtpx:TrackPointExtension></extensions></trkpt><trkpt lat="60.232243" lon="24.967628"><ele>29.5</ele><time>2026-05-03T07:55:08Z</time><extensions><gpxtpx:TrackPointExtension><gpxtpx:hr>78</gpxtpx:hr></gpxtpx:TrackPointExtension></extensions></trkpt><trkpt lat="60.232243" lon="24.967628"><ele>29.5</ele><time>2026-05-03T07:55:16Z</time><extensions><gpxtpx:TrackPointExtension><gpxtpx:hr>76</gpxtpx:hr></gpxtpx:TrackPointExtension></extensions></trkpt><trkpt lat="60.232243" lon="24.967628"><ele>29.5</ele><time>2026-05-03T07:55:17Z</time><extensions><gpxtpx:TrackPointExtension><gpxtpx:hr>76</gpxtpx:hr></gpxtpx:TrackPointExtension></extensions></trkpt><trkpt lat="60.232243" lon="24.967628"><ele>29.5</ele><time>2026-05-03T07:55:22Z</time><extensions><gpxtpx:TrackPointExtension><gpxtpx:hr>76</gpxtpx:hr></gpxtpx:TrackPointExtension></extensions></trkpt><trkpt lat="60.232243" lon="24.967628"><ele>29.5</ele><time>2026-05-03T07:55:29Z</time><extensions><gpxtpx:TrackPointExtension><gpxtpx:hr>77</gpxtpx:hr></gpxtpx:TrackPointExtension></extensions></trkpt><trkpt lat="60.232243" lon="24.967628"><ele>29.5</ele><time>2026-05-03T07:55:32Z</time><extensions><gpxtpx:TrackPointExtension><gpxtpx:hr>77</gpxtpx:hr></gpxtpx:TrackPointExtension></extensions></trkpt><trkpt lat="60.232243" lon="24.967628"><ele>29.5</ele><time>2026-05-03T07:55:40Z</time><extensions><gpxtpx:TrackPointExtension><gpxtpx:hr>78</gpxtpx:hr></gpxtpx:TrackPointExtension></extensions></trkpt><trkpt lat="60.232243" lon="24.967628"><ele>29.5</ele><time>2026-05-03T07:55:42Z</time><extensions><gpxtpx:TrackPointExtension><gpxtpx:hr>78</gpxtpx:hr></gpxtpx:TrackPointExtension></extensions></trkpt><trkpt lat="60.232243" lon="24.967628"><ele>29.5</ele><time>2026-05-03T07:55:47Z</time><extensions><gpxtpx:TrackPointExtension><gpxtpx:hr>79</gpxtpx:hr></gpxtpx:TrackPointExtension></extensions></trkpt><trkpt lat="60.232243" lon="24.967628"><ele>29.5</ele><time>2026-05-03T07:55:56Z</time><extensions><gpxtpx:TrackPointExtension><gpxtpx:hr>79</gpxtpx:hr></gpxtpx:TrackPointExtension></extensions></trkpt><trkpt lat="60.232243" lon="24.967628"><ele>29.5</ele><time>2026-05-03T07:55:57Z</time><extensions><gpxtpx:TrackPointExtension><gpxtpx:hr>79</gpxtpx:hr></gpxtpx:TrackPointExtension></extensions></trkpt><trkpt lat="60.232243" lon="24.967628"><ele>29.5</ele><time>2026-05-03T07:56:04Z</time><extensions><gpxtpx:TrackPointExtension><gpxtpx:hr>79</gpxtpx:hr></gpxtpx:TrackPointExtension></extensions></trkpt><trkpt lat="60.232243" lon="24.967628"><ele>29.5</ele><time>2026-05-03T07:56:07Z</time><extensions><gpxtpx:TrackPointExtension><gpxtpx:hr>79</gpxtpx:hr></gpxtpx:TrackPointExtension></extensions></trkpt><trkpt lat="60.232243" lon="24.967628"><ele>29.5</ele><time>2026-05-03T07:56:16Z</time><extensions><gpxtpx:TrackPointExtension><gpxtpx:hr>80</gpxtpx:hr></gpxtpx:TrackPointExtension></extensions></trkpt><trkpt lat="60.232243" lon="24.967628"><ele>29.5</ele><time>2026-05-03T07:56:21Z</time><extensions><gpxtpx:TrackPointExtension><gpxtpx:hr>82</gpxtpx:hr></gpxtpx:TrackPointExtension></extensions></trkpt><trkpt lat="60.232243" lon="24.967628"><ele>29.5</ele><time>2026-05-03T07:56:26Z</time><extensions><gpxtpx:TrackPointExtension><gpxtpx:hr>83</gpxtpx:hr></gpxtpx:TrackPointExtension></extensions></trkpt><trkpt lat="60.232243" lon="24.967628"><ele>29.5</ele><time>2026-05-03T07:56:28Z</time><extensions><gpxtpx:TrackPointExtension><gpxtpx:hr>83</gpxtpx:hr></gpxtpx:TrackPointExtension></extensions></trkpt><trkpt lat="60.232243" lon="24.967628"><ele>29.5</ele><time>2026-05-03T07:56:32Z</time><extensions><gpxtpx:TrackPointExtension><gpxtpx:hr>83</gpxtpx:hr></gpxtpx:TrackPointExtension></extensions></trkpt><trkpt lat="60.232243" lon="24.967628"><ele>29.5</ele><time>2026-05-03T07:56:40Z</time><extensions><gpxtpx:TrackPointExtension><gpxtpx:hr>85</gpxtpx:hr></gpxtpx:TrackPointExtension></extensions></trkpt><trkpt lat="60.232243" lon="24.967628"><ele>29.5</ele><time>2026-05-03T07:56:42Z</time><extensions><gpxtpx:TrackPointExtension><gpxtpx:hr>85</gpxtpx:hr></gpxtpx:TrackPointExtension></extensions></trkpt><trkpt lat="60.232243" lon="24.967628"><ele>29.5</ele><time>2026-05-03T07:56:51Z</time><extensions><gpxtpx:TrackPointExtension><gpxtpx:hr>86</gpxtpx:hr></gpxtpx:TrackPointExtension></extensions></trkpt><trkpt lat="60.232243" lon="24.967628"><ele>29.5</ele><time>2026-05-03T07:56:55Z</time><extensions><gpxtpx:TrackPointExtension><gpxtpx:hr>88</gpxtpx:hr></gpxtpx:TrackPointExtension></extensions></trkpt><trkpt lat="60.232243" lon="24.967628"><ele>29.5</ele><time>2026-05-03T07:57:01Z</time><extensions><gpxtpx:TrackPointExtension><gpxtpx:hr>88</gpxtpx:hr></gpxtpx:TrackPointExtension></extensions></trkpt><trkpt lat="60.232243" lon="24.967628"><ele>29.5</ele><time>2026-05-03T07:57:02Z</time><extensions><gpxtpx:TrackPointExtension><gpxtpx:hr>88</gpxtpx:hr></gpxtpx:TrackPointExtension></extensions></trkpt><trkpt lat="60.232243" lon="24.967628"><ele>29.5</ele><time>2026-05-03T07:57:11Z</time><extensions><gpxtpx:TrackPointExtension><gpxtpx:hr>84</gpxtpx:hr></gpxtpx:TrackPointExtension></extensions></trkpt><trkpt lat="60.232243" lon="24.967628"><ele>29.5</ele><time>2026-05-03T07:57:12Z</time><extensions><gpxtpx:TrackPointExtension><gpxtpx:hr>84</gpxtpx:hr></gpxtpx:TrackPointExtension></extensions></trkpt><trkpt lat="60.232243" lon="24.967628"><ele>29.5</ele><time>2026-05-03T07:57:17Z</time><extensions><gpxtpx:TrackPointExtension><gpxtpx:hr>84</gpxtpx:hr></gpxtpx:TrackPointExtension></extensions></trkpt><trkpt lat="60.232243" lon="24.967628"><ele>29.5</ele><time>2026-05-03T07:57:22Z</time><extensions><gpxtpx:TrackPointExtension><gpxtpx:hr>84</gpxtpx:hr></gpxtpx:TrackPointExtension></extensions></trkpt><trkpt lat="60.232243" lon="24.967628"><ele>29.5</ele><time>2026-05-03T07:57:27Z</time><extensions><gpxtpx:TrackPointExtension><gpxtpx:hr>83</gpxtpx:hr></gpxtpx:TrackPointExtension></extensions></trkpt><trkpt lat="60.232243" lon="24.967628"><ele>29.5</ele><time>2026-05-03T07:57:36Z</time><extensions><gpxtpx:TrackPointExtension><gpxtpx:hr>82</gpxtpx:hr></gpxtpx:TrackPointExtension></extensions></trkpt><trkpt lat="60.232243" lon="24.967628"><ele>29.5</ele><time>2026-05-03T07:57:41Z</time><extensions><gpxtpx:TrackPointExtension><gpxtpx:hr>80</gpxtpx:hr></gpxtpx:TrackPointExtension></extensions></trkpt><trkpt lat="60.232243" lon="24.967628"><ele>29.5</ele><time>2026-05-03T07:57:42Z</time><extensions><gpxtpx:TrackPointExtension><gpxtpx:hr>80</gpxtpx:hr></gpxtpx:TrackPointExtension></extensions></trkpt><trkpt lat="60.232243" lon="24.967628"><ele>29.5</ele><time>2026-05-03T07:57:51Z</time><extensions><gpxtpx:TrackPointExtension><gpxtpx:hr>81</gpxtpx:hr></gpxtpx:TrackPointExtension></extensions></trkpt><trkpt lat="60.232243" lon="24.967628"><ele>29.5</ele><time>2026-05-03T07:57:54Z</time><extensions><gpxtpx:TrackPointExtension><gpxtpx:hr>81</gpxtpx:hr></gpxtpx:TrackPointExtension></extensions></trkpt><trkpt lat="60.232243" lon="24.967628"><ele>29.5</ele><time>2026-05-03T07:58:01Z</time><extensions><gpxtpx:TrackPointExtension><gpxtpx:hr>80</gpxtpx:hr></gpxtpx:TrackPointExtension></extensions></trkpt><trkpt lat="60.232243" lon="24.967628"><ele>29.5</ele><time>2026-05-03T07:58:06Z</time><extensions><gpxtpx:TrackPointExtension><gpxtpx:hr>81</gpxtpx:hr></gpxtpx:TrackPointExtension></extensions></trkpt><trkpt lat="60.232243" lon="24.967628"><ele>29.5</ele><time>2026-05-03T07:58:09Z</time><extensions><gpxtpx:TrackPointExtension><gpxtpx:hr>81</gpxtpx:hr></gpxtpx:TrackPointExtension></extensions></trkpt><trkpt lat="60.232243" lon="24.967628"><ele>29.5</ele><time>2026-05-03T07:58:12Z</time><extensions><gpxtpx:TrackPointExtension><gpxtpx:hr>80</gpxtpx:hr></gpxtpx:TrackPointExtension></extensions></trkpt><trkpt lat="60.232243" lon="24.967628"><ele>29.5</ele><time>2026-05-03T07:58:17Z</time><extensions><gpxtpx:TrackPointExtension><gpxtpx:hr>81</gpxtpx:hr></gpxtpx:TrackPointExtension></extensions></trkpt><trkpt lat="60.232243" lon="24.967628"><ele>29.5</ele><time>2026-05-03T07:58:26Z</time><extensions><gpxtpx:TrackPointExtension><gpxtpx:hr>82</gpxtpx:hr></gpxtpx:TrackPointExtension></extensions></trkpt><trkpt lat="60.232243" lon="24.967628"><ele>29.5</ele><time>2026-05-03T07:58:27Z</time><extensions><gpxtpx:TrackPointExtension><gpxtpx:hr>82</gpxtpx:hr></gpxtpx:TrackPointExtension></extensions></trkpt><trkpt lat="60.232243" lon="24.967628"><ele>29.5</ele><time>2026-05-03T07:58:32Z</time><extensions><gpxtpx:TrackPointExtension><gpxtpx:hr>82</gpxtpx:hr></gpxtpx:TrackPointExtension></extensions></trkpt><trkpt lat="60.232243" lon="24.967628"><ele>29.5</ele><time>2026-05-03T07:58:37Z</time><extensions><gpxtpx:TrackPointExtension><gpxtpx:hr>82</gpxtpx:hr></gpxtpx:TrackPointExtension></extensions></trkpt><trkpt lat="60.232243" lon="24.967628"><ele>29.5</ele><time>2026-05-03T07:58:45Z</time><extensions><gpxtpx:TrackPointExtension><gpxtpx:hr>83</gpxtpx:hr></gpxtpx:TrackPointExtension></extensions></trkpt><trkpt lat="60.232243" lon="24.967628"><ele>29.5</ele><time>2026-05-03T07:58:47Z</time><extensions><gpxtpx:TrackPointExtension><gpxtpx:hr>84</gpxtpx:hr></gpxtpx:TrackPointExtension></extensions></trkpt><trkpt lat="60.232243" lon="24.967628"><ele>29.5</ele><time>2026-05-03T07:58:52Z</time><extensions><gpxtpx:TrackPointExtension><gpxtpx:hr>88</gpxtpx:hr></gpxtpx:TrackPointExtension></extensions></trkpt><trkpt lat="60.232243" lon="24.967628"><ele>29.5</ele><time>2026-05-03T07:59:01Z</time><extensions><gpxtpx:TrackPointExtension><gpxtpx:hr>93</gpxtpx:hr></gpxtpx:TrackPointExtension></extensions></trkpt><trkpt lat="60.232243" lon="24.967628"><ele>29.5</ele><time>2026-05-03T07:59:06Z</time><extensions><gpxtpx:TrackPointExtension><gpxtpx:hr>91</gpxtpx:hr></gpxtpx:TrackPointExtension></extensions></trkpt><trkpt lat="60.232243" lon="24.967628"><ele>29.5</ele><time>2026-05-03T07:59:07Z</time><extensions><gpxtpx:TrackPointExtension><gpxtpx:hr>91</gpxtpx:hr></gpxtpx:TrackPointExtension></extensions></trkpt><trkpt lat="60.232243" lon="24.967628"><ele>29.5</ele><time>2026-05-03T07:59:12Z</time><extensions><gpxtpx:TrackPointExtension><gpxtpx:hr>90</gpxtpx:hr></gpxtpx:TrackPointExtension></extensions></trkpt><trkpt lat="60.232243" lon="24.967628"><ele>29.5</ele><time>2026-05-03T07:59:17Z</time><extensions><gpxtpx:TrackPointExtension><gpxtpx:hr>90</gpxtpx:hr></gpxtpx:TrackPointExtension></extensions></trkpt><trkpt lat="60.232243" lon="24.967628"><ele>29.5</ele><time>2026-05-03T07:59:22Z</time><extensions><gpxtpx:TrackPointExtension><gpxtpx:hr>95</gpxtpx:hr></gpxtpx:TrackPointExtension></extensions></trkpt><trkpt lat="60.232243" lon="24.967628"><ele>29.5</ele><time>2026-05-03T07:59:46Z</time><extensions><gpxtpx:TrackPointExtension><gpxtpx:hr>91</gpxtpx:hr></gpxtpx:TrackPointExtension></extensions></trkpt><trkpt lat="60.232243" lon="24.967628"><ele>29.5</ele><time>2026-05-03T07:59:49Z</time><extensions><gpxtpx:TrackPointExtension><gpxtpx:hr>88</gpxtpx:hr></gpxtpx:TrackPointExtension></extensions></trkpt><trkpt lat="60.232243" lon="24.967628"><ele>29.5</ele><time>2026-05-03T07:59:53Z</time><extensions><gpxtpx:TrackPointExtension><gpxtpx:hr>87</gpxtpx:hr></gpxtpx:TrackPointExtension></extensions></trkpt><trkpt lat="60.232243" lon="24.967628"><ele>29.5</ele><time>2026-05-03T07:59:59Z</time><extensions><gpxtpx:TrackPointExtension><gpxtpx:hr>92</gpxtpx:hr></gpxtpx:TrackPointExtension></extensions></trkpt><trkpt lat="60.232243" lon="24.967628"><ele>29.5</ele><time>2026-05-03T08:00:05Z</time><extensions><gpxtpx:TrackPointExtension><gpxtpx:hr>89</gpxtpx:hr></gpxtpx:TrackPointExtension></extensions></trkpt><trkpt lat="60.232243" lon="24.967628"><ele>29.5</ele><time>2026-05-03T08:00:07Z</time><extensions><gpxtpx:TrackPointExtension><gpxtpx:hr>88</gpxtpx:hr></gpxtpx:TrackPointExtension></extensions></trkpt><trkpt lat="60.232243" lon="24.967628"><ele>29.5</ele><time>2026-05-03T08:00:16Z</time><extensions><gpxtpx:TrackPointExtension><gpxtpx:hr>78</gpxtpx:hr></gpxtpx:TrackPointExtension></extensions></trkpt><trkpt lat="60.232243" lon="24.967628"><ele>29.5</ele><time>2026-05-03T08:00:21Z</time><extensions><gpxtpx:TrackPointExtension><gpxtpx:hr>76</gpxtpx:hr></gpxtpx:TrackPointExtension></extensions></trkpt><trkpt lat="60.232243" lon="24.967628"><ele>29.5</ele><time>2026-05-03T08:00:24Z</time><extensions><gpxtpx:TrackPointExtension><gpxtpx:hr>77</gpxtpx:hr></gpxtpx:TrackPointExtension></extensions></trkpt><trkpt lat="60.232243" lon="24.967628"><ele>29.5</ele><time>2026-05-03T08:00:31Z</time><extensions><gpxtpx:TrackPointExtension><gpxtpx:hr>79</gpxtpx:hr></gpxtpx:TrackPointExtension></extensions></trkpt><trkpt lat="60.232243" lon="24.967628"><ele>29.5</ele><time>2026-05-03T08:00:34Z</time><extensions><gpxtpx:TrackPointExtension><gpxtpx:hr>78</gpxtpx:hr></gpxtpx:TrackPointExtension></extensions></trkpt><trkpt lat="60.232243" lon="24.967628"><ele>29.5</ele><time>2026-05-03T08:00:41Z</time><extensions><gpxtpx:TrackPointExtension><gpxtpx:hr>77</gpxtpx:hr></gpxtpx:TrackPointExtension></extensions></trkpt><trkpt lat="60.232243" lon="24.967628"><ele>29.5</ele><time>2026-05-03T08:00:42Z</time><extensions><gpxtpx:TrackPointExtension><gpxtpx:hr>76</gpxtpx:hr></gpxtpx:TrackPointExtension></extensions></trkpt><trkpt lat="60.232243" lon="24.967628"><ele>29.5</ele><time>2026-05-03T08:00:47Z</time><extensions><gpxtpx:TrackPointExtension><gpxtpx:hr>77</gpxtpx:hr></gpxtpx:TrackPointExtension></extensions></trkpt><trkpt lat="60.232243" lon="24.967628"><ele>29.5</ele><time>2026-05-03T08:00:52Z</time><extensions><gpxtpx:TrackPointExtension><gpxtpx:hr>82</gpxtpx:hr></gpxtpx:TrackPointExtension></extensions></trkpt><trkpt lat="60.232243" lon="24.967628"><ele>29.5</ele><time>2026-05-03T08:00:57Z</time><extensions><gpxtpx:TrackPointExtension><gpxtpx:hr>90</gpxtpx:hr></gpxtpx:TrackPointExtension></extensions></trkpt><trkpt lat="60.232243" lon="24.967628"><ele>29.5</ele><time>2026-05-03T08:01:13Z</time><extensions><gpxtpx:TrackPointExtension><gpxtpx:hr>108</gpxtpx:hr></gpxtpx:TrackPointExtension></extensions></trkpt><trkpt lat="60.232243" lon="24.967628"><ele>29.5</ele><time>2026-05-03T08:01:21Z</time><extensions><gpxtpx:TrackPointExtension><gpxtpx:hr>109</gpxtpx:hr></gpxtpx:TrackPointExtension></extensions></trkpt><trkpt lat="60.232243" lon="24.967628"><ele>29.5</ele><time>2026-05-03T08:01:26Z</time><extensions><gpxtpx:TrackPointExtension><gpxtpx:hr>105</gpxtpx:hr></gpxtpx:TrackPointExtension></extensions></trkpt><trkpt lat="60.232243" lon="24.967628"><ele>29.5</ele><time>2026-05-03T08:01:27Z</time><extensions><gpxtpx:TrackPointExtension><gpxtpx:hr>106</gpxtpx:hr></gpxtpx:TrackPointExtension></extensions></trkpt><trkpt lat="60.232243" lon="24.967628"><ele>29.5</ele><time>2026-05-03T08:01:33Z</time><extensions><gpxtpx:TrackPointExtension><gpxtpx:hr>103</gpxtpx:hr></gpxtpx:TrackPointExtension></extensions></trkpt><trkpt lat="60.232243" lon="24.967628"><ele>29.5</ele><time>2026-05-03T08:01:41Z</time><extensions><gpxtpx:TrackPointExtension><gpxtpx:hr>97</gpxtpx:hr></gpxtpx:TrackPointExtension></extensions></trkpt><trkpt lat="60.232243" lon="24.967628"><ele>29.5</ele><time>2026-05-03T08:01:46Z</time><extensions><gpxtpx:TrackPointExtension><gpxtpx:hr>94</gpxtpx:hr></gpxtpx:TrackPointExtension></extensions></trkpt><trkpt lat="60.232243" lon="24.967628"><ele>29.5</ele><time>2026-05-03T08:01:49Z</time><extensions><gpxtpx:TrackPointExtension><gpxtpx:hr>92</gpxtpx:hr></gpxtpx:TrackPointExtension></extensions></trkpt><trkpt lat="60.232243" lon="24.967628"><ele>29.5</ele><time>2026-05-03T08:01:55Z</time><extensions><gpxtpx:TrackPointExtension><gpxtpx:hr>83</gpxtpx:hr></gpxtpx:TrackPointExtension></extensions></trkpt><trkpt lat="60.232243" lon="24.967628"><ele>29.5</ele><time>2026-05-03T08:01:57Z</time><extensions><gpxtpx:TrackPointExtension><gpxtpx:hr>82</gpxtpx:hr></gpxtpx:TrackPointExtension></extensions></trkpt><trkpt lat="60.232243" lon="24.967628"><ele>29.5</ele><time>2026-05-03T08:02:02Z</time><extensions><gpxtpx:TrackPointExtension><gpxtpx:hr>83</gpxtpx:hr></gpxtpx:TrackPointExtension></extensions></trkpt><trkpt lat="60.232243" lon="24.967628"><ele>29.5</ele><time>2026-05-03T08:02:07Z</time><extensions><gpxtpx:TrackPointExtension><gpxtpx:hr>86</gpxtpx:hr></gpxtpx:TrackPointExtension></extensions></trkpt><trkpt lat="60.232243" lon="24.967628"><ele>29.5</ele><time>2026-05-03T08:02:14Z</time><extensions><gpxtpx:TrackPointExtension><gpxtpx:hr>88</gpxtpx:hr></gpxtpx:TrackPointExtension></extensions></trkpt><trkpt lat="60.232243" lon="24.967628"><ele>29.5</ele><time>2026-05-03T08:02:21Z</time><extensions><gpxtpx:TrackPointExtension><gpxtpx:hr>93</gpxtpx:hr></gpxtpx:TrackPointExtension></extensions></trkpt><trkpt lat="60.232243" lon="24.967628"><ele>29.5</ele><time>2026-05-03T08:02:24Z</time><extensions><gpxtpx:TrackPointExtension><gpxtpx:hr>96</gpxtpx:hr></gpxtpx:TrackPointExtension></extensions></trkpt><trkpt lat="60.232243" lon="24.967628"><ele>29.5</ele><time>2026-05-03T08:02:31Z</time><extensions><gpxtpx:TrackPointExtension><gpxtpx:hr>100</gpxtpx:hr></gpxtpx:TrackPointExtension></extensions></trkpt><trkpt lat="60.232243" lon="24.967628"><ele>29.5</ele><time>2026-05-03T08:02:36Z</time><extensions><gpxtpx:TrackPointExtension><gpxtpx:hr>96</gpxtpx:hr></gpxtpx:TrackPointExtension></extensions></trkpt><trkpt lat="60.232243" lon="24.967628"><ele>29.5</ele><time>2026-05-03T08:02:41Z</time><extensions><gpxtpx:TrackPointExtension><gpxtpx:hr>90</gpxtpx:hr></gpxtpx:TrackPointExtension></extensions></trkpt><trkpt lat="60.232243" lon="24.967628"><ele>29.5</ele><time>2026-05-03T08:02:42Z</time><extensions><gpxtpx:TrackPointExtension><gpxtpx:hr>89</gpxtpx:hr></gpxtpx:TrackPointExtension></extensions></trkpt><trkpt lat="60.232243" lon="24.967628"><ele>29.5</ele><time>2026-05-03T08:02:51Z</time><extensions><gpxtpx:TrackPointExtension><gpxtpx:hr>87</gpxtpx:hr></gpxtpx:TrackPointExtension></extensions></trkpt><trkpt lat="60.232243" lon="24.967628"><ele>29.5</ele><time>2026-05-03T08:02:56Z</time><extensions><gpxtpx:TrackPointExtension><gpxtpx:hr>83</gpxtpx:hr></gpxtpx:TrackPointExtension></extensions></trkpt><trkpt lat="60.232243" lon="24.967628"><ele>29.5</ele><time>2026-05-03T08:02:58Z</time><extensions><gpxtpx:TrackPointExtension><gpxtpx:hr>81</gpxtpx:hr></gpxtpx:TrackPointExtension></extensions></trkpt><trkpt lat="60.232243" lon="24.967628"><ele>29.5</ele><time>2026-05-03T08:03:02Z</time><extensions><gpxtpx:TrackPointExtension><gpxtpx:hr>81</gpxtpx:hr></gpxtpx:TrackPointExtension></extensions></trkpt><trkpt lat="60.232243" lon="24.967628"><ele>29.5</ele><time>2026-05-03T08:03:07Z</time><extensions><gpxtpx:TrackPointExtension><gpxtpx:hr>81</gpxtpx:hr></gpxtpx:TrackPointExtension></extensions></trkpt><trkpt lat="60.232243" lon="24.967628"><ele>29.5</ele><time>2026-05-03T08:03:12Z</time><extensions><gpxtpx:TrackPointExtension><gpxtpx:hr>81</gpxtpx:hr></gpxtpx:TrackPointExtension></extensions></trkpt><trkpt lat="60.232243" lon="24.967628"><ele>29.5</ele><time>2026-05-03T08:03:17Z</time><extensions><gpxtpx:TrackPointExtension><gpxtpx:hr>85</gpxtpx:hr></gpxtpx:TrackPointExtension></extensions></trkpt><trkpt lat="60.232243" lon="24.967628"><ele>29.5</ele><time>2026-05-03T08:03:22Z</time><extensions><gpxtpx:TrackPointExtension><gpxtpx:hr>90</gpxtpx:hr></gpxtpx:TrackPointExtension></extensions></trkpt><trkpt lat="60.232243" lon="24.967628"><ele>29.5</ele><time>2026-05-03T08:03:27Z</time><extensions><gpxtpx:TrackPointExtension><gpxtpx:hr>97</gpxtpx:hr></gpxtpx:TrackPointExtension></extensions></trkpt><trkpt lat="60.232243" lon="24.967628"><ele>29.5</ele><time>2026-05-03T08:03:51Z</time><extensions><gpxtpx:TrackPointExtension><gpxtpx:hr>106</gpxtpx:hr></gpxtpx:TrackPointExtension></extensions></trkpt><trkpt lat="60.232243" lon="24.967628"><ele>29.5</ele><time>2026-05-03T08:03:56Z</time><extensions><gpxtpx:TrackPointExtension><gpxtpx:hr>103</gpxtpx:hr></gpxtpx:TrackPointExtension></extensions></trkpt><trkpt lat="60.232243" lon="24.967628"><ele>29.5</ele><time>2026-05-03T08:04:01Z</time><extensions><gpxtpx:TrackPointExtension><gpxtpx:hr>102</gpxtpx:hr></gpxtpx:TrackPointExtension></extensions></trkpt><trkpt lat="60.232243" lon="24.967628"><ele>29.5</ele><time>2026-05-03T08:04:03Z</time><extensions><gpxtpx:TrackPointExtension><gpxtpx:hr>101</gpxtpx:hr></gpxtpx:TrackPointExtension></extensions></trkpt><trkpt lat="60.232243" lon="24.967628"><ele>29.5</ele><time>2026-05-03T08:04:11Z</time><extensions><gpxtpx:TrackPointExtension><gpxtpx:hr>96</gpxtpx:hr></gpxtpx:TrackPointExtension></extensions></trkpt><trkpt lat="60.232243" lon="24.967628"><ele>29.5</ele><time>2026-05-03T08:04:13Z</time><extensions><gpxtpx:TrackPointExtension><gpxtpx:hr>91</gpxtpx:hr></gpxtpx:TrackPointExtension></extensions></trkpt><trkpt lat="60.232243" lon="24.967628"><ele>29.5</ele><time>2026-05-03T08:04:21Z</time><extensions><gpxtpx:TrackPointExtension><gpxtpx:hr>78</gpxtpx:hr></gpxtpx:TrackPointExtension></extensions></trkpt><trkpt lat="60.232243" lon="24.967628"><ele>29.5</ele><time>2026-05-03T08:04:26Z</time><extensions><gpxtpx:TrackPointExtension><gpxtpx:hr>73</gpxtpx:hr></gpxtpx:TrackPointExtension></extensions></trkpt><trkpt lat="60.232243" lon="24.967628"><ele>29.5</ele><time>2026-05-03T08:04:28Z</time><extensions><gpxtpx:TrackPointExtension><gpxtpx:hr>73</gpxtpx:hr></gpxtpx:TrackPointExtension></extensions></trkpt><trkpt lat="60.232243" lon="24.967628"><ele>29.5</ele><time>2026-05-03T08:04:32Z</time><extensions><gpxtpx:TrackPointExtension><gpxtpx:hr>74</gpxtpx:hr></gpxtpx:TrackPointExtension></extensions></trkpt><trkpt lat="60.232243" lon="24.967628"><ele>29.5</ele><time>2026-05-03T08:04:37Z</time><extensions><gpxtpx:TrackPointExtension><gpxtpx:hr>80</gpxtpx:hr></gpxtpx:TrackPointExtension></extensions></trkpt><trkpt lat="60.232243" lon="24.967628"><ele>29.5</ele><time>2026-05-03T08:04:42Z</time><extensions><gpxtpx:TrackPointExtension><gpxtpx:hr>89</gpxtpx:hr></gpxtpx:TrackPointExtension></extensions></trkpt><trkpt lat="60.232243" lon="24.967628"><ele>29.5</ele><time>2026-05-03T08:05:06Z</time><extensions><gpxtpx:TrackPointExtension><gpxtpx:hr>97</gpxtpx:hr></gpxtpx:TrackPointExtension></extensions></trkpt><trkpt lat="60.232243" lon="24.967628"><ele>29.5</ele><time>2026-05-03T08:05:07Z</time><extensions><gpxtpx:TrackPointExtension><gpxtpx:hr>97</gpxtpx:hr></gpxtpx:TrackPointExtension></extensions></trkpt><trkpt lat="60.232243" lon="24.967628"><ele>29.5</ele><time>2026-05-03T08:05:13Z</time><extensions><gpxtpx:TrackPointExtension><gpxtpx:hr>96</gpxtpx:hr></gpxtpx:TrackPointExtension></extensions></trkpt><trkpt lat="60.232243" lon="24.967628"><ele>29.5</ele><time>2026-05-03T08:05:17Z</time><extensions><gpxtpx:TrackPointExtension><gpxtpx:hr>94</gpxtpx:hr></gpxtpx:TrackPointExtension></extensions></trkpt><trkpt lat="60.232243" lon="24.967628"><ele>29.5</ele><time>2026-05-03T08:05:24Z</time><extensions><gpxtpx:TrackPointExtension><gpxtpx:hr>92</gpxtpx:hr></gpxtpx:TrackPointExtension></extensions></trkpt><trkpt lat="60.232243" lon="24.967628"><ele>29.5</ele><time>2026-05-03T08:05:30Z</time><extensions><gpxtpx:TrackPointExtension><gpxtpx:hr>92</gpxtpx:hr></gpxtpx:TrackPointExtension></extensions></trkpt><trkpt lat="60.232243" lon="24.967628"><ele>29.5</ele><time>2026-05-03T08:05:34Z</time><extensions><gpxtpx:TrackPointExtension><gpxtpx:hr>90</gpxtpx:hr></gpxtpx:TrackPointExtension></extensions></trkpt><trkpt lat="60.232243" lon="24.967628"><ele>29.5</ele><time>2026-05-03T08:05:40Z</time><extensions><gpxtpx:TrackPointExtension><gpxtpx:hr>91</gpxtpx:hr></gpxtpx:TrackPointExtension></extensions></trkpt><trkpt lat="60.232243" lon="24.967628"><ele>29.5</ele><time>2026-05-03T08:05:43Z</time><extensions><gpxtpx:TrackPointExtension><gpxtpx:hr>88</gpxtpx:hr></gpxtpx:TrackPointExtension></extensions></trkpt><trkpt lat="60.232243" lon="24.967628"><ele>29.5</ele><time>2026-05-03T08:05:48Z</time><extensions><gpxtpx:TrackPointExtension><gpxtpx:hr>85</gpxtpx:hr></gpxtpx:TrackPointExtension></extensions></trkpt><trkpt lat="60.232243" lon="24.967628"><ele>29.5</ele><time>2026-05-03T08:05:52Z</time><extensions><gpxtpx:TrackPointExtension><gpxtpx:hr>87</gpxtpx:hr></gpxtpx:TrackPointExtension></extensions></trkpt><trkpt lat="60.232243" lon="24.967628"><ele>29.5</ele><time>2026-05-03T08:05:59Z</time><extensions><gpxtpx:TrackPointExtension><gpxtpx:hr>96</gpxtpx:hr></gpxtpx:TrackPointExtension></extensions></trkpt><trkpt lat="60.232243" lon="24.967628"><ele>29.5</ele><time>2026-05-03T08:06:02Z</time><extensions><gpxtpx:TrackPointExtension><gpxtpx:hr>100</gpxtpx:hr></gpxtpx:TrackPointExtension></extensions></trkpt><trkpt lat="60.232243" lon="24.967628"><ele>29.5</ele><time>2026-05-03T08:06:10Z</time><extensions><gpxtpx:TrackPointExtension><gpxtpx:hr>111</gpxtpx:hr></gpxtpx:TrackPointExtension></extensions></trkpt><trkpt lat="60.232243" lon="24.967628"><ele>29.5</ele><time>2026-05-03T08:06:12Z</time><extensions><gpxtpx:TrackPointExtension><gpxtpx:hr>112</gpxtpx:hr></gpxtpx:TrackPointExtension></extensions></trkpt><trkpt lat="60.232243" lon="24.967628"><ele>29.5</ele><time>2026-05-03T08:06:21Z</time><extensions><gpxtpx:TrackPointExtension><gpxtpx:hr>118</gpxtpx:hr></gpxtpx:TrackPointExtension></extensions></trkpt><trkpt lat="60.232243" lon="24.967628"><ele>29.5</ele><time>2026-05-03T08:06:25Z</time><extensions><gpxtpx:TrackPointExtension><gpxtpx:hr>111</gpxtpx:hr></gpxtpx:TrackPointExtension></extensions></trkpt><trkpt lat="60.232243" lon="24.967628"><ele>29.5</ele><time>2026-05-03T08:06:28Z</time><extensions><gpxtpx:TrackPointExtension><gpxtpx:hr>109</gpxtpx:hr></gpxtpx:TrackPointExtension></extensions></trkpt><trkpt lat="60.232243" lon="24.967628"><ele>29.5</ele><time>2026-05-03T08:06:36Z</time><extensions><gpxtpx:TrackPointExtension><gpxtpx:hr>105</gpxtpx:hr></gpxtpx:TrackPointExtension></extensions></trkpt><trkpt lat="60.232243" lon="24.967628"><ele>29.5</ele><time>2026-05-03T08:06:38Z</time><extensions><gpxtpx:TrackPointExtension><gpxtpx:hr>105</gpxtpx:hr></gpxtpx:TrackPointExtension></extensions></trkpt><trkpt lat="60.232243" lon="24.967628"><ele>29.5</ele><time>2026-05-03T08:06:42Z</time><extensions><gpxtpx:TrackPointExtension><gpxtpx:hr>104</gpxtpx:hr></gpxtpx:TrackPointExtension></extensions></trkpt><trkpt lat="60.232243" lon="24.967628"><ele>29.5</ele><time>2026-05-03T08:06:48Z</time><extensions><gpxtpx:TrackPointExtension><gpxtpx:hr>100</gpxtpx:hr></gpxtpx:TrackPointExtension></extensions></trkpt><trkpt lat="60.232243" lon="24.967628"><ele>29.5</ele><time>2026-05-03T08:06:54Z</time><extensions><gpxtpx:TrackPointExtension><gpxtpx:hr>98</gpxtpx:hr></gpxtpx:TrackPointExtension></extensions></trkpt><trkpt lat="60.232243" lon="24.967628"><ele>29.5</ele><time>2026-05-03T08:07:01Z</time><extensions><gpxtpx:TrackPointExtension><gpxtpx:hr>96</gpxtpx:hr></gpxtpx:TrackPointExtension></extensions></trkpt><trkpt lat="60.232243" lon="24.967628"><ele>29.5</ele><time>2026-05-03T08:07:06Z</time><extensions><gpxtpx:TrackPointExtension><gpxtpx:hr>93</gpxtpx:hr></gpxtpx:TrackPointExtension></extensions></trkpt><trkpt lat="60.232243" lon="24.967628"><ele>29.5</ele><time>2026-05-03T08:07:11Z</time><extensions><gpxtpx:TrackPointExtension><gpxtpx:hr>93</gpxtpx:hr></gpxtpx:TrackPointExtension></extensions></trkpt><trkpt lat="60.232243" lon="24.967628"><ele>29.5</ele><time>2026-05-03T08:07:14Z</time><extensions><gpxtpx:TrackPointExtension><gpxtpx:hr>94</gpxtpx:hr></gpxtpx:TrackPointExtension></extensions></trkpt><trkpt lat="60.232243" lon="24.967628"><ele>29.5</ele><time>2026-05-03T08:07:17Z</time><extensions><gpxtpx:TrackPointExtension><gpxtpx:hr>91</gpxtpx:hr></gpxtpx:TrackPointExtension></extensions></trkpt><trkpt lat="60.232243" lon="24.967628"><ele>29.5</ele><time>2026-05-03T08:07:22Z</time><extensions><gpxtpx:TrackPointExtension><gpxtpx:hr>86</gpxtpx:hr></gpxtpx:TrackPointExtension></extensions></trkpt><trkpt lat="60.232243" lon="24.967628"><ele>29.5</ele><time>2026-05-03T08:07:27Z</time><extensions><gpxtpx:TrackPointExtension><gpxtpx:hr>90</gpxtpx:hr></gpxtpx:TrackPointExtension></extensions></trkpt><trkpt lat="60.232243" lon="24.967628"><ele>29.5</ele><time>2026-05-03T08:07:32Z</time><extensions><gpxtpx:TrackPointExtension><gpxtpx:hr>91</gpxtpx:hr></gpxtpx:TrackPointExtension></extensions></trkpt><trkpt lat="60.232243" lon="24.967628"><ele>29.5</ele><time>2026-05-03T08:07:41Z</time><extensions><gpxtpx:TrackPointExtension><gpxtpx:hr>84</gpxtpx:hr></gpxtpx:TrackPointExtension></extensions></trkpt><trkpt lat="60.232243" lon="24.967628"><ele>29.5</ele><time>2026-05-03T08:07:46Z</time><extensions><gpxtpx:TrackPointExtension><gpxtpx:hr>78</gpxtpx:hr></gpxtpx:TrackPointExtension></extensions></trkpt><trkpt lat="60.232243" lon="24.967628"><ele>29.5</ele><time>2026-05-03T08:07:47Z</time><extensions><gpxtpx:TrackPointExtension><gpxtpx:hr>78</gpxtpx:hr></gpxtpx:TrackPointExtension></extensions></trkpt><trkpt lat="60.232243" lon="24.967628"><ele>29.5</ele><time>2026-05-03T08:07:52Z</time><extensions><gpxtpx:TrackPointExtension><gpxtpx:hr>88</gpxtpx:hr></gpxtpx:TrackPointExtension></extensions></trkpt><trkpt lat="60.232243" lon="24.967628"><ele>29.5</ele><time>2026-05-03T08:08:01Z</time><extensions><gpxtpx:TrackPointExtension><gpxtpx:hr>97</gpxtpx:hr></gpxtpx:TrackPointExtension></extensions></trkpt><trkpt lat="60.232243" lon="24.967628"><ele>29.5</ele><time>2026-05-03T08:08:06Z</time><extensions><gpxtpx:TrackPointExtension><gpxtpx:hr>96</gpxtpx:hr></gpxtpx:TrackPointExtension></extensions></trkpt><trkpt lat="60.232243" lon="24.967628"><ele>29.5</ele><time>2026-05-03T08:08:10Z</time><extensions><gpxtpx:TrackPointExtension><gpxtpx:hr>91</gpxtpx:hr></gpxtpx:TrackPointExtension></extensions></trkpt><trkpt lat="60.232243" lon="24.967628"><ele>29.5</ele><time>2026-05-03T08:08:12Z</time><extensions><gpxtpx:TrackPointExtension><gpxtpx:hr>89</gpxtpx:hr></gpxtpx:TrackPointExtension></extensions></trkpt><trkpt lat="60.232243" lon="24.967628"><ele>29.5</ele><time>2026-05-03T08:08:21Z</time><extensions><gpxtpx:TrackPointExtension><gpxtpx:hr>82</gpxtpx:hr></gpxtpx:TrackPointExtension></extensions></trkpt><trkpt lat="60.232243" lon="24.967628"><ele>29.5</ele><time>2026-05-03T08:08:26Z</time><extensions><gpxtpx:TrackPointExtension><gpxtpx:hr>86</gpxtpx:hr></gpxtpx:TrackPointExtension></extensions></trkpt><trkpt lat="60.232243" lon="24.967628"><ele>29.5</ele><time>2026-05-03T08:08:27Z</time><extensions><gpxtpx:TrackPointExtension><gpxtpx:hr>88</gpxtpx:hr></gpxtpx:TrackPointExtension></extensions></trkpt><trkpt lat="60.232243" lon="24.967628"><ele>29.5</ele><time>2026-05-03T08:08:34Z</time><extensions><gpxtpx:TrackPointExtension><gpxtpx:hr>95</gpxtpx:hr></gpxtpx:TrackPointExtension></extensions></trkpt><trkpt lat="60.232243" lon="24.967628"><ele>29.5</ele><time>2026-05-03T08:08:37Z</time><extensions><gpxtpx:TrackPointExtension><gpxtpx:hr>97</gpxtpx:hr></gpxtpx:TrackPointExtension></extensions></trkpt><trkpt lat="60.232243" lon="24.967628"><ele>29.5</ele><time>2026-05-03T08:08:42Z</time><extensions><gpxtpx:TrackPointExtension><gpxtpx:hr>98</gpxtpx:hr></gpxtpx:TrackPointExtension></extensions></trkpt><trkpt lat="60.232243" lon="24.967628"><ele>29.5</ele><time>2026-05-03T08:08:47Z</time><extensions><gpxtpx:TrackPointExtension><gpxtpx:hr>98</gpxtpx:hr></gpxtpx:TrackPointExtension></extensions></trkpt><trkpt lat="60.232243" lon="24.967628"><ele>29.5</ele><time>2026-05-03T08:08:55Z</time><extensions><gpxtpx:TrackPointExtension><gpxtpx:hr>94</gpxtpx:hr></gpxtpx:TrackPointExtension></extensions></trkpt><trkpt lat="60.232243" lon="24.967628"><ele>29.5</ele><time>2026-05-03T08:08:57Z</time><extensions><gpxtpx:TrackPointExtension><gpxtpx:hr>95</gpxtpx:hr></gpxtpx:TrackPointExtension></extensions></trkpt><trkpt lat="60.232243" lon="24.967628"><ele>29.5</ele><time>2026-05-03T08:09:06Z</time><extensions><gpxtpx:TrackPointExtension><gpxtpx:hr>90</gpxtpx:hr></gpxtpx:TrackPointExtension></extensions></trkpt><trkpt lat="60.232243" lon="24.967628"><ele>29.5</ele><time>2026-05-03T08:09:11Z</time><extensions><gpxtpx:TrackPointExtension><gpxtpx:hr>90</gpxtpx:hr></gpxtpx:TrackPointExtension></extensions></trkpt><trkpt lat="60.232243" lon="24.967628"><ele>29.5</ele><time>2026-05-03T08:09:14Z</time><extensions><gpxtpx:TrackPointExtension><gpxtpx:hr>88</gpxtpx:hr></gpxtpx:TrackPointExtension></extensions></trkpt><trkpt lat="60.232243" lon="24.967628"><ele>29.5</ele><time>2026-05-03T08:09:21Z</time><extensions><gpxtpx:TrackPointExtension><gpxtpx:hr>87</gpxtpx:hr></gpxtpx:TrackPointExtension></extensions></trkpt><trkpt lat="60.232243" lon="24.967628"><ele>29.5</ele><time>2026-05-03T08:09:25Z</time><extensions><gpxtpx:TrackPointExtension><gpxtpx:hr>86</gpxtpx:hr></gpxtpx:TrackPointExtension></extensions></trkpt><trkpt lat="60.232243" lon="24.967628"><ele>29.5</ele><time>2026-05-03T08:09:27Z</time><extensions><gpxtpx:TrackPointExtension><gpxtpx:hr>86</gpxtpx:hr></gpxtpx:TrackPointExtension></extensions></trkpt><trkpt lat="60.232243" lon="24.967628"><ele>29.5</ele><time>2026-05-03T08:09:36Z</time><extensions><gpxtpx:TrackPointExtension><gpxtpx:hr>83</gpxtpx:hr></gpxtpx:TrackPointExtension></extensions></trkpt><trkpt lat="60.232243" lon="24.967628"><ele>29.5</ele><time>2026-05-03T08:09:37Z</time><extensions><gpxtpx:TrackPointExtension><gpxtpx:hr>82</gpxtpx:hr></gpxtpx:TrackPointExtension></extensions></trkpt><trkpt lat="60.232243" lon="24.967628"><ele>29.5</ele><time>2026-05-03T08:09:42Z</time><extensions><gpxtpx:TrackPointExtension><gpxtpx:hr>81</gpxtpx:hr></gpxtpx:TrackPointExtension></extensions></trkpt><trkpt lat="60.232243" lon="24.967628"><ele>29.5</ele><time>2026-05-03T08:09:47Z</time><extensions><gpxtpx:TrackPointExtension><gpxtpx:hr>81</gpxtpx:hr></gpxtpx:TrackPointExtension></extensions></trkpt><trkpt lat="60.232243" lon="24.967628"><ele>29.5</ele><time>2026-05-03T08:09:52Z</time><extensions><gpxtpx:TrackPointExtension><gpxtpx:hr>79</gpxtpx:hr></gpxtpx:TrackPointExtension></extensions></trkpt><trkpt lat="60.232243" lon="24.967628"><ele>29.5</ele><time>2026-05-03T08:09:57Z</time><extensions><gpxtpx:TrackPointExtension><gpxtpx:hr>92</gpxtpx:hr></gpxtpx:TrackPointExtension></extensions></trkpt><trkpt lat="60.232243" lon="24.967628"><ele>29.5</ele><time>2026-05-03T08:10:06Z</time><extensions><gpxtpx:TrackPointExtension><gpxtpx:hr>104</gpxtpx:hr></gpxtpx:TrackPointExtension></extensions></trkpt><trkpt lat="60.232243" lon="24.967628"><ele>29.5</ele><time>2026-05-03T08:10:07Z</time><extensions><gpxtpx:TrackPointExtension><gpxtpx:hr>106</gpxtpx:hr></gpxtpx:TrackPointExtension></extensions></trkpt><trkpt lat="60.232243" lon="24.967628"><ele>29.5</ele><time>2026-05-03T08:10:15Z</time><extensions><gpxtpx:TrackPointExtension><gpxtpx:hr>98</gpxtpx:hr></gpxtpx:TrackPointExtension></extensions></trkpt><trkpt lat="60.232243" lon="24.967628"><ele>29.5</ele><time>2026-05-03T08:10:21Z</time><extensions><gpxtpx:TrackPointExtension><gpxtpx:hr>90</gpxtpx:hr></gpxtpx:TrackPointExtension></extensions></trkpt><trkpt lat="60.232243" lon="24.967628"><ele>29.5</ele><time>2026-05-03T08:10:22Z</time><extensions><gpxtpx:TrackPointExtension><gpxtpx:hr>90</gpxtpx:hr></gpxtpx:TrackPointExtension></extensions></trkpt><trkpt lat="60.232243" lon="24.967628"><ele>29.5</ele><time>2026-05-03T08:10:31Z</time><extensions><gpxtpx:TrackPointExtension><gpxtpx:hr>86</gpxtpx:hr></gpxtpx:TrackPointExtension></extensions></trkpt><trkpt lat="60.232243" lon="24.967628"><ele>29.5</ele><time>2026-05-03T08:10:36Z</time><extensions><gpxtpx:TrackPointExtension><gpxtpx:hr>85</gpxtpx:hr></gpxtpx:TrackPointExtension></extensions></trkpt><trkpt lat="60.232243" lon="24.967628"><ele>29.5</ele><time>2026-05-03T08:10:41Z</time><extensions><gpxtpx:TrackPointExtension><gpxtpx:hr>83</gpxtpx:hr></gpxtpx:TrackPointExtension></extensions></trkpt><trkpt lat="60.232243" lon="24.967628"><ele>29.5</ele><time>2026-05-03T08:10:42Z</time><extensions><gpxtpx:TrackPointExtension><gpxtpx:hr>84</gpxtpx:hr></gpxtpx:TrackPointExtension></extensions></trkpt><trkpt lat="60.232243" lon="24.967628"><ele>29.5</ele><time>2026-05-03T08:10:48Z</time><extensions><gpxtpx:TrackPointExtension><gpxtpx:hr>87</gpxtpx:hr></gpxtpx:TrackPointExtension></extensions></trkpt><trkpt lat="60.232243" lon="24.967628"><ele>29.5</ele><time>2026-05-03T08:10:55Z</time><extensions><gpxtpx:TrackPointExtension><gpxtpx:hr>91</gpxtpx:hr></gpxtpx:TrackPointExtension></extensions></trkpt><trkpt lat="60.232243" lon="24.967628"><ele>29.5</ele><time>2026-05-03T08:11:01Z</time><extensions><gpxtpx:TrackPointExtension><gpxtpx:hr>94</gpxtpx:hr></gpxtpx:TrackPointExtension></extensions></trkpt><trkpt lat="60.232243" lon="24.967628"><ele>29.5</ele><time>2026-05-03T08:11:03Z</time><extensions><gpxtpx:TrackPointExtension><gpxtpx:hr>93</gpxtpx:hr></gpxtpx:TrackPointExtension></extensions></trkpt><trkpt lat="60.232243" lon="24.967628"><ele>29.5</ele><time>2026-05-03T08:11:07Z</time><extensions><gpxtpx:TrackPointExtension><gpxtpx:hr>92</gpxtpx:hr></gpxtpx:TrackPointExtension></extensions></trkpt><trkpt lat="60.232243" lon="24.967628"><ele>29.5</ele><time>2026-05-03T08:11:15Z</time><extensions><gpxtpx:TrackPointExtension><gpxtpx:hr>88</gpxtpx:hr></gpxtpx:TrackPointExtension></extensions></trkpt><trkpt lat="60.232243" lon="24.967628"><ele>29.5</ele><time>2026-05-03T08:11:21Z</time><extensions><gpxtpx:TrackPointExtension><gpxtpx:hr>90</gpxtpx:hr></gpxtpx:TrackPointExtension></extensions></trkpt><trkpt lat="60.232243" lon="24.967628"><ele>29.5</ele><time>2026-05-03T08:11:23Z</time><extensions><gpxtpx:TrackPointExtension><gpxtpx:hr>91</gpxtpx:hr></gpxtpx:TrackPointExtension></extensions></trkpt><trkpt lat="60.232243" lon="24.967628"><ele>29.5</ele><time>2026-05-03T08:11:31Z</time><extensions><gpxtpx:TrackPointExtension><gpxtpx:hr>89</gpxtpx:hr></gpxtpx:TrackPointExtension></extensions></trkpt><trkpt lat="60.232243" lon="24.967628"><ele>29.5</ele><time>2026-05-03T08:11:34Z</time><extensions><gpxtpx:TrackPointExtension><gpxtpx:hr>88</gpxtpx:hr></gpxtpx:TrackPointExtension></extensions></trkpt><trkpt lat="60.232243" lon="24.967628"><ele>29.5</ele><time>2026-05-03T08:11:37Z</time><extensions><gpxtpx:TrackPointExtension><gpxtpx:hr>89</gpxtpx:hr></gpxtpx:TrackPointExtension></extensions></trkpt><trkpt lat="60.232243" lon="24.967628"><ele>29.5</ele><time>2026-05-03T08:11:42Z</time><extensions><gpxtpx:TrackPointExtension><gpxtpx:hr>88</gpxtpx:hr></gpxtpx:TrackPointExtension></extensions></trkpt><trkpt lat="60.232243" lon="24.967628"><ele>29.5</ele><time>2026-05-03T08:11:47Z</time><extensions><gpxtpx:TrackPointExtension><gpxtpx:hr>85</gpxtpx:hr></gpxtpx:TrackPointExtension></extensions></trkpt><trkpt lat="60.232243" lon="24.967628"><ele>29.5</ele><time>2026-05-03T08:11:56Z</time><extensions><gpxtpx:TrackPointExtension><gpxtpx:hr>82</gpxtpx:hr></gpxtpx:TrackPointExtension></extensions></trkpt><trkpt lat="60.232243" lon="24.967628"><ele>29.5</ele><time>2026-05-03T08:12:01Z</time><extensions><gpxtpx:TrackPointExtension><gpxtpx:hr>80</gpxtpx:hr></gpxtpx:TrackPointExtension></extensions></trkpt><trkpt lat="60.232243" lon="24.967628"><ele>29.5</ele><time>2026-05-03T08:12:03Z</time><extensions><gpxtpx:TrackPointExtension><gpxtpx:hr>79</gpxtpx:hr></gpxtpx:TrackPointExtension></extensions></trkpt><trkpt lat="60.232243" lon="24.967628"><ele>29.5</ele><time>2026-05-03T08:12:11Z</time><extensions><gpxtpx:TrackPointExtension><gpxtpx:hr>77</gpxtpx:hr></gpxtpx:TrackPointExtension></extensions></trkpt><trkpt lat="60.232243" lon="24.967628"><ele>29.5</ele><time>2026-05-03T08:12:12Z</time><extensions><gpxtpx:TrackPointExtension><gpxtpx:hr>77</gpxtpx:hr></gpxtpx:TrackPointExtension></extensions></trkpt><trkpt lat="60.232243" lon="24.967628"><ele>29.5</ele><time>2026-05-03T08:12:17Z</time><extensions><gpxtpx:TrackPointExtension><gpxtpx:hr>80</gpxtpx:hr></gpxtpx:TrackPointExtension></extensions></trkpt><trkpt lat="60.232243" lon="24.967628"><ele>29.5</ele><time>2026-05-03T08:12:22Z</time><extensions><gpxtpx:TrackPointExtension><gpxtpx:hr>94</gpxtpx:hr></gpxtpx:TrackPointExtension></extensions></trkpt><trkpt lat="60.232243" lon="24.967628"><ele>29.5</ele><time>2026-05-03T08:12:31Z</time><extensions><gpxtpx:TrackPointExtension><gpxtpx:hr>103</gpxtpx:hr></gpxtpx:TrackPointExtension></extensions></trkpt><trkpt lat="60.232243" lon="24.967628"><ele>29.5</ele><time>2026-05-03T08:12:36Z</time><extensions><gpxtpx:TrackPointExtension><gpxtpx:hr>107</gpxtpx:hr></gpxtpx:TrackPointExtension></extensions></trkpt><trkpt lat="60.232243" lon="24.967628"><ele>29.5</ele><time>2026-05-03T08:12:37Z</time><extensions><gpxtpx:TrackPointExtension><gpxtpx:hr>106</gpxtpx:hr></gpxtpx:TrackPointExtension></extensions></trkpt><trkpt lat="60.232243" lon="24.967628"><ele>29.5</ele><time>2026-05-03T08:12:46Z</time><extensions><gpxtpx:TrackPointExtension><gpxtpx:hr>100</gpxtpx:hr></gpxtpx:TrackPointExtension></extensions></trkpt><trkpt lat="60.232243" lon="24.967628"><ele>29.5</ele><time>2026-05-03T08:12:47Z</time><extensions><gpxtpx:TrackPointExtension><gpxtpx:hr>100</gpxtpx:hr></gpxtpx:TrackPointExtension></extensions></trkpt><trkpt lat="60.232243" lon="24.967628"><ele>29.5</ele><time>2026-05-03T08:12:56Z</time><extensions><gpxtpx:TrackPointExtension><gpxtpx:hr>98</gpxtpx:hr></gpxtpx:TrackPointExtension></extensions></trkpt><trkpt lat="60.232243" lon="24.967628"><ele>29.5</ele><time>2026-05-03T08:12:58Z</time><extensions><gpxtpx:TrackPointExtension><gpxtpx:hr>98</gpxtpx:hr></gpxtpx:TrackPointExtension></extensions></trkpt><trkpt lat="60.232243" lon="24.967628"><ele>29.5</ele><time>2026-05-03T08:13:02Z</time><extensions><gpxtpx:TrackPointExtension><gpxtpx:hr>97</gpxtpx:hr></gpxtpx:TrackPointExtension></extensions></trkpt><trkpt lat="60.232243" lon="24.967628"><ele>29.5</ele><time>2026-05-03T08:13:09Z</time><extensions><gpxtpx:TrackPointExtension><gpxtpx:hr>94</gpxtpx:hr></gpxtpx:TrackPointExtension></extensions></trkpt><trkpt lat="60.232243" lon="24.967628"><ele>29.5</ele><time>2026-05-03T08:13:12Z</time><extensions><gpxtpx:TrackPointExtension><gpxtpx:hr>93</gpxtpx:hr></gpxtpx:TrackPointExtension></extensions></trkpt><trkpt lat="60.232243" lon="24.967628"><ele>29.5</ele><time>2026-05-03T08:13:17Z</time><extensions><gpxtpx:TrackPointExtension><gpxtpx:hr>91</gpxtpx:hr></gpxtpx:TrackPointExtension></extensions></trkpt><trkpt lat="60.232243" lon="24.967628"><ele>29.5</ele><time>2026-05-03T08:13:26Z</time><extensions><gpxtpx:TrackPointExtension><gpxtpx:hr>99</gpxtpx:hr></gpxtpx:TrackPointExtension></extensions></trkpt><trkpt lat="60.232243" lon="24.967628"><ele>29.5</ele><time>2026-05-03T08:13:29Z</time><extensions><gpxtpx:TrackPointExtension><gpxtpx:hr>99</gpxtpx:hr></gpxtpx:TrackPointExtension></extensions></trkpt><trkpt lat="60.232243" lon="24.967628"><ele>29.5</ele><time>2026-05-03T08:13:32Z</time><extensions><gpxtpx:TrackPointExtension><gpxtpx:hr>97</gpxtpx:hr></gpxtpx:TrackPointExtension></extensions></trkpt><trkpt lat="60.232243" lon="24.967628"><ele>29.5</ele><time>2026-05-03T08:13:37Z</time><extensions><gpxtpx:TrackPointExtension><gpxtpx:hr>95</gpxtpx:hr></gpxtpx:TrackPointExtension></extensions></trkpt><trkpt lat="60.232243" lon="24.967628"><ele>29.5</ele><time>2026-05-03T08:13:46Z</time><extensions><gpxtpx:TrackPointExtension><gpxtpx:hr>96</gpxtpx:hr></gpxtpx:TrackPointExtension></extensions></trkpt><trkpt lat="60.232243" lon="24.967628"><ele>29.5</ele><time>2026-05-03T08:13:50Z</time><extensions><gpxtpx:TrackPointExtension><gpxtpx:hr>100</gpxtpx:hr></gpxtpx:TrackPointExtension></extensions></trkpt><trkpt lat="60.232243" lon="24.967628"><ele>29.5</ele><time>2026-05-03T08:13:52Z</time><extensions><gpxtpx:TrackPointExtension><gpxtpx:hr>99</gpxtpx:hr></gpxtpx:TrackPointExtension></extensions></trkpt><trkpt lat="60.232243" lon="24.967628"><ele>29.5</ele><time>2026-05-03T08:13:57Z</time><extensions><gpxtpx:TrackPointExtension><gpxtpx:hr>95</gpxtpx:hr></gpxtpx:TrackPointExtension></extensions></trkpt><trkpt lat="60.232243" lon="24.967628"><ele>29.5</ele><time>2026-05-03T08:14:02Z</time><extensions><gpxtpx:TrackPointExtension><gpxtpx:hr>92</gpxtpx:hr></gpxtpx:TrackPointExtension></extensions></trkpt><trkpt lat="60.232243" lon="24.967628"><ele>29.5</ele><time>2026-05-03T08:14:07Z</time><extensions><gpxtpx:TrackPointExtension><gpxtpx:hr>90</gpxtpx:hr></gpxtpx:TrackPointExtension></extensions></trkpt><trkpt lat="60.232243" lon="24.967628"><ele>29.5</ele><time>2026-05-03T08:14:14Z</time><extensions><gpxtpx:TrackPointExtension><gpxtpx:hr>95</gpxtpx:hr></gpxtpx:TrackPointExtension></extensions></trkpt><trkpt lat="60.232243" lon="24.967628"><ele>29.5</ele><time>2026-05-03T08:14:17Z</time><extensions><gpxtpx:TrackPointExtension><gpxtpx:hr>102</gpxtpx:hr></gpxtpx:TrackPointExtension></extensions></trkpt><trkpt lat="60.232243" lon="24.967628"><ele>29.5</ele><time>2026-05-03T08:14:25Z</time><extensions><gpxtpx:TrackPointExtension><gpxtpx:hr>117</gpxtpx:hr></gpxtpx:TrackPointExtension></extensions></trkpt><trkpt lat="60.232243" lon="24.967628"><ele>29.5</ele><time>2026-05-03T08:14:30Z</time><extensions><gpxtpx:TrackPointExtension><gpxtpx:hr>114</gpxtpx:hr></gpxtpx:TrackPointExtension></extensions></trkpt><trkpt lat="60.232243" lon="24.967628"><ele>29.5</ele><time>2026-05-03T08:14:35Z</time><extensions><gpxtpx:TrackPointExtension><gpxtpx:hr>108</gpxtpx:hr></gpxtpx:TrackPointExtension></extensions></trkpt><trkpt lat="60.232243" lon="24.967628"><ele>29.5</ele><time>2026-05-03T08:14:41Z</time><extensions><gpxtpx:TrackPointExtension><gpxtpx:hr>98</gpxtpx:hr></gpxtpx:TrackPointExtension></extensions></trkpt><trkpt lat="60.232243" lon="24.967628"><ele>29.5</ele><time>2026-05-03T08:14:46Z</time><extensions><gpxtpx:TrackPointExtension><gpxtpx:hr>91</gpxtpx:hr></gpxtpx:TrackPointExtension></extensions></trkpt><trkpt lat="60.232243" lon="24.967628"><ele>29.5</ele><time>2026-05-03T08:14:50Z</time><extensions><gpxtpx:TrackPointExtension><gpxtpx:hr>92</gpxtpx:hr></gpxtpx:TrackPointExtension></extensions></trkpt><trkpt lat="60.232243" lon="24.967628"><ele>29.5</ele><time>2026-05-03T08:14:54Z</time><extensions><gpxtpx:TrackPointExtension><gpxtpx:hr>93</gpxtpx:hr></gpxtpx:TrackPointExtension></extensions></trkpt><trkpt lat="60.232243" lon="24.967628"><ele>29.5</ele><time>2026-05-03T08:14:57Z</time><extensions><gpxtpx:TrackPointExtension><gpxtpx:hr>94</gpxtpx:hr></gpxtpx:TrackPointExtension></extensions></trkpt><trkpt lat="60.232243" lon="24.967628"><ele>29.5</ele><time>2026-05-03T08:15:06Z</time><extensions><gpxtpx:TrackPointExtension><gpxtpx:hr>98</gpxtpx:hr></gpxtpx:TrackPointExtension></extensions></trkpt><trkpt lat="60.232243" lon="24.967628"><ele>29.5</ele><time>2026-05-03T08:15:09Z</time><extensions><gpxtpx:TrackPointExtension><gpxtpx:hr>99</gpxtpx:hr></gpxtpx:TrackPointExtension></extensions></trkpt><trkpt lat="60.232243" lon="24.967628"><ele>29.5</ele><time>2026-05-03T08:15:12Z</time><extensions><gpxtpx:TrackPointExtension><gpxtpx:hr>100</gpxtpx:hr></gpxtpx:TrackPointExtension></extensions></trkpt><trkpt lat="60.232243" lon="24.967628"><ele>29.5</ele><time>2026-05-03T08:15:21Z</time><extensions><gpxtpx:TrackPointExtension><gpxtpx:hr>97</gpxtpx:hr></gpxtpx:TrackPointExtension></extensions></trkpt><trkpt lat="60.232243" lon="24.967628"><ele>29.5</ele><time>2026-05-03T08:15:22Z</time><extensions><gpxtpx:TrackPointExtension><gpxtpx:hr>96</gpxtpx:hr></gpxtpx:TrackPointExtension></extensions></trkpt><trkpt lat="60.232243" lon="24.967628"><ele>29.5</ele><time>2026-05-03T08:15:31Z</time><extensions><gpxtpx:TrackPointExtension><gpxtpx:hr>96</gpxtpx:hr></gpxtpx:TrackPointExtension></extensions></trkpt><trkpt lat="60.232243" lon="24.967628"><ele>29.5</ele><time>2026-05-03T08:15:32Z</time><extensions><gpxtpx:TrackPointExtension><gpxtpx:hr>96</gpxtpx:hr></gpxtpx:TrackPointExtension></extensions></trkpt><trkpt lat="60.232243" lon="24.967628"><ele>29.5</ele><time>2026-05-03T08:15:37Z</time><extensions><gpxtpx:TrackPointExtension><gpxtpx:hr>94</gpxtpx:hr></gpxtpx:TrackPointExtension></extensions></trkpt><trkpt lat="60.232243" lon="24.967628"><ele>29.5</ele><time>2026-05-03T08:15:42Z</time><extensions><gpxtpx:TrackPointExtension><gpxtpx:hr>95</gpxtpx:hr></gpxtpx:TrackPointExtension></extensions></trkpt><trkpt lat="60.232243" lon="24.967628"><ele>29.5</ele><time>2026-05-03T08:15:49Z</time><extensions><gpxtpx:TrackPointExtension><gpxtpx:hr>96</gpxtpx:hr></gpxtpx:TrackPointExtension></extensions></trkpt><trkpt lat="60.232243" lon="24.967628"><ele>29.5</ele><time>2026-05-03T08:15:52Z</time><extensions><gpxtpx:TrackPointExtension><gpxtpx:hr>97</gpxtpx:hr></gpxtpx:TrackPointExtension></extensions></trkpt><trkpt lat="60.232243" lon="24.967628"><ele>29.5</ele><time>2026-05-03T08:15:58Z</time><extensions><gpxtpx:TrackPointExtension><gpxtpx:hr>95</gpxtpx:hr></gpxtpx:TrackPointExtension></extensions></trkpt><trkpt lat="60.232243" lon="24.967628"><ele>29.5</ele><time>2026-05-03T08:16:05Z</time><extensions><gpxtpx:TrackPointExtension><gpxtpx:hr>92</gpxtpx:hr></gpxtpx:TrackPointExtension></extensions></trkpt><trkpt lat="60.232243" lon="24.967628"><ele>29.5</ele><time>2026-05-03T08:16:07Z</time><extensions><gpxtpx:TrackPointExtension><gpxtpx:hr>91</gpxtpx:hr></gpxtpx:TrackPointExtension></extensions></trkpt><trkpt lat="60.232243" lon="24.967628"><ele>29.5</ele><time>2026-05-03T08:16:16Z</time><extensions><gpxtpx:TrackPointExtension><gpxtpx:hr>86</gpxtpx:hr></gpxtpx:TrackPointExtension></extensions></trkpt><trkpt lat="60.232243" lon="24.967628"><ele>29.5</ele><time>2026-05-03T08:16:17Z</time><extensions><gpxtpx:TrackPointExtension><gpxtpx:hr>87</gpxtpx:hr></gpxtpx:TrackPointExtension></extensions></trkpt><trkpt lat="60.232243" lon="24.967628"><ele>29.5</ele><time>2026-05-03T08:16:22Z</time><extensions><gpxtpx:TrackPointExtension><gpxtpx:hr>89</gpxtpx:hr></gpxtpx:TrackPointExtension></extensions></trkpt><trkpt lat="60.232243" lon="24.967628"><ele>29.5</ele><time>2026-05-03T08:16:31Z</time><extensions><gpxtpx:TrackPointExtension><gpxtpx:hr>89</gpxtpx:hr></gpxtpx:TrackPointExtension></extensions></trkpt><trkpt lat="60.232243" lon="24.967628"><ele>29.5</ele><time>2026-05-03T08:16:36Z</time><extensions><gpxtpx:TrackPointExtension><gpxtpx:hr>87</gpxtpx:hr></gpxtpx:TrackPointExtension></extensions></trkpt><trkpt lat="60.232243" lon="24.967628"><ele>29.5</ele><time>2026-05-03T08:16:37Z</time><extensions><gpxtpx:TrackPointExtension><gpxtpx:hr>86</gpxtpx:hr></gpxtpx:TrackPointExtension></extensions></trkpt><trkpt lat="60.232243" lon="24.967628"><ele>29.5</ele><time>2026-05-03T08:16:44Z</time><extensions><gpxtpx:TrackPointExtension><gpxtpx:hr>88</gpxtpx:hr></gpxtpx:TrackPointExtension></extensions></trkpt><trkpt lat="60.232243" lon="24.967628"><ele>29.5</ele><time>2026-05-03T08:16:47Z</time><extensions><gpxtpx:TrackPointExtension><gpxtpx:hr>87</gpxtpx:hr></gpxtpx:TrackPointExtension></extensions></trkpt><trkpt lat="60.232243" lon="24.967628"><ele>29.5</ele><time>2026-05-03T08:16:56Z</time><extensions><gpxtpx:TrackPointExtension><gpxtpx:hr>88</gpxtpx:hr></gpxtpx:TrackPointExtension></extensions></trkpt><trkpt lat="60.232243" lon="24.967628"><ele>29.5</ele><time>2026-05-03T08:17:01Z</time><extensions><gpxtpx:TrackPointExtension><gpxtpx:hr>88</gpxtpx:hr></gpxtpx:TrackPointExtension></extensions></trkpt><trkpt lat="60.232243" lon="24.967628"><ele>29.5</ele><time>2026-05-03T08:17:06Z</time><extensions><gpxtpx:TrackPointExtension><gpxtpx:hr>88</gpxtpx:hr></gpxtpx:TrackPointExtension></extensions></trkpt><trkpt lat="60.232243" lon="24.967628"><ele>29.5</ele><time>2026-05-03T08:17:11Z</time><extensions><gpxtpx:TrackPointExtension><gpxtpx:hr>89</gpxtpx:hr></gpxtpx:TrackPointExtension></extensions></trkpt><trkpt lat="60.232243" lon="24.967628"><ele>29.5</ele><time>2026-05-03T08:17:16Z</time><extensions><gpxtpx:TrackPointExtension><gpxtpx:hr>89</gpxtpx:hr></gpxtpx:TrackPointExtension></extensions></trkpt><trkpt lat="60.232243" lon="24.967628"><ele>29.5</ele><time>2026-05-03T08:17:20Z</time><extensions><gpxtpx:TrackPointExtension><gpxtpx:hr>86</gpxtpx:hr></gpxtpx:TrackPointExtension></extensions></trkpt><trkpt lat="60.232243" lon="24.967628"><ele>29.5</ele><time>2026-05-03T08:17:22Z</time><extensions><gpxtpx:TrackPointExtension><gpxtpx:hr>87</gpxtpx:hr></gpxtpx:TrackPointExtension></extensions></trkpt><trkpt lat="60.232243" lon="24.967628"><ele>29.5</ele><time>2026-05-03T08:17:29Z</time><extensions><gpxtpx:TrackPointExtension><gpxtpx:hr>87</gpxtpx:hr></gpxtpx:TrackPointExtension></extensions></trkpt></trkseg></trk></gpx>