<?xml version="1.0" encoding="UTF-8" standalone="no"?><gpx xmlns="http://www.topografix.com/GPX/1/1" xmlns:gpxtpx="http://www.garmin.com/xmlschemas/TrackPointExtension/v1" xmlns:xsi="http://www.w3.org/2001/XMLSchema-instance" creator="Sports Tracker" version="1.1" xsi:schemaLocation="http://www.topografix.com/GPX/1/1 http://www.topografix.com/GPX/1/1/gpx.xsd http://www.garmin.com/xmlschemas/TrackPointExtension/v1 http://www.garmin.com/xmlschemas/TrackPointExtensionv1.xsd"><metadata><name/><desc/><author><name>anttipehkonen240</name></author></metadata><trk><name/><trkseg><trkpt lat="60.238047" lon="24.928145"><ele>21.8</ele><time>2026-01-13T09:36:24Z</time></trkpt><trkpt lat="60.238003" lon="24.928282"><ele>21.8</ele><time>2026-01-13T09:36:30Z</time></trkpt><trkpt lat="60.237947" lon="24.928385"><ele>22.2</ele><time>2026-01-13T09:36:35Z</time></trkpt><trkpt lat="60.237893" lon="24.928487"><ele>22.3</ele><time>2026-01-13T09:36:41Z</time></trkpt><trkpt lat="60.237807" lon="24.928548"><ele>24.3</ele><time>2026-01-13T09:36:47Z</time></trkpt><trkpt lat="60.237727" lon="24.92855"><ele>29.2</ele><time>2026-01-13T09:36:53Z</time></trkpt><trkpt lat="60.23766" lon="24.92862"><ele>29.2</ele><time>2026-01-13T09:36:57Z</time></trkpt><trkpt lat="60.237575" lon="24.92863"><ele>26.8</ele><time>2026-01-13T09:37:04Z</time></trkpt><trkpt lat="60.237498" lon="24.928665"><ele>27.3</ele><time>2026-01-13T09:37:10Z</time></trkpt><trkpt lat="60.23742" lon="24.928692"><ele>27.7</ele><time>2026-01-13T09:37:16Z</time></trkpt><trkpt lat="60.237348" lon="24.92869"><ele>27.0</ele><time>2026-01-13T09:37:22Z</time></trkpt><trkpt lat="60.23727" lon="24.928685"><ele>26.3</ele><time>2026-01-13T09:37:28Z</time></trkpt><trkpt lat="60.237197" lon="24.928743"><ele>27.1</ele><time>2026-01-13T09:37:34Z</time></trkpt><trkpt lat="60.237118" lon="24.928788"><ele>26.7</ele><time>2026-01-13T09:37:40Z</time></trkpt><trkpt lat="60.23704" lon="24.92882"><ele>26.9</ele><time>2026-01-13T09:37:46Z</time></trkpt><trkpt lat="60.236968" lon="24.928893"><ele>26.8</ele><time>2026-01-13T09:37:51Z</time></trkpt><trkpt lat="60.236887" lon="24.928917"><ele>28.9</ele><time>2026-01-13T09:37:57Z</time></trkpt><trkpt lat="60.236815" lon="24.928918"><ele>28.5</ele><time>2026-01-13T09:38:03Z</time></trkpt><trkpt lat="60.236743" lon="24.92893"><ele>27.8</ele><time>2026-01-13T09:38:09Z</time></trkpt><trkpt lat="60.236663" lon="24.928947"><ele>28.0</ele><time>2026-01-13T09:38:15Z</time></trkpt><trkpt lat="60.236587" lon="24.928977"><ele>30.0</ele><time>2026-01-13T09:38:21Z</time></trkpt><trkpt lat="60.236505" lon="24.929013"><ele>29.0</ele><time>2026-01-13T09:38:27Z</time></trkpt><trkpt lat="60.23643" lon="24.929083"><ele>29.9</ele><time>2026-01-13T09:38:33Z</time></trkpt><trkpt lat="60.236352" lon="24.92913"><ele>28.8</ele><time>2026-01-13T09:38:40Z</time></trkpt><trkpt lat="60.236275" lon="24.929157"><ele>30.3</ele><time>2026-01-13T09:38:46Z</time></trkpt><trkpt lat="60.2362" lon="24.929205"><ele>31.7</ele><time>2026-01-13T09:38:51Z</time></trkpt><trkpt lat="60.236118" lon="24.92922"><ele>32.5</ele><time>2026-01-13T09:38:57Z</time></trkpt><trkpt lat="60.236043" lon="24.929225"><ele>30.0</ele><time>2026-01-13T09:39:03Z</time></trkpt><trkpt lat="60.23597" lon="24.929252"><ele>29.3</ele><time>2026-01-13T09:39:09Z</time></trkpt><trkpt lat="60.235893" lon="24.929273"><ele>29.5</ele><time>2026-01-13T09:39:15Z</time></trkpt><trkpt lat="60.235813" lon="24.929297"><ele>27.8</ele><time>2026-01-13T09:39:22Z</time></trkpt><trkpt lat="60.235745" lon="24.929388"><ele>29.7</ele><time>2026-01-13T09:39:27Z</time></trkpt><trkpt lat="60.235665" lon="24.929422"><ele>29.7</ele><time>2026-01-13T09:39:33Z</time></trkpt><trkpt lat="60.235595" lon="24.929493"><ele>29.2</ele><time>2026-01-13T09:39:39Z</time></trkpt><trkpt lat="60.23552" lon="24.929555"><ele>30.9</ele><time>2026-01-13T09:39:45Z</time></trkpt><trkpt lat="60.235455" lon="24.929635"><ele>30.6</ele><time>2026-01-13T09:39:50Z</time></trkpt><trkpt lat="60.235388" lon="24.929723"><ele>30.1</ele><time>2026-01-13T09:39:56Z</time></trkpt><trkpt lat="60.235322" lon="24.929798"><ele>31.3</ele><time>2026-01-13T09:40:02Z</time></trkpt><trkpt lat="60.235247" lon="24.929872"><ele>31.7</ele><time>2026-01-13T09:40:08Z</time></trkpt><trkpt lat="60.23517" lon="24.929913"><ele>31.9</ele><time>2026-01-13T09:40:14Z</time></trkpt><trkpt lat="60.235095" lon="24.929982"><ele>32.1</ele><time>2026-01-13T09:40:20Z</time></trkpt><trkpt lat="60.235025" lon="24.93005"><ele>31.3</ele><time>2026-01-13T09:40:26Z</time></trkpt><trkpt lat="60.234962" lon="24.930125"><ele>32.0</ele><time>2026-01-13T09:40:31Z</time></trkpt><trkpt lat="60.234898" lon="24.930205"><ele>31.4</ele><time>2026-01-13T09:40:37Z</time></trkpt><trkpt lat="60.23483" lon="24.930278"><ele>32.1</ele><time>2026-01-13T09:40:43Z</time></trkpt><trkpt lat="60.234752" lon="24.930335"><ele>32.6</ele><time>2026-01-13T09:40:49Z</time></trkpt><trkpt lat="60.234677" lon="24.930417"><ele>31.5</ele><time>2026-01-13T09:40:56Z</time></trkpt><trkpt lat="60.234607" lon="24.930508"><ele>32.3</ele><time>2026-01-13T09:41:02Z</time></trkpt><trkpt lat="60.234533" lon="24.930583"><ele>32.4</ele><time>2026-01-13T09:41:09Z</time></trkpt><trkpt lat="60.234463" lon="24.930668"><ele>31.0</ele><time>2026-01-13T09:41:15Z</time></trkpt><trkpt lat="60.234392" lon="24.930737"><ele>32.8</ele><time>2026-01-13T09:41:21Z</time></trkpt><trkpt lat="60.234315" lon="24.930747"><ele>31.8</ele><time>2026-01-13T09:41:26Z</time></trkpt><trkpt lat="60.234237" lon="24.930777"><ele>30.0</ele><time>2026-01-13T09:41:31Z</time></trkpt><trkpt lat="60.234158" lon="24.930802"><ele>31.6</ele><time>2026-01-13T09:41:36Z</time></trkpt><trkpt lat="60.23408" lon="24.930785"><ele>30.0</ele><time>2026-01-13T09:41:42Z</time></trkpt><trkpt lat="60.234003" lon="24.930857"><ele>29.7</ele><time>2026-01-13T09:41:48Z</time></trkpt><trkpt lat="60.233952" lon="24.930963"><ele>29.7</ele><time>2026-01-13T09:41:54Z</time></trkpt><trkpt lat="60.23391" lon="24.931093"><ele>31.7</ele><time>2026-01-13T09:41:59Z</time></trkpt><trkpt lat="60.233858" lon="24.9312"><ele>31.0</ele><time>2026-01-13T09:42:04Z</time></trkpt><trkpt lat="60.233803" lon="24.9313"><ele>32.6</ele><time>2026-01-13T09:42:09Z</time></trkpt><trkpt lat="60.233727" lon="24.931352"><ele>32.7</ele><time>2026-01-13T09:42:15Z</time></trkpt><trkpt lat="60.23365" lon="24.931427"><ele>32.1</ele><time>2026-01-13T09:42:22Z</time></trkpt><trkpt lat="60.233595" lon="24.931547"><ele>33.2</ele><time>2026-01-13T09:42:27Z</time></trkpt><trkpt lat="60.233525" lon="24.93164"><ele>33.7</ele><time>2026-01-13T09:42:33Z</time></trkpt><trkpt lat="60.233457" lon="24.93172"><ele>34.3</ele><time>2026-01-13T09:42:40Z</time></trkpt><trkpt lat="60.233383" lon="24.93179"><ele>35.4</ele><time>2026-01-13T09:42:46Z</time></trkpt><trkpt lat="60.23332" lon="24.931865"><ele>35.3</ele><time>2026-01-13T09:42:51Z</time></trkpt><trkpt lat="60.233255" lon="24.93195"><ele>35.9</ele><time>2026-01-13T09:42:55Z</time></trkpt><trkpt lat="60.23319" lon="24.932037"><ele>35.2</ele><time>2026-01-13T09:43:00Z</time></trkpt><trkpt lat="60.233118" lon="24.932128"><ele>40.3</ele><time>2026-01-13T09:43:05Z</time></trkpt><trkpt lat="60.233043" lon="24.932123"><ele>36.0</ele><time>2026-01-13T09:43:13Z</time></trkpt><trkpt lat="60.23297" lon="24.932182"><ele>33.9</ele><time>2026-01-13T09:43:19Z</time></trkpt><trkpt lat="60.232913" lon="24.932272"><ele>36.0</ele><time>2026-01-13T09:43:24Z</time></trkpt><trkpt lat="60.232847" lon="24.932342"><ele>35.9</ele><time>2026-01-13T09:43:30Z</time></trkpt><trkpt lat="60.232773" lon="24.932407"><ele>34.1</ele><time>2026-01-13T09:43:36Z</time></trkpt><trkpt lat="60.232702" lon="24.932472"><ele>33.9</ele><time>2026-01-13T09:43:42Z</time></trkpt><trkpt lat="60.23263" lon="24.932538"><ele>33.3</ele><time>2026-01-13T09:43:48Z</time></trkpt><trkpt lat="60.232565" lon="24.932613"><ele>32.3</ele><time>2026-01-13T09:43:53Z</time></trkpt><trkpt lat="60.232503" lon="24.932695"><ele>33.8</ele><time>2026-01-13T09:43:59Z</time></trkpt><trkpt lat="60.232437" lon="24.932763"><ele>31.8</ele><time>2026-01-13T09:44:04Z</time></trkpt><trkpt lat="60.23236" lon="24.932852"><ele>30.1</ele><time>2026-01-13T09:44:10Z</time></trkpt><trkpt lat="60.232292" lon="24.93294"><ele>33.0</ele><time>2026-01-13T09:44:16Z</time></trkpt><trkpt lat="60.232215" lon="24.93302"><ele>33.6</ele><time>2026-01-13T09:44:22Z</time></trkpt><trkpt lat="60.232145" lon="24.933072"><ele>32.2</ele><time>2026-01-13T09:44:28Z</time></trkpt><trkpt lat="60.232072" lon="24.933147"><ele>34.2</ele><time>2026-01-13T09:44:34Z</time></trkpt><trkpt lat="60.232005" lon="24.93321"><ele>32.6</ele><time>2026-01-13T09:44:40Z</time></trkpt><trkpt lat="60.231943" lon="24.933293"><ele>32.5</ele><time>2026-01-13T09:44:46Z</time></trkpt><trkpt lat="60.231873" lon="24.933358"><ele>33.5</ele><time>2026-01-13T09:44:52Z</time></trkpt><trkpt lat="60.231798" lon="24.933463"><ele>32.9</ele><time>2026-01-13T09:44:58Z</time></trkpt><trkpt lat="60.231742" lon="24.933555"><ele>34.5</ele><time>2026-01-13T09:45:02Z</time></trkpt><trkpt lat="60.231665" lon="24.933602"><ele>31.7</ele><time>2026-01-13T09:45:08Z</time></trkpt><trkpt lat="60.231597" lon="24.93367"><ele>28.4</ele><time>2026-01-13T09:45:14Z</time></trkpt><trkpt lat="60.231542" lon="24.933792"><ele>28.7</ele><time>2026-01-13T09:45:20Z</time></trkpt><trkpt lat="60.231473" lon="24.933903"><ele>28.8</ele><time>2026-01-13T09:45:26Z</time></trkpt><trkpt lat="60.231412" lon="24.934037"><ele>29.6</ele><time>2026-01-13T09:45:32Z</time></trkpt><trkpt lat="60.231348" lon="24.934125"><ele>30.5</ele><time>2026-01-13T09:45:38Z</time></trkpt><trkpt lat="60.231285" lon="24.934228"><ele>27.6</ele><time>2026-01-13T09:45:44Z</time></trkpt><trkpt lat="60.23124" lon="24.934343"><ele>30.5</ele><time>2026-01-13T09:45:48Z</time></trkpt><trkpt lat="60.231178" lon="24.93445"><ele>30.1</ele><time>2026-01-13T09:45:54Z</time></trkpt><trkpt lat="60.231122" lon="24.934563"><ele>29.8</ele><time>2026-01-13T09:45:59Z</time></trkpt><trkpt lat="60.231067" lon="24.93468"><ele>30.1</ele><time>2026-01-13T09:46:05Z</time></trkpt><trkpt lat="60.230998" lon="24.93477"><ele>26.4</ele><time>2026-01-13T09:47:05Z</time></trkpt><trkpt lat="60.230955" lon="24.934905"><ele>26.2</ele><time>2026-01-13T09:47:10Z</time></trkpt><trkpt lat="60.230902" lon="24.935033"><ele>26.2</ele><time>2026-01-13T09:47:16Z</time></trkpt><trkpt lat="60.230862" lon="24.935158"><ele>28.2</ele><time>2026-01-13T09:47:20Z</time></trkpt><trkpt lat="60.23081" lon="24.9353"><ele>27.5</ele><time>2026-01-13T09:47:27Z</time></trkpt><trkpt lat="60.23078" lon="24.935442"><ele>27.4</ele><time>2026-01-13T09:47:32Z</time></trkpt><trkpt lat="60.230732" lon="24.935553"><ele>27.3</ele><time>2026-01-13T09:47:38Z</time></trkpt><trkpt lat="60.230695" lon="24.935685"><ele>25.9</ele><time>2026-01-13T09:47:43Z</time></trkpt><trkpt lat="60.230672" lon="24.935837"><ele>28.5</ele><time>2026-01-13T09:47:49Z</time></trkpt><trkpt lat="60.230627" lon="24.935953"><ele>28.4</ele><time>2026-01-13T09:47:54Z</time></trkpt><trkpt lat="60.230587" lon="24.936073"><ele>28.0</ele><time>2026-01-13T09:48:00Z</time></trkpt><trkpt lat="60.23055" lon="24.936223"><ele>29.9</ele><time>2026-01-13T09:48:05Z</time></trkpt><trkpt lat="60.230505" lon="24.936367"><ele>26.0</ele><time>2026-01-13T09:48:13Z</time></trkpt><trkpt lat="60.230465" lon="24.936488"><ele>28.5</ele><time>2026-01-13T09:48:18Z</time></trkpt><trkpt lat="60.23043" lon="24.93664"><ele>27.6</ele><time>2026-01-13T09:48:23Z</time></trkpt><trkpt lat="60.230395" lon="24.936785"><ele>28.6</ele><time>2026-01-13T09:48:28Z</time></trkpt><trkpt lat="60.230355" lon="24.936917"><ele>28.5</ele><time>2026-01-13T09:48:33Z</time></trkpt><trkpt lat="60.230313" lon="24.937042"><ele>29.4</ele><time>2026-01-13T09:48:39Z</time></trkpt><trkpt lat="60.230273" lon="24.937168"><ele>29.0</ele><time>2026-01-13T09:48:45Z</time></trkpt><trkpt lat="60.23023" lon="24.93731"><ele>26.7</ele><time>2026-01-13T09:48:51Z</time></trkpt><trkpt lat="60.230185" lon="24.937432"><ele>28.5</ele><time>2026-01-13T09:48:57Z</time></trkpt><trkpt lat="60.230138" lon="24.937547"><ele>29.5</ele><time>2026-01-13T09:49:02Z</time></trkpt><trkpt lat="60.230093" lon="24.937697"><ele>30.5</ele><time>2026-01-13T09:49:08Z</time></trkpt><trkpt lat="60.230052" lon="24.93782"><ele>29.8</ele><time>2026-01-13T09:49:14Z</time></trkpt><trkpt lat="60.230008" lon="24.93795"><ele>29.6</ele><time>2026-01-13T09:49:21Z</time></trkpt><trkpt lat="60.229958" lon="24.93808"><ele>30.4</ele><time>2026-01-13T09:49:27Z</time></trkpt><trkpt lat="60.229928" lon="24.938235"><ele>29.7</ele><time>2026-01-13T09:49:32Z</time></trkpt><trkpt lat="60.229908" lon="24.938378"><ele>32.2</ele><time>2026-01-13T09:49:37Z</time></trkpt><trkpt lat="60.22987" lon="24.938527"><ele>30.4</ele><time>2026-01-13T09:49:43Z</time></trkpt><trkpt lat="60.229828" lon="24.93865"><ele>28.2</ele><time>2026-01-13T09:49:49Z</time></trkpt><trkpt lat="60.229785" lon="24.938785"><ele>29.2</ele><time>2026-01-13T09:49:55Z</time></trkpt><trkpt lat="60.229755" lon="24.938925"><ele>27.1</ele><time>2026-01-13T09:50:01Z</time></trkpt><trkpt lat="60.229717" lon="24.939065"><ele>27.8</ele><time>2026-01-13T09:50:06Z</time></trkpt><trkpt lat="60.229678" lon="24.939205"><ele>26.1</ele><time>2026-01-13T09:50:12Z</time></trkpt><trkpt lat="60.229645" lon="24.939345"><ele>28.2</ele><time>2026-01-13T09:50:18Z</time></trkpt><trkpt lat="60.22961" lon="24.939493"><ele>27.8</ele><time>2026-01-13T09:50:24Z</time></trkpt><trkpt lat="60.229582" lon="24.939637"><ele>25.5</ele><time>2026-01-13T09:50:30Z</time></trkpt><trkpt lat="60.229548" lon="24.939785"><ele>26.5</ele><time>2026-01-13T09:50:36Z</time></trkpt><trkpt lat="60.229512" lon="24.939942"><ele>26.0</ele><time>2026-01-13T09:50:41Z</time></trkpt><trkpt lat="60.229475" lon="24.940067"><ele>27.7</ele><time>2026-01-13T09:50:46Z</time></trkpt><trkpt lat="60.229457" lon="24.940208"><ele>27.4</ele><time>2026-01-13T09:50:51Z</time></trkpt><trkpt lat="60.22941" lon="24.94043"><ele>26.3</ele><time>2026-01-13T09:51:04Z</time></trkpt><trkpt lat="60.229502" lon="24.940513"><ele>25.5</ele><time>2026-01-13T09:51:05Z</time></trkpt><trkpt lat="60.229483" lon="24.940655"><ele>26.3</ele><time>2026-01-13T09:51:11Z</time></trkpt><trkpt lat="60.229477" lon="24.940808"><ele>27.0</ele><time>2026-01-13T09:51:14Z</time></trkpt><trkpt lat="60.229477" lon="24.940978"><ele>29.1</ele><time>2026-01-13T09:51:19Z</time></trkpt><trkpt lat="60.229465" lon="24.94114"><ele>28.0</ele><time>2026-01-13T09:51:25Z</time></trkpt><trkpt lat="60.229483" lon="24.941287"><ele>28.4</ele><time>2026-01-13T09:51:31Z</time></trkpt><trkpt lat="60.2295" lon="24.941428"><ele>29.9</ele><time>2026-01-13T09:51:35Z</time></trkpt><trkpt lat="60.229507" lon="24.941598"><ele>30.0</ele><time>2026-01-13T09:51:41Z</time></trkpt><trkpt lat="60.229515" lon="24.94176"><ele>32.3</ele><time>2026-01-13T09:51:47Z</time></trkpt><trkpt lat="60.22953" lon="24.941915"><ele>32.0</ele><time>2026-01-13T09:51:53Z</time></trkpt><trkpt lat="60.229533" lon="24.942085"><ele>32.6</ele><time>2026-01-13T09:51:59Z</time></trkpt><trkpt lat="60.229535" lon="24.942245"><ele>32.1</ele><time>2026-01-13T09:52:05Z</time></trkpt><trkpt lat="60.229522" lon="24.942392"><ele>32.0</ele><time>2026-01-13T09:52:11Z</time></trkpt><trkpt lat="60.229532" lon="24.942558"><ele>33.2</ele><time>2026-01-13T09:52:16Z</time></trkpt><trkpt lat="60.229533" lon="24.942732"><ele>33.1</ele><time>2026-01-13T09:52:22Z</time></trkpt><trkpt lat="60.229533" lon="24.9429"><ele>32.1</ele><time>2026-01-13T09:52:28Z</time></trkpt><trkpt lat="60.229552" lon="24.943063"><ele>33.8</ele><time>2026-01-13T09:52:34Z</time></trkpt><trkpt lat="60.229547" lon="24.943228"><ele>32.9</ele><time>2026-01-13T09:52:41Z</time></trkpt><trkpt lat="60.229548" lon="24.94339"><ele>32.2</ele><time>2026-01-13T09:52:47Z</time></trkpt><trkpt lat="60.22956" lon="24.943553"><ele>33.9</ele><time>2026-01-13T09:52:53Z</time></trkpt><trkpt lat="60.229565" lon="24.94372"><ele>34.0</ele><time>2026-01-13T09:52:59Z</time></trkpt><trkpt lat="60.229567" lon="24.943865"><ele>33.7</ele><time>2026-01-13T09:53:04Z</time></trkpt><trkpt lat="60.229577" lon="24.944033"><ele>34.8</ele><time>2026-01-13T09:53:10Z</time></trkpt><trkpt lat="60.229588" lon="24.944177"><ele>34.6</ele><time>2026-01-13T09:53:15Z</time></trkpt><trkpt lat="60.2296" lon="24.944322"><ele>34.5</ele><time>2026-01-13T09:53:21Z</time></trkpt><trkpt lat="60.22961" lon="24.944472"><ele>35.8</ele><time>2026-01-13T09:53:26Z</time></trkpt><trkpt lat="60.229643" lon="24.944638"><ele>34.0</ele><time>2026-01-13T09:53:32Z</time></trkpt><trkpt lat="60.229628" lon="24.944797"><ele>33.3</ele><time>2026-01-13T09:53:39Z</time></trkpt><trkpt lat="60.229633" lon="24.94495"><ele>34.2</ele><time>2026-01-13T09:53:44Z</time></trkpt><trkpt lat="60.229615" lon="24.9451"><ele>32.6</ele><time>2026-01-13T09:53:50Z</time></trkpt><trkpt lat="60.229642" lon="24.94526"><ele>32.9</ele><time>2026-01-13T09:53:55Z</time></trkpt><trkpt lat="60.229657" lon="24.945415"><ele>37.3</ele><time>2026-01-13T09:54:01Z</time></trkpt><trkpt lat="60.229665" lon="24.945572"><ele>35.6</ele><time>2026-01-13T09:54:07Z</time></trkpt><trkpt lat="60.229672" lon="24.945725"><ele>35.4</ele><time>2026-01-13T09:54:13Z</time></trkpt><trkpt lat="60.22971" lon="24.945865"><ele>37.4</ele><time>2026-01-13T09:54:18Z</time></trkpt><trkpt lat="60.22973" lon="24.946025"><ele>35.6</ele><time>2026-01-13T09:54:26Z</time></trkpt><trkpt lat="60.229755" lon="24.946183"><ele>34.9</ele><time>2026-01-13T09:54:32Z</time></trkpt><trkpt lat="60.22975" lon="24.94635"><ele>36.0</ele><time>2026-01-13T09:54:37Z</time></trkpt><trkpt lat="60.229778" lon="24.946513"><ele>36.2</ele><time>2026-01-13T09:54:43Z</time></trkpt><trkpt lat="60.229808" lon="24.94666"><ele>36.4</ele><time>2026-01-13T09:54:48Z</time></trkpt><trkpt lat="60.229822" lon="24.946823"><ele>38.7</ele><time>2026-01-13T09:54:54Z</time></trkpt><trkpt lat="60.229827" lon="24.946983"><ele>38.8</ele><time>2026-01-13T09:55:00Z</time></trkpt><trkpt lat="60.229843" lon="24.947137"><ele>38.0</ele><time>2026-01-13T09:55:06Z</time></trkpt><trkpt lat="60.229862" lon="24.9473"><ele>39.3</ele><time>2026-01-13T09:55:12Z</time></trkpt><trkpt lat="60.229882" lon="24.947445"><ele>38.5</ele><time>2026-01-13T09:55:17Z</time></trkpt><trkpt lat="60.229905" lon="24.947603"><ele>38.5</ele><time>2026-01-13T09:55:23Z</time></trkpt><trkpt lat="60.229952" lon="24.947725"><ele>40.1</ele><time>2026-01-13T09:55:28Z</time></trkpt><trkpt lat="60.229978" lon="24.94786"><ele>40.4</ele><time>2026-01-13T09:55:33Z</time></trkpt><trkpt lat="60.230027" lon="24.948002"><ele>41.5</ele><time>2026-01-13T09:55:39Z</time></trkpt><trkpt lat="60.230012" lon="24.948162"><ele>39.2</ele><time>2026-01-13T09:55:44Z</time></trkpt><trkpt lat="60.230035" lon="24.948312"><ele>42.0</ele><time>2026-01-13T09:55:49Z</time></trkpt><trkpt lat="60.230057" lon="24.94846"><ele>40.0</ele><time>2026-01-13T09:55:56Z</time></trkpt><trkpt lat="60.230097" lon="24.94861"><ele>40.1</ele><time>2026-01-13T09:56:02Z</time></trkpt><trkpt lat="60.230125" lon="24.948752"><ele>44.0</ele><time>2026-01-13T09:56:07Z</time></trkpt><trkpt lat="60.230157" lon="24.948893"><ele>42.3</ele><time>2026-01-13T09:56:14Z</time></trkpt><trkpt lat="60.230175" lon="24.94904"><ele>40.2</ele><time>2026-01-13T09:56:19Z</time></trkpt><trkpt lat="60.23019" lon="24.949193"><ele>40.6</ele><time>2026-01-13T09:56:25Z</time></trkpt><trkpt lat="60.230127" lon="24.949293"><ele>39.8</ele><time>2026-01-13T09:56:29Z</time></trkpt><trkpt lat="60.230055" lon="24.94937"><ele>41.3</ele><time>2026-01-13T09:56:36Z</time></trkpt><trkpt lat="60.230003" lon="24.949495"><ele>39.5</ele><time>2026-01-13T09:56:46Z</time></trkpt><trkpt lat="60.229947" lon="24.949592"><ele>39.5</ele><time>2026-01-13T09:56:51Z</time></trkpt><trkpt lat="60.229892" lon="24.949705"><ele>39.0</ele><time>2026-01-13T09:56:57Z</time></trkpt><trkpt lat="60.229828" lon="24.949783"><ele>37.9</ele><time>2026-01-13T09:57:03Z</time></trkpt><trkpt lat="60.229763" lon="24.949887"><ele>39.3</ele><time>2026-01-13T09:57:09Z</time></trkpt><trkpt lat="60.229707" lon="24.95"><ele>41.3</ele><time>2026-01-13T09:57:15Z</time></trkpt><trkpt lat="60.229643" lon="24.95011"><ele>41.7</ele><time>2026-01-13T09:57:21Z</time></trkpt><trkpt lat="60.229577" lon="24.950178"><ele>41.7</ele><time>2026-01-13T09:57:28Z</time></trkpt><trkpt lat="60.229515" lon="24.950288"><ele>40.9</ele><time>2026-01-13T09:57:36Z</time></trkpt><trkpt lat="60.229457" lon="24.950408"><ele>41.1</ele><time>2026-01-13T09:57:44Z</time></trkpt><trkpt lat="60.229405" lon="24.950538"><ele>39.0</ele><time>2026-01-13T09:57:49Z</time></trkpt><trkpt lat="60.229345" lon="24.950632"><ele>39.0</ele><time>2026-01-13T09:57:53Z</time></trkpt><trkpt lat="60.229352" lon="24.950777"><ele>40.6</ele><time>2026-01-13T09:58:01Z</time></trkpt><trkpt lat="60.229282" lon="24.950818"><ele>37.7</ele><time>2026-01-13T09:58:08Z</time></trkpt><trkpt lat="60.229208" lon="24.950793"><ele>37.1</ele><time>2026-01-13T09:58:12Z</time></trkpt><trkpt lat="60.229125" lon="24.950778"><ele>35.1</ele><time>2026-01-13T09:58:18Z</time></trkpt><trkpt lat="60.229058" lon="24.950718"><ele>39.0</ele><time>2026-01-13T09:58:23Z</time></trkpt><trkpt lat="60.228997" lon="24.95063"><ele>38.9</ele><time>2026-01-13T09:58:29Z</time></trkpt><trkpt lat="60.228927" lon="24.950592"><ele>37.8</ele><time>2026-01-13T09:58:35Z</time></trkpt><trkpt lat="60.228847" lon="24.950562"><ele>35.3</ele><time>2026-01-13T09:58:42Z</time></trkpt><trkpt lat="60.228763" lon="24.950563"><ele>36.8</ele><time>2026-01-13T09:58:48Z</time></trkpt><trkpt lat="60.22868" lon="24.950562"><ele>37.6</ele><time>2026-01-13T09:58:54Z</time></trkpt><trkpt lat="60.2286" lon="24.95056"><ele>37.7</ele><time>2026-01-13T09:59:01Z</time></trkpt><trkpt lat="60.228522" lon="24.950547"><ele>39.1</ele><time>2026-01-13T09:59:07Z</time></trkpt><trkpt lat="60.228438" lon="24.950542"><ele>39.1</ele><time>2026-01-13T09:59:13Z</time></trkpt><trkpt lat="60.228365" lon="24.950537"><ele>39.1</ele><time>2026-01-13T09:59:19Z</time></trkpt><trkpt lat="60.228292" lon="24.950535"><ele>38.0</ele><time>2026-01-13T09:59:26Z</time></trkpt><trkpt lat="60.228203" lon="24.950522"><ele>40.0</ele><time>2026-01-13T09:59:32Z</time></trkpt><trkpt lat="60.228123" lon="24.950542"><ele>38.9</ele><time>2026-01-13T09:59:38Z</time></trkpt><trkpt lat="60.228042" lon="24.950533"><ele>38.8</ele><time>2026-01-13T09:59:44Z</time></trkpt><trkpt lat="60.22796" lon="24.950527"><ele>38.7</ele><time>2026-01-13T09:59:50Z</time></trkpt><trkpt lat="60.227885" lon="24.950522"><ele>39.4</ele><time>2026-01-13T09:59:56Z</time></trkpt><trkpt lat="60.2278" lon="24.950527"><ele>40.2</ele><time>2026-01-13T10:00:02Z</time></trkpt><trkpt lat="60.227728" lon="24.950497"><ele>38.9</ele><time>2026-01-13T10:00:08Z</time></trkpt><trkpt lat="60.227652" lon="24.950518"><ele>39.7</ele><time>2026-01-13T10:00:14Z</time></trkpt><trkpt lat="60.227578" lon="24.950522"><ele>41.3</ele><time>2026-01-13T10:00:20Z</time></trkpt><trkpt lat="60.227502" lon="24.9505"><ele>40.3</ele><time>2026-01-13T10:00:26Z</time></trkpt><trkpt lat="60.227427" lon="24.9505"><ele>40.2</ele><time>2026-01-13T10:00:31Z</time></trkpt><trkpt lat="60.227348" lon="24.950532"><ele>40.8</ele><time>2026-01-13T10:00:37Z</time></trkpt><trkpt lat="60.227263" lon="24.950532"><ele>40.4</ele><time>2026-01-13T10:00:43Z</time></trkpt><trkpt lat="60.22718" lon="24.950482"><ele>37.0</ele><time>2026-01-13T10:00:52Z</time></trkpt><trkpt lat="60.227095" lon="24.950443"><ele>34.9</ele><time>2026-01-13T10:00:59Z</time></trkpt><trkpt lat="60.227022" lon="24.950463"><ele>35.8</ele><time>2026-01-13T10:01:05Z</time></trkpt><trkpt lat="60.226938" lon="24.950447"><ele>35.7</ele><time>2026-01-13T10:01:12Z</time></trkpt><trkpt lat="60.226867" lon="24.95044"><ele>34.9</ele><time>2026-01-13T10:01:18Z</time></trkpt><trkpt lat="60.226787" lon="24.950463"><ele>34.0</ele><time>2026-01-13T10:01:25Z</time></trkpt><trkpt lat="60.226708" lon="24.950458"><ele>34.5</ele><time>2026-01-13T10:01:32Z</time></trkpt><trkpt lat="60.226627" lon="24.950473"><ele>35.5</ele><time>2026-01-13T10:01:39Z</time></trkpt><trkpt lat="60.226555" lon="24.95051"><ele>34.8</ele><time>2026-01-13T10:02:03Z</time></trkpt><trkpt lat="60.226483" lon="24.950522"><ele>33.5</ele><time>2026-01-13T10:02:12Z</time></trkpt><trkpt lat="60.226408" lon="24.950555"><ele>32.8</ele><time>2026-01-13T10:02:18Z</time></trkpt><trkpt lat="60.22633" lon="24.950588"><ele>30.9</ele><time>2026-01-13T10:02:25Z</time></trkpt><trkpt lat="60.226252" lon="24.950648"><ele>31.5</ele><time>2026-01-13T10:02:31Z</time></trkpt><trkpt lat="60.226188" lon="24.95073"><ele>30.5</ele><time>2026-01-13T10:02:37Z</time></trkpt><trkpt lat="60.22613" lon="24.950828"><ele>30.3</ele><time>2026-01-13T10:02:43Z</time></trkpt><trkpt lat="60.226072" lon="24.950915"><ele>29.5</ele><time>2026-01-13T10:02:49Z</time></trkpt><trkpt lat="60.226005" lon="24.951023"><ele>29.6</ele><time>2026-01-13T10:02:55Z</time></trkpt><trkpt lat="60.225962" lon="24.95114"><ele>29.4</ele><time>2026-01-13T10:03:01Z</time></trkpt><trkpt lat="60.225893" lon="24.951228"><ele>31.0</ele><time>2026-01-13T10:03:08Z</time></trkpt><trkpt lat="60.225847" lon="24.951348"><ele>31.1</ele><time>2026-01-13T10:03:14Z</time></trkpt><trkpt lat="60.2258" lon="24.951462"><ele>30.2</ele><time>2026-01-13T10:03:20Z</time></trkpt><trkpt lat="60.225742" lon="24.951552"><ele>30.8</ele><time>2026-01-13T10:03:26Z</time></trkpt><trkpt lat="60.22568" lon="24.951643"><ele>30.7</ele><time>2026-01-13T10:03:31Z</time></trkpt><trkpt lat="60.225645" lon="24.951783"><ele>29.7</ele><time>2026-01-13T10:03:37Z</time></trkpt><trkpt lat="60.22558" lon="24.95187"><ele>29.2</ele><time>2026-01-13T10:03:42Z</time></trkpt><trkpt lat="60.225513" lon="24.951945"><ele>28.4</ele><time>2026-01-13T10:03:48Z</time></trkpt><trkpt lat="60.22545" lon="24.952035"><ele>27.5</ele><time>2026-01-13T10:03:54Z</time></trkpt><trkpt lat="60.225387" lon="24.952142"><ele>26.9</ele><time>2026-01-13T10:04:00Z</time></trkpt><trkpt lat="60.22534" lon="24.952255"><ele>25.9</ele><time>2026-01-13T10:04:05Z</time></trkpt><trkpt lat="60.225292" lon="24.95237"><ele>26.4</ele><time>2026-01-13T10:04:10Z</time></trkpt><trkpt lat="60.225262" lon="24.952522"><ele>30.7</ele><time>2026-01-13T10:04:14Z</time></trkpt><trkpt lat="60.22521" lon="24.952653"><ele>31.3</ele><time>2026-01-13T10:04:20Z</time></trkpt><trkpt lat="60.225218" lon="24.952803"><ele>29.7</ele><time>2026-01-13T10:04:28Z</time></trkpt><trkpt lat="60.225213" lon="24.952958"><ele>30.2</ele><time>2026-01-13T10:04:34Z</time></trkpt><trkpt lat="60.225198" lon="24.953113"><ele>29.9</ele><time>2026-01-13T10:04:39Z</time></trkpt><trkpt lat="60.225253" lon="24.95321"><ele>28.5</ele><time>2026-01-13T10:04:44Z</time></trkpt><trkpt lat="60.225322" lon="24.953297"><ele>28.1</ele><time>2026-01-13T10:04:50Z</time></trkpt><trkpt lat="60.225392" lon="24.953403"><ele>25.2</ele><time>2026-01-13T10:04:56Z</time></trkpt><trkpt lat="60.225457" lon="24.953492"><ele>28.1</ele><time>2026-01-13T10:05:01Z</time></trkpt><trkpt lat="60.225518" lon="24.953612"><ele>28.3</ele><time>2026-01-13T10:05:07Z</time></trkpt><trkpt lat="60.225582" lon="24.953727"><ele>29.2</ele><time>2026-01-13T10:05:13Z</time></trkpt><trkpt lat="60.225648" lon="24.953847"><ele>26.7</ele><time>2026-01-13T10:05:19Z</time></trkpt><trkpt lat="60.225717" lon="24.953945"><ele>27.1</ele><time>2026-01-13T10:05:25Z</time></trkpt><trkpt lat="60.22577" lon="24.95405"><ele>28.0</ele><time>2026-01-13T10:05:30Z</time></trkpt><trkpt lat="60.225825" lon="24.954178"><ele>27.0</ele><time>2026-01-13T10:05:36Z</time></trkpt><trkpt lat="60.225883" lon="24.954263"><ele>28.6</ele><time>2026-01-13T10:05:41Z</time></trkpt><trkpt lat="60.225938" lon="24.954362"><ele>28.3</ele><time>2026-01-13T10:05:46Z</time></trkpt><trkpt lat="60.226002" lon="24.95446"><ele>24.8</ele><time>2026-01-13T10:05:52Z</time></trkpt><trkpt lat="60.226058" lon="24.95457"><ele>27.1</ele><time>2026-01-13T10:05:57Z</time></trkpt><trkpt lat="60.226115" lon="24.954663"><ele>27.8</ele><time>2026-01-13T10:06:02Z</time></trkpt><trkpt lat="60.226187" lon="24.954757"><ele>29.2</ele><time>2026-01-13T10:06:08Z</time></trkpt><trkpt lat="60.226243" lon="24.954847"><ele>28.4</ele><time>2026-01-13T10:06:13Z</time></trkpt><trkpt lat="60.22631" lon="24.954965"><ele>27.3</ele><time>2026-01-13T10:06:19Z</time></trkpt><trkpt lat="60.226372" lon="24.95505"><ele>30.1</ele><time>2026-01-13T10:06:24Z</time></trkpt><trkpt lat="60.226418" lon="24.955162"><ele>28.4</ele><time>2026-01-13T10:06:29Z</time></trkpt><trkpt lat="60.226473" lon="24.95528"><ele>31.3</ele><time>2026-01-13T10:06:34Z</time></trkpt><trkpt lat="60.226523" lon="24.955393"><ele>30.9</ele><time>2026-01-13T10:06:39Z</time></trkpt><trkpt lat="60.226582" lon="24.955502"><ele>29.7</ele><time>2026-01-13T10:06:45Z</time></trkpt><trkpt lat="60.226637" lon="24.955605"><ele>30.3</ele><time>2026-01-13T10:06:50Z</time></trkpt><trkpt lat="60.226695" lon="24.955712"><ele>31.0</ele><time>2026-01-13T10:06:55Z</time></trkpt><trkpt lat="60.226757" lon="24.955815"><ele>29.5</ele><time>2026-01-13T10:07:01Z</time></trkpt><trkpt lat="60.226807" lon="24.955923"><ele>30.1</ele><time>2026-01-13T10:07:06Z</time></trkpt><trkpt lat="60.226867" lon="24.956013"><ele>31.2</ele><time>2026-01-13T10:07:11Z</time></trkpt><trkpt lat="60.226913" lon="24.956155"><ele>31.8</ele><time>2026-01-13T10:07:17Z</time></trkpt><trkpt lat="60.226972" lon="24.956248"><ele>33.1</ele><time>2026-01-13T10:07:22Z</time></trkpt><trkpt lat="60.227025" lon="24.956347"><ele>32.2</ele><time>2026-01-13T10:07:27Z</time></trkpt><trkpt lat="60.227088" lon="24.95646"><ele>33.7</ele><time>2026-01-13T10:07:33Z</time></trkpt><trkpt lat="60.227155" lon="24.95656"><ele>32.5</ele><time>2026-01-13T10:07:39Z</time></trkpt><trkpt lat="60.227215" lon="24.956673"><ele>31.8</ele><time>2026-01-13T10:07:45Z</time></trkpt><trkpt lat="60.227275" lon="24.956788"><ele>32.9</ele><time>2026-01-13T10:07:51Z</time></trkpt><trkpt lat="60.227322" lon="24.956907"><ele>30.2</ele><time>2026-01-13T10:07:57Z</time></trkpt><trkpt lat="60.227377" lon="24.957022"><ele>28.4</ele><time>2026-01-13T10:08:03Z</time></trkpt><trkpt lat="60.227438" lon="24.957132"><ele>28.1</ele><time>2026-01-13T10:08:09Z</time></trkpt><trkpt lat="60.227497" lon="24.957225"><ele>28.9</ele><time>2026-01-13T10:08:14Z</time></trkpt><trkpt lat="60.22755" lon="24.95733"><ele>30.8</ele><time>2026-01-13T10:08:19Z</time></trkpt><trkpt lat="60.227598" lon="24.957437"><ele>30.7</ele><time>2026-01-13T10:08:24Z</time></trkpt><trkpt lat="60.22766" lon="24.957532"><ele>27.9</ele><time>2026-01-13T10:08:30Z</time></trkpt><trkpt lat="60.227715" lon="24.957638"><ele>26.8</ele><time>2026-01-13T10:08:36Z</time></trkpt><trkpt lat="60.22776" lon="24.95777"><ele>24.9</ele><time>2026-01-13T10:08:42Z</time></trkpt><trkpt lat="60.227823" lon="24.957893"><ele>25.6</ele><time>2026-01-13T10:08:48Z</time></trkpt><trkpt lat="60.227872" lon="24.958013"><ele>26.2</ele><time>2026-01-13T10:08:53Z</time></trkpt><trkpt lat="60.227932" lon="24.958125"><ele>25.3</ele><time>2026-01-13T10:08:59Z</time></trkpt><trkpt lat="60.227985" lon="24.958263"><ele>26.7</ele><time>2026-01-13T10:09:05Z</time></trkpt><trkpt lat="60.228048" lon="24.958372"><ele>26.8</ele><time>2026-01-13T10:09:11Z</time></trkpt><trkpt lat="60.228102" lon="24.958495"><ele>27.9</ele><time>2026-01-13T10:09:17Z</time></trkpt><trkpt lat="60.228127" lon="24.958638"><ele>27.6</ele><time>2026-01-13T10:09:22Z</time></trkpt><trkpt lat="60.228152" lon="24.958778"><ele>26.8</ele><time>2026-01-13T10:09:27Z</time></trkpt><trkpt lat="60.228195" lon="24.958898"><ele>28.3</ele><time>2026-01-13T10:09:32Z</time></trkpt><trkpt lat="60.228233" lon="24.95904"><ele>26.4</ele><time>2026-01-13T10:09:38Z</time></trkpt><trkpt lat="60.228263" lon="24.95919"><ele>25.9</ele><time>2026-01-13T10:09:44Z</time></trkpt><trkpt lat="60.228293" lon="24.959345"><ele>26.4</ele><time>2026-01-13T10:09:50Z</time></trkpt><trkpt lat="60.228318" lon="24.959503"><ele>26.7</ele><time>2026-01-13T10:09:56Z</time></trkpt><trkpt lat="60.228342" lon="24.959668"><ele>27.3</ele><time>2026-01-13T10:10:02Z</time></trkpt><trkpt lat="60.228365" lon="24.959827"><ele>26.3</ele><time>2026-01-13T10:10:08Z</time></trkpt><trkpt lat="60.228388" lon="24.959985"><ele>25.3</ele><time>2026-01-13T10:10:14Z</time></trkpt><trkpt lat="60.228412" lon="24.96015"><ele>26.7</ele><time>2026-01-13T10:10:20Z</time></trkpt><trkpt lat="60.228428" lon="24.960312"><ele>24.3</ele><time>2026-01-13T10:10:26Z</time></trkpt><trkpt lat="60.228458" lon="24.960445"><ele>26.8</ele><time>2026-01-13T10:10:31Z</time></trkpt><trkpt lat="60.228478" lon="24.960583"><ele>26.0</ele><time>2026-01-13T10:10:36Z</time></trkpt><trkpt lat="60.228493" lon="24.960725"><ele>24.4</ele><time>2026-01-13T10:10:41Z</time></trkpt><trkpt lat="60.228518" lon="24.960867"><ele>25.6</ele><time>2026-01-13T10:10:46Z</time></trkpt><trkpt lat="60.228537" lon="24.96103"><ele>25.7</ele><time>2026-01-13T10:10:52Z</time></trkpt><trkpt lat="60.228558" lon="24.961172"><ele>26.0</ele><time>2026-01-13T10:10:57Z</time></trkpt><trkpt lat="60.228583" lon="24.961325"><ele>25.2</ele><time>2026-01-13T10:11:03Z</time></trkpt><trkpt lat="60.228598" lon="24.961467"><ele>24.7</ele><time>2026-01-13T10:11:08Z</time></trkpt><trkpt lat="60.228623" lon="24.961613"><ele>26.0</ele><time>2026-01-13T10:11:13Z</time></trkpt><trkpt lat="60.22865" lon="24.961775"><ele>26.8</ele><time>2026-01-13T10:11:19Z</time></trkpt><trkpt lat="60.22866" lon="24.961942"><ele>26.1</ele><time>2026-01-13T10:11:25Z</time></trkpt><trkpt lat="60.228687" lon="24.962103"><ele>26.1</ele><time>2026-01-13T10:11:31Z</time></trkpt><trkpt lat="60.228717" lon="24.962258"><ele>25.2</ele><time>2026-01-13T10:11:37Z</time></trkpt><trkpt lat="60.228745" lon="24.962412"><ele>25.6</ele><time>2026-01-13T10:11:43Z</time></trkpt><trkpt lat="60.228758" lon="24.962573"><ele>25.5</ele><time>2026-01-13T10:11:49Z</time></trkpt><trkpt lat="60.228788" lon="24.96271"><ele>25.3</ele><time>2026-01-13T10:11:54Z</time></trkpt><trkpt lat="60.228825" lon="24.96284"><ele>28.2</ele><time>2026-01-13T10:11:59Z</time></trkpt><trkpt lat="60.228853" lon="24.963002"><ele>29.0</ele><time>2026-01-13T10:12:05Z</time></trkpt><trkpt lat="60.22888" lon="24.963158"><ele>28.8</ele><time>2026-01-13T10:12:11Z</time></trkpt><trkpt lat="60.228907" lon="24.963313"><ele>29.1</ele><time>2026-01-13T10:12:18Z</time></trkpt><trkpt lat="60.228875" lon="24.96345"><ele>28.5</ele><time>2026-01-13T10:12:23Z</time></trkpt><trkpt lat="60.228835" lon="24.963587"><ele>27.0</ele><time>2026-01-13T10:12:28Z</time></trkpt><trkpt lat="60.228835" lon="24.963733"><ele>25.5</ele><time>2026-01-13T10:12:33Z</time></trkpt><trkpt lat="60.228902" lon="24.96383"><ele>24.8</ele><time>2026-01-13T10:12:39Z</time></trkpt><trkpt lat="60.228972" lon="24.963915"><ele>22.6</ele><time>2026-01-13T10:12:45Z</time></trkpt><trkpt lat="60.229037" lon="24.964012"><ele>22.1</ele><time>2026-01-13T10:12:51Z</time></trkpt><trkpt lat="60.229115" lon="24.964088"><ele>22.9</ele><time>2026-01-13T10:12:57Z</time></trkpt><trkpt lat="60.229198" lon="24.964125"><ele>24.1</ele><time>2026-01-13T10:13:03Z</time></trkpt><trkpt lat="60.229282" lon="24.964163"><ele>23.0</ele><time>2026-01-13T10:13:09Z</time></trkpt><trkpt lat="60.229348" lon="24.964218"><ele>23.6</ele><time>2026-01-13T10:13:14Z</time></trkpt><trkpt lat="60.229412" lon="24.964332"><ele>23.9</ele><time>2026-01-13T10:13:20Z</time></trkpt><trkpt lat="60.229465" lon="24.964453"><ele>24.7</ele><time>2026-01-13T10:13:26Z</time></trkpt><trkpt lat="60.229522" lon="24.964548"><ele>23.3</ele><time>2026-01-13T10:13:31Z</time></trkpt><trkpt lat="60.22958" lon="24.964652"><ele>22.5</ele><time>2026-01-13T10:13:37Z</time></trkpt><trkpt lat="60.229638" lon="24.964768"><ele>24.0</ele><time>2026-01-13T10:13:43Z</time></trkpt><trkpt lat="60.229688" lon="24.964883"><ele>24.5</ele><time>2026-01-13T10:13:48Z</time></trkpt><trkpt lat="60.229753" lon="24.964987"><ele>23.4</ele><time>2026-01-13T10:13:54Z</time></trkpt><trkpt lat="60.229805" lon="24.96509"><ele>25.8</ele><time>2026-01-13T10:13:59Z</time></trkpt><trkpt lat="60.229857" lon="24.965192"><ele>26.1</ele><time>2026-01-13T10:14:04Z</time></trkpt><trkpt lat="60.229915" lon="24.965285"><ele>26.2</ele><time>2026-01-13T10:14:10Z</time></trkpt><trkpt lat="60.22997" lon="24.965388"><ele>27.8</ele><time>2026-01-13T10:14:15Z</time></trkpt><trkpt lat="60.22998" lon="24.965558"><ele>25.1</ele><time>2026-01-13T10:14:21Z</time></trkpt><trkpt lat="60.229917" lon="24.965675"><ele>25.6</ele><time>2026-01-13T10:14:25Z</time></trkpt><trkpt lat="60.229877" lon="24.965808"><ele>25.3</ele><time>2026-01-13T10:14:30Z</time></trkpt><trkpt lat="60.229947" lon="24.96587"><ele>23.1</ele><time>2026-01-13T10:14:38Z</time></trkpt><trkpt lat="60.229998" lon="24.965992"><ele>20.8</ele><time>2026-01-13T10:14:42Z</time></trkpt><trkpt lat="60.230053" lon="24.966092"><ele>23.4</ele><time>2026-01-13T10:14:47Z</time></trkpt><trkpt lat="60.230113" lon="24.96617"><ele>23.3</ele><time>2026-01-13T10:14:53Z</time></trkpt><trkpt lat="60.23018" lon="24.966055"><ele>20.5</ele><time>2026-01-13T10:15:11Z</time></trkpt></trkseg></trk></gpx>