<?xml version="1.0" encoding="UTF-8" standalone="no"?><gpx xmlns="http://www.topografix.com/GPX/1/1" xmlns:gpxtpx="http://www.garmin.com/xmlschemas/TrackPointExtension/v1" xmlns:xsi="http://www.w3.org/2001/XMLSchema-instance" creator="Sports Tracker" version="1.1" xsi:schemaLocation="http://www.topografix.com/GPX/1/1 http://www.topografix.com/GPX/1/1/gpx.xsd http://www.garmin.com/xmlschemas/TrackPointExtension/v1 http://www.garmin.com/xmlschemas/TrackPointExtensionv1.xsd"><metadata><name/><desc/><author><name>anttipehkonen240</name></author></metadata><trk><name/><trkseg><trkpt lat="0.0" lon="0.0"><time>2026-01-17T11:22:35Z</time><extensions><gpxtpx:TrackPointExtension><gpxtpx:hr>57</gpxtpx:hr></gpxtpx:TrackPointExtension></extensions></trkpt><trkpt lat="0.0" lon="0.0"><time>2026-01-17T11:27:13Z</time><extensions><gpxtpx:TrackPointExtension><gpxtpx:hr>53</gpxtpx:hr></gpxtpx:TrackPointExtension></extensions></trkpt><trkpt lat="0.0" lon="0.0"><time>2026-01-17T11:29:36Z</time><extensions><gpxtpx:TrackPointExtension><gpxtpx:hr>55</gpxtpx:hr></gpxtpx:TrackPointExtension></extensions></trkpt><trkpt lat="0.0" lon="0.0"><time>2026-01-17T11:34:02Z</time><extensions><gpxtpx:TrackPointExtension><gpxtpx:hr>67</gpxtpx:hr></gpxtpx:TrackPointExtension></extensions></trkpt><trkpt lat="0.0" lon="0.0"><time>2026-01-17T11:42:02Z</time><extensions><gpxtpx:TrackPointExtension><gpxtpx:hr>67</gpxtpx:hr></gpxtpx:TrackPointExtension></extensions></trkpt><trkpt lat="0.0" lon="0.0"><time>2026-01-17T11:43:50Z</time><extensions><gpxtpx:TrackPointExtension><gpxtpx:hr>68</gpxtpx:hr></gpxtpx:TrackPointExtension></extensions></trkpt><trkpt lat="0.0" lon="0.0"><time>2026-01-17T11:52:42Z</time><extensions><gpxtpx:TrackPointExtension><gpxtpx:hr>67</gpxtpx:hr></gpxtpx:TrackPointExtension></extensions></trkpt><trkpt lat="0.0" lon="0.0"><time>2026-01-17T11:54:04Z</time><extensions><gpxtpx:TrackPointExtension><gpxtpx:hr>71</gpxtpx:hr></gpxtpx:TrackPointExtension></extensions></trkpt><trkpt lat="0.0" lon="0.0"><time>2026-01-17T11:54:48Z</time><extensions><gpxtpx:TrackPointExtension><gpxtpx:hr>66</gpxtpx:hr></gpxtpx:TrackPointExtension></extensions></trkpt><trkpt lat="0.0" lon="0.0"><time>2026-01-17T12:03:38Z</time><extensions><gpxtpx:TrackPointExtension><gpxtpx:hr>55</gpxtpx:hr></gpxtpx:TrackPointExtension></extensions></trkpt><trkpt lat="0.0" lon="0.0"><time>2026-01-17T12:08:34Z</time><extensions><gpxtpx:TrackPointExtension><gpxtpx:hr>53</gpxtpx:hr></gpxtpx:TrackPointExtension></extensions></trkpt></trkseg></trk></gpx>