<?xml version="1.0" encoding="UTF-8" standalone="no"?><gpx xmlns="http://www.topografix.com/GPX/1/1" xmlns:gpxtpx="http://www.garmin.com/xmlschemas/TrackPointExtension/v1" xmlns:xsi="http://www.w3.org/2001/XMLSchema-instance" creator="Sports Tracker" version="1.1" xsi:schemaLocation="http://www.topografix.com/GPX/1/1 http://www.topografix.com/GPX/1/1/gpx.xsd http://www.garmin.com/xmlschemas/TrackPointExtension/v1 http://www.garmin.com/xmlschemas/TrackPointExtensionv1.xsd"><metadata><name/><desc/><author><name>anttipehkonen240</name></author></metadata><trk><name/><trkseg><trkpt lat="60.22925" lon="24.964165"><ele>25.0</ele><time>2026-05-17T09:22:38Z</time></trkpt><trkpt lat="60.22925" lon="24.964165"><ele>25.0</ele><time>2026-05-17T09:22:45Z</time><extensions><gpxtpx:TrackPointExtension><gpxtpx:hr>101</gpxtpx:hr></gpxtpx:TrackPointExtension></extensions></trkpt><trkpt lat="60.22925" lon="24.964165"><ele>25.0</ele><time>2026-05-17T09:22:50Z</time><extensions><gpxtpx:TrackPointExtension><gpxtpx:hr>101</gpxtpx:hr></gpxtpx:TrackPointExtension></extensions></trkpt><trkpt lat="60.22925" lon="24.964165"><ele>25.0</ele><time>2026-05-17T09:22:53Z</time><extensions><gpxtpx:TrackPointExtension><gpxtpx:hr>101</gpxtpx:hr></gpxtpx:TrackPointExtension></extensions></trkpt><trkpt lat="60.22925" lon="24.964165"><ele>25.0</ele><time>2026-05-17T09:22:59Z</time><extensions><gpxtpx:TrackPointExtension><gpxtpx:hr>102</gpxtpx:hr></gpxtpx:TrackPointExtension></extensions></trkpt><trkpt lat="60.22925" lon="24.964165"><ele>25.0</ele><time>2026-05-17T09:23:05Z</time><extensions><gpxtpx:TrackPointExtension><gpxtpx:hr>101</gpxtpx:hr></gpxtpx:TrackPointExtension></extensions></trkpt><trkpt lat="60.22925" lon="24.964165"><ele>25.0</ele><time>2026-05-17T09:23:10Z</time><extensions><gpxtpx:TrackPointExtension><gpxtpx:hr>100</gpxtpx:hr></gpxtpx:TrackPointExtension></extensions></trkpt><trkpt lat="60.22925" lon="24.964165"><ele>25.0</ele><time>2026-05-17T09:23:13Z</time><extensions><gpxtpx:TrackPointExtension><gpxtpx:hr>100</gpxtpx:hr></gpxtpx:TrackPointExtension></extensions></trkpt><trkpt lat="60.22925" lon="24.964165"><ele>25.0</ele><time>2026-05-17T09:23:20Z</time><extensions><gpxtpx:TrackPointExtension><gpxtpx:hr>97</gpxtpx:hr></gpxtpx:TrackPointExtension></extensions></trkpt><trkpt lat="60.22925" lon="24.964165"><ele>25.0</ele><time>2026-05-17T09:23:23Z</time><extensions><gpxtpx:TrackPointExtension><gpxtpx:hr>99</gpxtpx:hr></gpxtpx:TrackPointExtension></extensions></trkpt><trkpt lat="60.22925" lon="24.964165"><ele>25.0</ele><time>2026-05-17T09:23:28Z</time><extensions><gpxtpx:TrackPointExtension><gpxtpx:hr>97</gpxtpx:hr></gpxtpx:TrackPointExtension></extensions></trkpt><trkpt lat="60.22925" lon="24.964165"><ele>25.0</ele><time>2026-05-17T09:23:34Z</time><extensions><gpxtpx:TrackPointExtension><gpxtpx:hr>95</gpxtpx:hr></gpxtpx:TrackPointExtension></extensions></trkpt><trkpt lat="60.22925" lon="24.964165"><ele>25.0</ele><time>2026-05-17T09:23:40Z</time><extensions><gpxtpx:TrackPointExtension><gpxtpx:hr>98</gpxtpx:hr></gpxtpx:TrackPointExtension></extensions></trkpt><trkpt lat="60.22925" lon="24.964165"><ele>25.0</ele><time>2026-05-17T09:23:41Z</time><extensions><gpxtpx:TrackPointExtension><gpxtpx:hr>98</gpxtpx:hr></gpxtpx:TrackPointExtension></extensions></trkpt><trkpt lat="60.22925" lon="24.964165"><ele>25.0</ele><time>2026-05-17T09:23:48Z</time><extensions><gpxtpx:TrackPointExtension><gpxtpx:hr>101</gpxtpx:hr></gpxtpx:TrackPointExtension></extensions></trkpt><trkpt lat="60.22925" lon="24.964165"><ele>25.0</ele><time>2026-05-17T09:23:51Z</time><extensions><gpxtpx:TrackPointExtension><gpxtpx:hr>99</gpxtpx:hr></gpxtpx:TrackPointExtension></extensions></trkpt><trkpt lat="60.22925" lon="24.964165"><ele>25.0</ele><time>2026-05-17T09:23:56Z</time><extensions><gpxtpx:TrackPointExtension><gpxtpx:hr>99</gpxtpx:hr></gpxtpx:TrackPointExtension></extensions></trkpt><trkpt lat="60.22925" lon="24.964165"><ele>25.0</ele><time>2026-05-17T09:24:03Z</time><extensions><gpxtpx:TrackPointExtension><gpxtpx:hr>97</gpxtpx:hr></gpxtpx:TrackPointExtension></extensions></trkpt><trkpt lat="60.22925" lon="24.964165"><ele>25.0</ele><time>2026-05-17T09:24:08Z</time><extensions><gpxtpx:TrackPointExtension><gpxtpx:hr>98</gpxtpx:hr></gpxtpx:TrackPointExtension></extensions></trkpt><trkpt lat="60.22925" lon="24.964165"><ele>25.0</ele><time>2026-05-17T09:24:13Z</time><extensions><gpxtpx:TrackPointExtension><gpxtpx:hr>98</gpxtpx:hr></gpxtpx:TrackPointExtension></extensions></trkpt><trkpt lat="60.22925" lon="24.964165"><ele>25.0</ele><time>2026-05-17T09:24:16Z</time><extensions><gpxtpx:TrackPointExtension><gpxtpx:hr>99</gpxtpx:hr></gpxtpx:TrackPointExtension></extensions></trkpt><trkpt lat="60.22925" lon="24.964165"><ele>25.0</ele><time>2026-05-17T09:24:25Z</time><extensions><gpxtpx:TrackPointExtension><gpxtpx:hr>99</gpxtpx:hr></gpxtpx:TrackPointExtension></extensions></trkpt><trkpt lat="60.22925" lon="24.964165"><ele>25.0</ele><time>2026-05-17T09:24:27Z</time><extensions><gpxtpx:TrackPointExtension><gpxtpx:hr>100</gpxtpx:hr></gpxtpx:TrackPointExtension></extensions></trkpt><trkpt lat="60.22925" lon="24.964165"><ele>25.0</ele><time>2026-05-17T09:24:35Z</time><extensions><gpxtpx:TrackPointExtension><gpxtpx:hr>98</gpxtpx:hr></gpxtpx:TrackPointExtension></extensions></trkpt><trkpt lat="60.22925" lon="24.964165"><ele>25.0</ele><time>2026-05-17T09:24:37Z</time><extensions><gpxtpx:TrackPointExtension><gpxtpx:hr>99</gpxtpx:hr></gpxtpx:TrackPointExtension></extensions></trkpt><trkpt lat="60.22925" lon="24.964165"><ele>25.0</ele><time>2026-05-17T09:24:46Z</time><extensions><gpxtpx:TrackPointExtension><gpxtpx:hr>100</gpxtpx:hr></gpxtpx:TrackPointExtension></extensions></trkpt><trkpt lat="60.22925" lon="24.964165"><ele>25.0</ele><time>2026-05-17T09:24:47Z</time><extensions><gpxtpx:TrackPointExtension><gpxtpx:hr>100</gpxtpx:hr></gpxtpx:TrackPointExtension></extensions></trkpt><trkpt lat="60.22925" lon="24.964165"><ele>25.0</ele><time>2026-05-17T09:24:55Z</time><extensions><gpxtpx:TrackPointExtension><gpxtpx:hr>97</gpxtpx:hr></gpxtpx:TrackPointExtension></extensions></trkpt><trkpt lat="60.22925" lon="24.964165"><ele>25.0</ele><time>2026-05-17T09:24:59Z</time><extensions><gpxtpx:TrackPointExtension><gpxtpx:hr>100</gpxtpx:hr></gpxtpx:TrackPointExtension></extensions></trkpt><trkpt lat="60.22925" lon="24.964165"><ele>25.0</ele><time>2026-05-17T09:25:03Z</time><extensions><gpxtpx:TrackPointExtension><gpxtpx:hr>100</gpxtpx:hr></gpxtpx:TrackPointExtension></extensions></trkpt><trkpt lat="60.22925" lon="24.964165"><ele>25.0</ele><time>2026-05-17T09:25:10Z</time><extensions><gpxtpx:TrackPointExtension><gpxtpx:hr>101</gpxtpx:hr></gpxtpx:TrackPointExtension></extensions></trkpt><trkpt lat="60.22925" lon="24.964165"><ele>25.0</ele><time>2026-05-17T09:25:15Z</time><extensions><gpxtpx:TrackPointExtension><gpxtpx:hr>102</gpxtpx:hr></gpxtpx:TrackPointExtension></extensions></trkpt><trkpt lat="60.22925" lon="24.964165"><ele>25.0</ele><time>2026-05-17T09:25:20Z</time><extensions><gpxtpx:TrackPointExtension><gpxtpx:hr>104</gpxtpx:hr></gpxtpx:TrackPointExtension></extensions></trkpt><trkpt lat="60.22925" lon="24.964165"><ele>25.0</ele><time>2026-05-17T09:25:22Z</time><extensions><gpxtpx:TrackPointExtension><gpxtpx:hr>104</gpxtpx:hr></gpxtpx:TrackPointExtension></extensions></trkpt><trkpt lat="60.22925" lon="24.964165"><ele>25.0</ele><time>2026-05-17T09:25:31Z</time><extensions><gpxtpx:TrackPointExtension><gpxtpx:hr>107</gpxtpx:hr></gpxtpx:TrackPointExtension></extensions></trkpt><trkpt lat="60.22925" lon="24.964165"><ele>25.0</ele><time>2026-05-17T09:25:34Z</time><extensions><gpxtpx:TrackPointExtension><gpxtpx:hr>106</gpxtpx:hr></gpxtpx:TrackPointExtension></extensions></trkpt><trkpt lat="60.22925" lon="24.964165"><ele>25.0</ele><time>2026-05-17T09:25:41Z</time><extensions><gpxtpx:TrackPointExtension><gpxtpx:hr>108</gpxtpx:hr></gpxtpx:TrackPointExtension></extensions></trkpt><trkpt lat="60.22925" lon="24.964165"><ele>25.0</ele><time>2026-05-17T09:25:46Z</time><extensions><gpxtpx:TrackPointExtension><gpxtpx:hr>109</gpxtpx:hr></gpxtpx:TrackPointExtension></extensions></trkpt><trkpt lat="60.22925" lon="24.964165"><ele>25.0</ele><time>2026-05-17T09:25:47Z</time><extensions><gpxtpx:TrackPointExtension><gpxtpx:hr>109</gpxtpx:hr></gpxtpx:TrackPointExtension></extensions></trkpt><trkpt lat="60.22925" lon="24.964165"><ele>25.0</ele><time>2026-05-17T09:25:54Z</time><extensions><gpxtpx:TrackPointExtension><gpxtpx:hr>110</gpxtpx:hr></gpxtpx:TrackPointExtension></extensions></trkpt><trkpt lat="60.22925" lon="24.964165"><ele>25.0</ele><time>2026-05-17T09:25:57Z</time><extensions><gpxtpx:TrackPointExtension><gpxtpx:hr>110</gpxtpx:hr></gpxtpx:TrackPointExtension></extensions></trkpt><trkpt lat="60.22925" lon="24.964165"><ele>25.0</ele><time>2026-05-17T09:26:05Z</time><extensions><gpxtpx:TrackPointExtension><gpxtpx:hr>111</gpxtpx:hr></gpxtpx:TrackPointExtension></extensions></trkpt><trkpt lat="60.22925" lon="24.964165"><ele>25.0</ele><time>2026-05-17T09:26:08Z</time><extensions><gpxtpx:TrackPointExtension><gpxtpx:hr>110</gpxtpx:hr></gpxtpx:TrackPointExtension></extensions></trkpt><trkpt lat="60.22925" lon="24.964165"><ele>25.0</ele><time>2026-05-17T09:26:15Z</time><extensions><gpxtpx:TrackPointExtension><gpxtpx:hr>110</gpxtpx:hr></gpxtpx:TrackPointExtension></extensions></trkpt><trkpt lat="60.22925" lon="24.964165"><ele>25.0</ele><time>2026-05-17T09:26:18Z</time><extensions><gpxtpx:TrackPointExtension><gpxtpx:hr>111</gpxtpx:hr></gpxtpx:TrackPointExtension></extensions></trkpt><trkpt lat="60.22925" lon="24.964165"><ele>25.0</ele><time>2026-05-17T09:26:24Z</time><extensions><gpxtpx:TrackPointExtension><gpxtpx:hr>110</gpxtpx:hr></gpxtpx:TrackPointExtension></extensions></trkpt><trkpt lat="60.22925" lon="24.964165"><ele>25.0</ele><time>2026-05-17T09:26:31Z</time><extensions><gpxtpx:TrackPointExtension><gpxtpx:hr>109</gpxtpx:hr></gpxtpx:TrackPointExtension></extensions></trkpt><trkpt lat="60.22925" lon="24.964165"><ele>25.0</ele><time>2026-05-17T09:26:32Z</time><extensions><gpxtpx:TrackPointExtension><gpxtpx:hr>109</gpxtpx:hr></gpxtpx:TrackPointExtension></extensions></trkpt><trkpt lat="60.22925" lon="24.964165"><ele>25.0</ele><time>2026-05-17T09:26:41Z</time><extensions><gpxtpx:TrackPointExtension><gpxtpx:hr>110</gpxtpx:hr></gpxtpx:TrackPointExtension></extensions></trkpt><trkpt lat="60.22925" lon="24.964165"><ele>25.0</ele><time>2026-05-17T09:26:47Z</time><extensions><gpxtpx:TrackPointExtension><gpxtpx:hr>108</gpxtpx:hr></gpxtpx:TrackPointExtension></extensions></trkpt><trkpt lat="60.22925" lon="24.964165"><ele>25.0</ele><time>2026-05-17T09:26:54Z</time><extensions><gpxtpx:TrackPointExtension><gpxtpx:hr>111</gpxtpx:hr></gpxtpx:TrackPointExtension></extensions></trkpt><trkpt lat="60.22925" lon="24.964165"><ele>25.0</ele><time>2026-05-17T09:27:01Z</time><extensions><gpxtpx:TrackPointExtension><gpxtpx:hr>110</gpxtpx:hr></gpxtpx:TrackPointExtension></extensions></trkpt><trkpt lat="60.22925" lon="24.964165"><ele>25.0</ele><time>2026-05-17T09:27:02Z</time><extensions><gpxtpx:TrackPointExtension><gpxtpx:hr>110</gpxtpx:hr></gpxtpx:TrackPointExtension></extensions></trkpt><trkpt lat="60.22925" lon="24.964165"><ele>25.0</ele><time>2026-05-17T09:27:11Z</time><extensions><gpxtpx:TrackPointExtension><gpxtpx:hr>108</gpxtpx:hr></gpxtpx:TrackPointExtension></extensions></trkpt><trkpt lat="60.22925" lon="24.964165"><ele>25.0</ele><time>2026-05-17T09:27:12Z</time><extensions><gpxtpx:TrackPointExtension><gpxtpx:hr>108</gpxtpx:hr></gpxtpx:TrackPointExtension></extensions></trkpt><trkpt lat="60.22925" lon="24.964165"><ele>25.0</ele><time>2026-05-17T09:27:17Z</time><extensions><gpxtpx:TrackPointExtension><gpxtpx:hr>111</gpxtpx:hr></gpxtpx:TrackPointExtension></extensions></trkpt><trkpt lat="60.22925" lon="24.964165"><ele>25.0</ele><time>2026-05-17T09:27:26Z</time><extensions><gpxtpx:TrackPointExtension><gpxtpx:hr>112</gpxtpx:hr></gpxtpx:TrackPointExtension></extensions></trkpt><trkpt lat="60.22925" lon="24.964165"><ele>25.0</ele><time>2026-05-17T09:27:31Z</time><extensions><gpxtpx:TrackPointExtension><gpxtpx:hr>112</gpxtpx:hr></gpxtpx:TrackPointExtension></extensions></trkpt><trkpt lat="60.22925" lon="24.964165"><ele>25.0</ele><time>2026-05-17T09:27:35Z</time><extensions><gpxtpx:TrackPointExtension><gpxtpx:hr>111</gpxtpx:hr></gpxtpx:TrackPointExtension></extensions></trkpt><trkpt lat="60.22925" lon="24.964165"><ele>25.0</ele><time>2026-05-17T09:27:37Z</time><extensions><gpxtpx:TrackPointExtension><gpxtpx:hr>111</gpxtpx:hr></gpxtpx:TrackPointExtension></extensions></trkpt><trkpt lat="60.22925" lon="24.964165"><ele>25.0</ele><time>2026-05-17T09:27:44Z</time><extensions><gpxtpx:TrackPointExtension><gpxtpx:hr>106</gpxtpx:hr></gpxtpx:TrackPointExtension></extensions></trkpt><trkpt lat="60.22925" lon="24.964165"><ele>25.0</ele><time>2026-05-17T09:27:51Z</time><extensions><gpxtpx:TrackPointExtension><gpxtpx:hr>108</gpxtpx:hr></gpxtpx:TrackPointExtension></extensions></trkpt><trkpt lat="60.22925" lon="24.964165"><ele>25.0</ele><time>2026-05-17T09:27:56Z</time><extensions><gpxtpx:TrackPointExtension><gpxtpx:hr>105</gpxtpx:hr></gpxtpx:TrackPointExtension></extensions></trkpt><trkpt lat="60.22925" lon="24.964165"><ele>25.0</ele><time>2026-05-17T09:27:57Z</time><extensions><gpxtpx:TrackPointExtension><gpxtpx:hr>105</gpxtpx:hr></gpxtpx:TrackPointExtension></extensions></trkpt><trkpt lat="60.22925" lon="24.964165"><ele>25.0</ele><time>2026-05-17T09:28:02Z</time><extensions><gpxtpx:TrackPointExtension><gpxtpx:hr>106</gpxtpx:hr></gpxtpx:TrackPointExtension></extensions></trkpt><trkpt lat="60.22925" lon="24.964165"><ele>25.0</ele><time>2026-05-17T09:28:12Z</time><extensions><gpxtpx:TrackPointExtension><gpxtpx:hr>112</gpxtpx:hr></gpxtpx:TrackPointExtension></extensions></trkpt><trkpt lat="60.22925" lon="24.964165"><ele>25.0</ele><time>2026-05-17T09:28:15Z</time><extensions><gpxtpx:TrackPointExtension><gpxtpx:hr>113</gpxtpx:hr></gpxtpx:TrackPointExtension></extensions></trkpt><trkpt lat="60.22925" lon="24.964165"><ele>25.0</ele><time>2026-05-17T09:28:18Z</time><extensions><gpxtpx:TrackPointExtension><gpxtpx:hr>113</gpxtpx:hr></gpxtpx:TrackPointExtension></extensions></trkpt><trkpt lat="60.22925" lon="24.964165"><ele>25.0</ele><time>2026-05-17T09:28:27Z</time><extensions><gpxtpx:TrackPointExtension><gpxtpx:hr>116</gpxtpx:hr></gpxtpx:TrackPointExtension></extensions></trkpt><trkpt lat="60.22925" lon="24.964165"><ele>25.0</ele><time>2026-05-17T09:28:32Z</time><extensions><gpxtpx:TrackPointExtension><gpxtpx:hr>117</gpxtpx:hr></gpxtpx:TrackPointExtension></extensions></trkpt><trkpt lat="60.22925" lon="24.964165"><ele>25.0</ele><time>2026-05-17T09:28:34Z</time><extensions><gpxtpx:TrackPointExtension><gpxtpx:hr>117</gpxtpx:hr></gpxtpx:TrackPointExtension></extensions></trkpt><trkpt lat="60.22925" lon="24.964165"><ele>25.0</ele><time>2026-05-17T09:28:42Z</time><extensions><gpxtpx:TrackPointExtension><gpxtpx:hr>113</gpxtpx:hr></gpxtpx:TrackPointExtension></extensions></trkpt><trkpt lat="60.22925" lon="24.964165"><ele>25.0</ele><time>2026-05-17T09:28:43Z</time><extensions><gpxtpx:TrackPointExtension><gpxtpx:hr>112</gpxtpx:hr></gpxtpx:TrackPointExtension></extensions></trkpt><trkpt lat="60.22925" lon="24.964165"><ele>25.0</ele><time>2026-05-17T09:28:52Z</time><extensions><gpxtpx:TrackPointExtension><gpxtpx:hr>112</gpxtpx:hr></gpxtpx:TrackPointExtension></extensions></trkpt><trkpt lat="60.22925" lon="24.964165"><ele>25.0</ele><time>2026-05-17T09:28:57Z</time><extensions><gpxtpx:TrackPointExtension><gpxtpx:hr>109</gpxtpx:hr></gpxtpx:TrackPointExtension></extensions></trkpt><trkpt lat="60.22925" lon="24.964165"><ele>25.0</ele><time>2026-05-17T09:28:59Z</time><extensions><gpxtpx:TrackPointExtension><gpxtpx:hr>110</gpxtpx:hr></gpxtpx:TrackPointExtension></extensions></trkpt><trkpt lat="60.22925" lon="24.964165"><ele>25.0</ele><time>2026-05-17T09:29:07Z</time><extensions><gpxtpx:TrackPointExtension><gpxtpx:hr>114</gpxtpx:hr></gpxtpx:TrackPointExtension></extensions></trkpt><trkpt lat="60.22925" lon="24.964165"><ele>25.0</ele><time>2026-05-17T09:29:08Z</time><extensions><gpxtpx:TrackPointExtension><gpxtpx:hr>113</gpxtpx:hr></gpxtpx:TrackPointExtension></extensions></trkpt><trkpt lat="60.22925" lon="24.964165"><ele>25.0</ele><time>2026-05-17T09:29:14Z</time><extensions><gpxtpx:TrackPointExtension><gpxtpx:hr>114</gpxtpx:hr></gpxtpx:TrackPointExtension></extensions></trkpt><trkpt lat="60.22925" lon="24.964165"><ele>25.0</ele><time>2026-05-17T09:29:22Z</time><extensions><gpxtpx:TrackPointExtension><gpxtpx:hr>113</gpxtpx:hr></gpxtpx:TrackPointExtension></extensions></trkpt><trkpt lat="60.22925" lon="24.964165"><ele>25.0</ele><time>2026-05-17T09:29:24Z</time><extensions><gpxtpx:TrackPointExtension><gpxtpx:hr>113</gpxtpx:hr></gpxtpx:TrackPointExtension></extensions></trkpt><trkpt lat="60.22925" lon="24.964165"><ele>25.0</ele><time>2026-05-17T09:29:29Z</time><extensions><gpxtpx:TrackPointExtension><gpxtpx:hr>113</gpxtpx:hr></gpxtpx:TrackPointExtension></extensions></trkpt><trkpt lat="60.22925" lon="24.964165"><ele>25.0</ele><time>2026-05-17T09:29:33Z</time><extensions><gpxtpx:TrackPointExtension><gpxtpx:hr>112</gpxtpx:hr></gpxtpx:TrackPointExtension></extensions></trkpt><trkpt lat="60.22925" lon="24.964165"><ele>25.0</ele><time>2026-05-17T09:29:42Z</time><extensions><gpxtpx:TrackPointExtension><gpxtpx:hr>112</gpxtpx:hr></gpxtpx:TrackPointExtension></extensions></trkpt><trkpt lat="60.22925" lon="24.964165"><ele>25.0</ele><time>2026-05-17T09:29:45Z</time><extensions><gpxtpx:TrackPointExtension><gpxtpx:hr>110</gpxtpx:hr></gpxtpx:TrackPointExtension></extensions></trkpt><trkpt lat="60.22925" lon="24.964165"><ele>25.0</ele><time>2026-05-17T09:29:48Z</time><extensions><gpxtpx:TrackPointExtension><gpxtpx:hr>110</gpxtpx:hr></gpxtpx:TrackPointExtension></extensions></trkpt><trkpt lat="60.22925" lon="24.964165"><ele>25.0</ele><time>2026-05-17T09:29:54Z</time><extensions><gpxtpx:TrackPointExtension><gpxtpx:hr>108</gpxtpx:hr></gpxtpx:TrackPointExtension></extensions></trkpt><trkpt lat="60.22925" lon="24.964165"><ele>25.0</ele><time>2026-05-17T09:30:01Z</time><extensions><gpxtpx:TrackPointExtension><gpxtpx:hr>109</gpxtpx:hr></gpxtpx:TrackPointExtension></extensions></trkpt><trkpt lat="60.22925" lon="24.964165"><ele>25.0</ele><time>2026-05-17T09:30:05Z</time><extensions><gpxtpx:TrackPointExtension><gpxtpx:hr>108</gpxtpx:hr></gpxtpx:TrackPointExtension></extensions></trkpt><trkpt lat="60.22925" lon="24.964165"><ele>25.0</ele><time>2026-05-17T09:30:12Z</time><extensions><gpxtpx:TrackPointExtension><gpxtpx:hr>109</gpxtpx:hr></gpxtpx:TrackPointExtension></extensions></trkpt><trkpt lat="60.22925" lon="24.964165"><ele>25.0</ele><time>2026-05-17T09:30:13Z</time><extensions><gpxtpx:TrackPointExtension><gpxtpx:hr>110</gpxtpx:hr></gpxtpx:TrackPointExtension></extensions></trkpt><trkpt lat="60.22925" lon="24.964165"><ele>25.0</ele><time>2026-05-17T09:30:21Z</time><extensions><gpxtpx:TrackPointExtension><gpxtpx:hr>112</gpxtpx:hr></gpxtpx:TrackPointExtension></extensions></trkpt><trkpt lat="60.22925" lon="24.964165"><ele>25.0</ele><time>2026-05-17T09:30:24Z</time><extensions><gpxtpx:TrackPointExtension><gpxtpx:hr>112</gpxtpx:hr></gpxtpx:TrackPointExtension></extensions></trkpt><trkpt lat="60.22925" lon="24.964165"><ele>25.0</ele><time>2026-05-17T09:30:28Z</time><extensions><gpxtpx:TrackPointExtension><gpxtpx:hr>112</gpxtpx:hr></gpxtpx:TrackPointExtension></extensions></trkpt><trkpt lat="60.22925" lon="24.964165"><ele>25.0</ele><time>2026-05-17T09:30:37Z</time><extensions><gpxtpx:TrackPointExtension><gpxtpx:hr>114</gpxtpx:hr></gpxtpx:TrackPointExtension></extensions></trkpt><trkpt lat="60.22925" lon="24.964165"><ele>25.0</ele><time>2026-05-17T09:30:42Z</time><extensions><gpxtpx:TrackPointExtension><gpxtpx:hr>112</gpxtpx:hr></gpxtpx:TrackPointExtension></extensions></trkpt><trkpt lat="60.22925" lon="24.964165"><ele>25.0</ele><time>2026-05-17T09:30:45Z</time><extensions><gpxtpx:TrackPointExtension><gpxtpx:hr>112</gpxtpx:hr></gpxtpx:TrackPointExtension></extensions></trkpt><trkpt lat="60.22925" lon="24.964165"><ele>25.0</ele><time>2026-05-17T09:30:48Z</time><extensions><gpxtpx:TrackPointExtension><gpxtpx:hr>111</gpxtpx:hr></gpxtpx:TrackPointExtension></extensions></trkpt><trkpt lat="60.22925" lon="24.964165"><ele>25.0</ele><time>2026-05-17T09:30:56Z</time><extensions><gpxtpx:TrackPointExtension><gpxtpx:hr>109</gpxtpx:hr></gpxtpx:TrackPointExtension></extensions></trkpt><trkpt lat="60.22925" lon="24.964165"><ele>25.0</ele><time>2026-05-17T09:30:58Z</time><extensions><gpxtpx:TrackPointExtension><gpxtpx:hr>111</gpxtpx:hr></gpxtpx:TrackPointExtension></extensions></trkpt><trkpt lat="60.22925" lon="24.964165"><ele>25.0</ele><time>2026-05-17T09:31:03Z</time><extensions><gpxtpx:TrackPointExtension><gpxtpx:hr>112</gpxtpx:hr></gpxtpx:TrackPointExtension></extensions></trkpt><trkpt lat="60.22925" lon="24.964165"><ele>25.0</ele><time>2026-05-17T09:31:12Z</time><extensions><gpxtpx:TrackPointExtension><gpxtpx:hr>111</gpxtpx:hr></gpxtpx:TrackPointExtension></extensions></trkpt><trkpt lat="60.22925" lon="24.964165"><ele>25.0</ele><time>2026-05-17T09:31:16Z</time><extensions><gpxtpx:TrackPointExtension><gpxtpx:hr>111</gpxtpx:hr></gpxtpx:TrackPointExtension></extensions></trkpt><trkpt lat="60.22925" lon="24.964165"><ele>25.0</ele><time>2026-05-17T09:31:21Z</time><extensions><gpxtpx:TrackPointExtension><gpxtpx:hr>110</gpxtpx:hr></gpxtpx:TrackPointExtension></extensions></trkpt><trkpt lat="60.22925" lon="24.964165"><ele>25.0</ele><time>2026-05-17T09:31:23Z</time><extensions><gpxtpx:TrackPointExtension><gpxtpx:hr>109</gpxtpx:hr></gpxtpx:TrackPointExtension></extensions></trkpt><trkpt lat="60.22925" lon="24.964165"><ele>25.0</ele><time>2026-05-17T09:31:30Z</time><extensions><gpxtpx:TrackPointExtension><gpxtpx:hr>110</gpxtpx:hr></gpxtpx:TrackPointExtension></extensions></trkpt><trkpt lat="60.22925" lon="24.964165"><ele>25.0</ele><time>2026-05-17T09:31:35Z</time><extensions><gpxtpx:TrackPointExtension><gpxtpx:hr>106</gpxtpx:hr></gpxtpx:TrackPointExtension></extensions></trkpt><trkpt lat="60.22925" lon="24.964165"><ele>25.0</ele><time>2026-05-17T09:31:40Z</time><extensions><gpxtpx:TrackPointExtension><gpxtpx:hr>108</gpxtpx:hr></gpxtpx:TrackPointExtension></extensions></trkpt><trkpt lat="60.22925" lon="24.964165"><ele>25.0</ele><time>2026-05-17T09:31:46Z</time><extensions><gpxtpx:TrackPointExtension><gpxtpx:hr>105</gpxtpx:hr></gpxtpx:TrackPointExtension></extensions></trkpt><trkpt lat="60.22925" lon="24.964165"><ele>25.0</ele><time>2026-05-17T09:31:49Z</time><extensions><gpxtpx:TrackPointExtension><gpxtpx:hr>105</gpxtpx:hr></gpxtpx:TrackPointExtension></extensions></trkpt><trkpt lat="60.22925" lon="24.964165"><ele>25.0</ele><time>2026-05-17T09:31:53Z</time><extensions><gpxtpx:TrackPointExtension><gpxtpx:hr>104</gpxtpx:hr></gpxtpx:TrackPointExtension></extensions></trkpt><trkpt lat="60.22925" lon="24.964165"><ele>25.0</ele><time>2026-05-17T09:32:02Z</time><extensions><gpxtpx:TrackPointExtension><gpxtpx:hr>101</gpxtpx:hr></gpxtpx:TrackPointExtension></extensions></trkpt><trkpt lat="60.22925" lon="24.964165"><ele>25.0</ele><time>2026-05-17T09:32:03Z</time><extensions><gpxtpx:TrackPointExtension><gpxtpx:hr>100</gpxtpx:hr></gpxtpx:TrackPointExtension></extensions></trkpt><trkpt lat="60.22925" lon="24.964165"><ele>25.0</ele><time>2026-05-17T09:32:12Z</time><extensions><gpxtpx:TrackPointExtension><gpxtpx:hr>100</gpxtpx:hr></gpxtpx:TrackPointExtension></extensions></trkpt><trkpt lat="60.22925" lon="24.964165"><ele>25.0</ele><time>2026-05-17T09:32:13Z</time><extensions><gpxtpx:TrackPointExtension><gpxtpx:hr>100</gpxtpx:hr></gpxtpx:TrackPointExtension></extensions></trkpt><trkpt lat="60.22925" lon="24.964165"><ele>25.0</ele><time>2026-05-17T09:32:22Z</time><extensions><gpxtpx:TrackPointExtension><gpxtpx:hr>93</gpxtpx:hr></gpxtpx:TrackPointExtension></extensions></trkpt><trkpt lat="60.22925" lon="24.964165"><ele>25.0</ele><time>2026-05-17T09:32:27Z</time><extensions><gpxtpx:TrackPointExtension><gpxtpx:hr>97</gpxtpx:hr></gpxtpx:TrackPointExtension></extensions></trkpt><trkpt lat="60.22925" lon="24.964165"><ele>25.0</ele><time>2026-05-17T09:32:31Z</time><extensions><gpxtpx:TrackPointExtension><gpxtpx:hr>100</gpxtpx:hr></gpxtpx:TrackPointExtension></extensions></trkpt><trkpt lat="60.22925" lon="24.964165"><ele>25.0</ele><time>2026-05-17T09:32:36Z</time><extensions><gpxtpx:TrackPointExtension><gpxtpx:hr>96</gpxtpx:hr></gpxtpx:TrackPointExtension></extensions></trkpt><trkpt lat="60.22925" lon="24.964165"><ele>25.0</ele><time>2026-05-17T09:32:38Z</time><extensions><gpxtpx:TrackPointExtension><gpxtpx:hr>93</gpxtpx:hr></gpxtpx:TrackPointExtension></extensions></trkpt><trkpt lat="60.22925" lon="24.964165"><ele>25.0</ele><time>2026-05-17T09:32:45Z</time><extensions><gpxtpx:TrackPointExtension><gpxtpx:hr>94</gpxtpx:hr></gpxtpx:TrackPointExtension></extensions></trkpt><trkpt lat="60.22925" lon="24.964165"><ele>25.0</ele><time>2026-05-17T09:32:48Z</time><extensions><gpxtpx:TrackPointExtension><gpxtpx:hr>102</gpxtpx:hr></gpxtpx:TrackPointExtension></extensions></trkpt><trkpt lat="60.22925" lon="24.964165"><ele>25.0</ele><time>2026-05-17T09:32:54Z</time><extensions><gpxtpx:TrackPointExtension><gpxtpx:hr>111</gpxtpx:hr></gpxtpx:TrackPointExtension></extensions></trkpt><trkpt lat="60.22925" lon="24.964165"><ele>25.0</ele><time>2026-05-17T09:33:13Z</time><extensions><gpxtpx:TrackPointExtension><gpxtpx:hr>116</gpxtpx:hr></gpxtpx:TrackPointExtension></extensions></trkpt><trkpt lat="60.22925" lon="24.964165"><ele>25.0</ele><time>2026-05-17T09:33:22Z</time><extensions><gpxtpx:TrackPointExtension><gpxtpx:hr>95</gpxtpx:hr></gpxtpx:TrackPointExtension></extensions></trkpt><trkpt lat="60.22925" lon="24.964165"><ele>25.0</ele><time>2026-05-17T09:33:25Z</time><extensions><gpxtpx:TrackPointExtension><gpxtpx:hr>93</gpxtpx:hr></gpxtpx:TrackPointExtension></extensions></trkpt><trkpt lat="60.22925" lon="24.964165"><ele>25.0</ele><time>2026-05-17T09:33:28Z</time><extensions><gpxtpx:TrackPointExtension><gpxtpx:hr>93</gpxtpx:hr></gpxtpx:TrackPointExtension></extensions></trkpt><trkpt lat="60.22925" lon="24.964165"><ele>25.0</ele><time>2026-05-17T09:33:37Z</time><extensions><gpxtpx:TrackPointExtension><gpxtpx:hr>91</gpxtpx:hr></gpxtpx:TrackPointExtension></extensions></trkpt><trkpt lat="60.22925" lon="24.964165"><ele>25.0</ele><time>2026-05-17T09:33:39Z</time><extensions><gpxtpx:TrackPointExtension><gpxtpx:hr>90</gpxtpx:hr></gpxtpx:TrackPointExtension></extensions></trkpt><trkpt lat="60.22925" lon="24.964165"><ele>25.0</ele><time>2026-05-17T09:33:43Z</time><extensions><gpxtpx:TrackPointExtension><gpxtpx:hr>92</gpxtpx:hr></gpxtpx:TrackPointExtension></extensions></trkpt><trkpt lat="60.22925" lon="24.964165"><ele>25.0</ele><time>2026-05-17T09:33:48Z</time><extensions><gpxtpx:TrackPointExtension><gpxtpx:hr>99</gpxtpx:hr></gpxtpx:TrackPointExtension></extensions></trkpt><trkpt lat="60.22925" lon="24.964165"><ele>25.0</ele><time>2026-05-17T09:33:53Z</time><extensions><gpxtpx:TrackPointExtension><gpxtpx:hr>105</gpxtpx:hr></gpxtpx:TrackPointExtension></extensions></trkpt><trkpt lat="60.22925" lon="24.964165"><ele>25.0</ele><time>2026-05-17T09:34:02Z</time><extensions><gpxtpx:TrackPointExtension><gpxtpx:hr>104</gpxtpx:hr></gpxtpx:TrackPointExtension></extensions></trkpt><trkpt lat="60.22925" lon="24.964165"><ele>25.0</ele><time>2026-05-17T09:34:07Z</time><extensions><gpxtpx:TrackPointExtension><gpxtpx:hr>100</gpxtpx:hr></gpxtpx:TrackPointExtension></extensions></trkpt><trkpt lat="60.22925" lon="24.964165"><ele>25.0</ele><time>2026-05-17T09:34:08Z</time><extensions><gpxtpx:TrackPointExtension><gpxtpx:hr>101</gpxtpx:hr></gpxtpx:TrackPointExtension></extensions></trkpt><trkpt lat="60.22925" lon="24.964165"><ele>25.0</ele><time>2026-05-17T09:34:13Z</time><extensions><gpxtpx:TrackPointExtension><gpxtpx:hr>104</gpxtpx:hr></gpxtpx:TrackPointExtension></extensions></trkpt><trkpt lat="60.22925" lon="24.964165"><ele>25.0</ele><time>2026-05-17T09:34:21Z</time><extensions><gpxtpx:TrackPointExtension><gpxtpx:hr>113</gpxtpx:hr></gpxtpx:TrackPointExtension></extensions></trkpt><trkpt lat="60.22925" lon="24.964165"><ele>25.0</ele><time>2026-05-17T09:34:25Z</time><extensions><gpxtpx:TrackPointExtension><gpxtpx:hr>119</gpxtpx:hr></gpxtpx:TrackPointExtension></extensions></trkpt><trkpt lat="60.22925" lon="24.964165"><ele>25.0</ele><time>2026-05-17T09:34:28Z</time><extensions><gpxtpx:TrackPointExtension><gpxtpx:hr>118</gpxtpx:hr></gpxtpx:TrackPointExtension></extensions></trkpt><trkpt lat="60.22925" lon="24.964165"><ele>25.0</ele><time>2026-05-17T09:34:36Z</time><extensions><gpxtpx:TrackPointExtension><gpxtpx:hr>123</gpxtpx:hr></gpxtpx:TrackPointExtension></extensions></trkpt><trkpt lat="60.22925" lon="24.964165"><ele>25.0</ele><time>2026-05-17T09:34:42Z</time><extensions><gpxtpx:TrackPointExtension><gpxtpx:hr>118</gpxtpx:hr></gpxtpx:TrackPointExtension></extensions></trkpt><trkpt lat="60.22925" lon="24.964165"><ele>25.0</ele><time>2026-05-17T09:34:47Z</time><extensions><gpxtpx:TrackPointExtension><gpxtpx:hr>115</gpxtpx:hr></gpxtpx:TrackPointExtension></extensions></trkpt><trkpt lat="60.22925" lon="24.964165"><ele>25.0</ele><time>2026-05-17T09:34:51Z</time><extensions><gpxtpx:TrackPointExtension><gpxtpx:hr>114</gpxtpx:hr></gpxtpx:TrackPointExtension></extensions></trkpt><trkpt lat="60.22925" lon="24.964165"><ele>25.0</ele><time>2026-05-17T09:34:57Z</time><extensions><gpxtpx:TrackPointExtension><gpxtpx:hr>110</gpxtpx:hr></gpxtpx:TrackPointExtension></extensions></trkpt><trkpt lat="60.22925" lon="24.964165"><ele>25.0</ele><time>2026-05-17T09:35:02Z</time><extensions><gpxtpx:TrackPointExtension><gpxtpx:hr>108</gpxtpx:hr></gpxtpx:TrackPointExtension></extensions></trkpt><trkpt lat="60.22925" lon="24.964165"><ele>25.0</ele><time>2026-05-17T09:35:03Z</time><extensions><gpxtpx:TrackPointExtension><gpxtpx:hr>107</gpxtpx:hr></gpxtpx:TrackPointExtension></extensions></trkpt><trkpt lat="60.22925" lon="24.964165"><ele>25.0</ele><time>2026-05-17T09:35:09Z</time><extensions><gpxtpx:TrackPointExtension><gpxtpx:hr>103</gpxtpx:hr></gpxtpx:TrackPointExtension></extensions></trkpt><trkpt lat="60.22925" lon="24.964165"><ele>25.0</ele><time>2026-05-17T09:35:13Z</time><extensions><gpxtpx:TrackPointExtension><gpxtpx:hr>103</gpxtpx:hr></gpxtpx:TrackPointExtension></extensions></trkpt><trkpt lat="60.22925" lon="24.964165"><ele>25.0</ele><time>2026-05-17T09:35:20Z</time><extensions><gpxtpx:TrackPointExtension><gpxtpx:hr>95</gpxtpx:hr></gpxtpx:TrackPointExtension></extensions></trkpt><trkpt lat="60.22925" lon="24.964165"><ele>25.0</ele><time>2026-05-17T09:35:23Z</time><extensions><gpxtpx:TrackPointExtension><gpxtpx:hr>95</gpxtpx:hr></gpxtpx:TrackPointExtension></extensions></trkpt><trkpt lat="60.22925" lon="24.964165"><ele>25.0</ele><time>2026-05-17T09:35:32Z</time><extensions><gpxtpx:TrackPointExtension><gpxtpx:hr>90</gpxtpx:hr></gpxtpx:TrackPointExtension></extensions></trkpt><trkpt lat="60.22925" lon="24.964165"><ele>25.0</ele><time>2026-05-17T09:35:37Z</time><extensions><gpxtpx:TrackPointExtension><gpxtpx:hr>88</gpxtpx:hr></gpxtpx:TrackPointExtension></extensions></trkpt><trkpt lat="60.22925" lon="24.964165"><ele>25.0</ele><time>2026-05-17T09:35:42Z</time><extensions><gpxtpx:TrackPointExtension><gpxtpx:hr>81</gpxtpx:hr></gpxtpx:TrackPointExtension></extensions></trkpt><trkpt lat="60.22925" lon="24.964165"><ele>25.0</ele><time>2026-05-17T09:35:44Z</time><extensions><gpxtpx:TrackPointExtension><gpxtpx:hr>80</gpxtpx:hr></gpxtpx:TrackPointExtension></extensions></trkpt><trkpt lat="60.22925" lon="24.964165"><ele>25.0</ele><time>2026-05-17T09:35:50Z</time><extensions><gpxtpx:TrackPointExtension><gpxtpx:hr>80</gpxtpx:hr></gpxtpx:TrackPointExtension></extensions></trkpt><trkpt lat="60.22925" lon="24.964165"><ele>25.0</ele><time>2026-05-17T09:35:55Z</time><extensions><gpxtpx:TrackPointExtension><gpxtpx:hr>81</gpxtpx:hr></gpxtpx:TrackPointExtension></extensions></trkpt><trkpt lat="60.22925" lon="24.964165"><ele>25.0</ele><time>2026-05-17T09:36:01Z</time><extensions><gpxtpx:TrackPointExtension><gpxtpx:hr>79</gpxtpx:hr></gpxtpx:TrackPointExtension></extensions></trkpt><trkpt lat="60.22925" lon="24.964165"><ele>25.0</ele><time>2026-05-17T09:36:06Z</time><extensions><gpxtpx:TrackPointExtension><gpxtpx:hr>80</gpxtpx:hr></gpxtpx:TrackPointExtension></extensions></trkpt><trkpt lat="60.22925" lon="24.964165"><ele>25.0</ele><time>2026-05-17T09:36:10Z</time><extensions><gpxtpx:TrackPointExtension><gpxtpx:hr>80</gpxtpx:hr></gpxtpx:TrackPointExtension></extensions></trkpt><trkpt lat="60.22925" lon="24.964165"><ele>25.0</ele><time>2026-05-17T09:36:16Z</time><extensions><gpxtpx:TrackPointExtension><gpxtpx:hr>79</gpxtpx:hr></gpxtpx:TrackPointExtension></extensions></trkpt><trkpt lat="60.22925" lon="24.964165"><ele>25.0</ele><time>2026-05-17T09:36:22Z</time><extensions><gpxtpx:TrackPointExtension><gpxtpx:hr>78</gpxtpx:hr></gpxtpx:TrackPointExtension></extensions></trkpt><trkpt lat="60.22925" lon="24.964165"><ele>25.0</ele><time>2026-05-17T09:36:25Z</time><extensions><gpxtpx:TrackPointExtension><gpxtpx:hr>78</gpxtpx:hr></gpxtpx:TrackPointExtension></extensions></trkpt><trkpt lat="60.22925" lon="24.964165"><ele>25.0</ele><time>2026-05-17T09:36:28Z</time><extensions><gpxtpx:TrackPointExtension><gpxtpx:hr>78</gpxtpx:hr></gpxtpx:TrackPointExtension></extensions></trkpt><trkpt lat="60.22925" lon="24.964165"><ele>25.0</ele><time>2026-05-17T09:36:33Z</time><extensions><gpxtpx:TrackPointExtension><gpxtpx:hr>81</gpxtpx:hr></gpxtpx:TrackPointExtension></extensions></trkpt><trkpt lat="60.22925" lon="24.964165"><ele>25.0</ele><time>2026-05-17T09:36:38Z</time><extensions><gpxtpx:TrackPointExtension><gpxtpx:hr>89</gpxtpx:hr></gpxtpx:TrackPointExtension></extensions></trkpt><trkpt lat="60.22925" lon="24.964165"><ele>25.0</ele><time>2026-05-17T09:36:43Z</time><extensions><gpxtpx:TrackPointExtension><gpxtpx:hr>99</gpxtpx:hr></gpxtpx:TrackPointExtension></extensions></trkpt><trkpt lat="60.22925" lon="24.964165"><ele>25.0</ele><time>2026-05-17T09:36:52Z</time><extensions><gpxtpx:TrackPointExtension><gpxtpx:hr>110</gpxtpx:hr></gpxtpx:TrackPointExtension></extensions></trkpt><trkpt lat="60.22925" lon="24.964165"><ele>25.0</ele><time>2026-05-17T09:36:57Z</time><extensions><gpxtpx:TrackPointExtension><gpxtpx:hr>105</gpxtpx:hr></gpxtpx:TrackPointExtension></extensions></trkpt><trkpt lat="60.22925" lon="24.964165"><ele>25.0</ele><time>2026-05-17T09:37:01Z</time><extensions><gpxtpx:TrackPointExtension><gpxtpx:hr>102</gpxtpx:hr></gpxtpx:TrackPointExtension></extensions></trkpt><trkpt lat="60.22925" lon="24.964165"><ele>25.0</ele><time>2026-05-17T09:37:03Z</time><extensions><gpxtpx:TrackPointExtension><gpxtpx:hr>101</gpxtpx:hr></gpxtpx:TrackPointExtension></extensions></trkpt><trkpt lat="60.22925" lon="24.964165"><ele>25.0</ele><time>2026-05-17T09:37:08Z</time><extensions><gpxtpx:TrackPointExtension><gpxtpx:hr>107</gpxtpx:hr></gpxtpx:TrackPointExtension></extensions></trkpt><trkpt lat="60.22925" lon="24.964165"><ele>25.0</ele><time>2026-05-17T09:37:17Z</time><extensions><gpxtpx:TrackPointExtension><gpxtpx:hr>118</gpxtpx:hr></gpxtpx:TrackPointExtension></extensions></trkpt><trkpt lat="60.22925" lon="24.964165"><ele>25.0</ele><time>2026-05-17T09:37:22Z</time><extensions><gpxtpx:TrackPointExtension><gpxtpx:hr>123</gpxtpx:hr></gpxtpx:TrackPointExtension></extensions></trkpt><trkpt lat="60.22925" lon="24.964165"><ele>25.0</ele><time>2026-05-17T09:37:26Z</time><extensions><gpxtpx:TrackPointExtension><gpxtpx:hr>126</gpxtpx:hr></gpxtpx:TrackPointExtension></extensions></trkpt><trkpt lat="60.22925" lon="24.964165"><ele>25.0</ele><time>2026-05-17T09:37:28Z</time><extensions><gpxtpx:TrackPointExtension><gpxtpx:hr>127</gpxtpx:hr></gpxtpx:TrackPointExtension></extensions></trkpt><trkpt lat="60.22925" lon="24.964165"><ele>25.0</ele><time>2026-05-17T09:37:34Z</time><extensions><gpxtpx:TrackPointExtension><gpxtpx:hr>129</gpxtpx:hr></gpxtpx:TrackPointExtension></extensions></trkpt><trkpt lat="60.22925" lon="24.964165"><ele>25.0</ele><time>2026-05-17T09:37:42Z</time><extensions><gpxtpx:TrackPointExtension><gpxtpx:hr>118</gpxtpx:hr></gpxtpx:TrackPointExtension></extensions></trkpt><trkpt lat="60.22925" lon="24.964165"><ele>25.0</ele><time>2026-05-17T09:37:46Z</time><extensions><gpxtpx:TrackPointExtension><gpxtpx:hr>116</gpxtpx:hr></gpxtpx:TrackPointExtension></extensions></trkpt><trkpt lat="60.22925" lon="24.964165"><ele>25.0</ele><time>2026-05-17T09:37:52Z</time><extensions><gpxtpx:TrackPointExtension><gpxtpx:hr>110</gpxtpx:hr></gpxtpx:TrackPointExtension></extensions></trkpt><trkpt lat="60.22925" lon="24.964165"><ele>25.0</ele><time>2026-05-17T09:37:53Z</time><extensions><gpxtpx:TrackPointExtension><gpxtpx:hr>109</gpxtpx:hr></gpxtpx:TrackPointExtension></extensions></trkpt><trkpt lat="60.22925" lon="24.964165"><ele>25.0</ele><time>2026-05-17T09:38:02Z</time><extensions><gpxtpx:TrackPointExtension><gpxtpx:hr>97</gpxtpx:hr></gpxtpx:TrackPointExtension></extensions></trkpt><trkpt lat="60.22925" lon="24.964165"><ele>25.0</ele><time>2026-05-17T09:38:04Z</time><extensions><gpxtpx:TrackPointExtension><gpxtpx:hr>96</gpxtpx:hr></gpxtpx:TrackPointExtension></extensions></trkpt><trkpt lat="60.22925" lon="24.964165"><ele>25.0</ele><time>2026-05-17T09:38:12Z</time><extensions><gpxtpx:TrackPointExtension><gpxtpx:hr>89</gpxtpx:hr></gpxtpx:TrackPointExtension></extensions></trkpt><trkpt lat="60.22925" lon="24.964165"><ele>25.0</ele><time>2026-05-17T09:38:17Z</time><extensions><gpxtpx:TrackPointExtension><gpxtpx:hr>87</gpxtpx:hr></gpxtpx:TrackPointExtension></extensions></trkpt><trkpt lat="60.22925" lon="24.964165"><ele>25.0</ele><time>2026-05-17T09:38:20Z</time><extensions><gpxtpx:TrackPointExtension><gpxtpx:hr>86</gpxtpx:hr></gpxtpx:TrackPointExtension></extensions></trkpt><trkpt lat="60.22925" lon="24.964165"><ele>25.0</ele><time>2026-05-17T09:38:26Z</time><extensions><gpxtpx:TrackPointExtension><gpxtpx:hr>85</gpxtpx:hr></gpxtpx:TrackPointExtension></extensions></trkpt><trkpt lat="60.22925" lon="24.964165"><ele>25.0</ele><time>2026-05-17T09:38:28Z</time><extensions><gpxtpx:TrackPointExtension><gpxtpx:hr>85</gpxtpx:hr></gpxtpx:TrackPointExtension></extensions></trkpt><trkpt lat="60.22925" lon="24.964165"><ele>25.0</ele><time>2026-05-17T09:38:33Z</time><extensions><gpxtpx:TrackPointExtension><gpxtpx:hr>81</gpxtpx:hr></gpxtpx:TrackPointExtension></extensions></trkpt><trkpt lat="60.22925" lon="24.964165"><ele>25.0</ele><time>2026-05-17T09:38:38Z</time><extensions><gpxtpx:TrackPointExtension><gpxtpx:hr>86</gpxtpx:hr></gpxtpx:TrackPointExtension></extensions></trkpt><trkpt lat="60.22925" lon="24.964165"><ele>25.0</ele><time>2026-05-17T09:38:47Z</time><extensions><gpxtpx:TrackPointExtension><gpxtpx:hr>92</gpxtpx:hr></gpxtpx:TrackPointExtension></extensions></trkpt><trkpt lat="60.22925" lon="24.964165"><ele>25.0</ele><time>2026-05-17T09:38:51Z</time><extensions><gpxtpx:TrackPointExtension><gpxtpx:hr>90</gpxtpx:hr></gpxtpx:TrackPointExtension></extensions></trkpt><trkpt lat="60.22925" lon="24.964165"><ele>25.0</ele><time>2026-05-17T09:38:53Z</time><extensions><gpxtpx:TrackPointExtension><gpxtpx:hr>91</gpxtpx:hr></gpxtpx:TrackPointExtension></extensions></trkpt><trkpt lat="60.22925" lon="24.964165"><ele>25.0</ele><time>2026-05-17T09:39:02Z</time><extensions><gpxtpx:TrackPointExtension><gpxtpx:hr>88</gpxtpx:hr></gpxtpx:TrackPointExtension></extensions></trkpt><trkpt lat="60.22925" lon="24.964165"><ele>25.0</ele><time>2026-05-17T09:39:03Z</time><extensions><gpxtpx:TrackPointExtension><gpxtpx:hr>88</gpxtpx:hr></gpxtpx:TrackPointExtension></extensions></trkpt><trkpt lat="60.22925" lon="24.964165"><ele>25.0</ele><time>2026-05-17T09:39:08Z</time><extensions><gpxtpx:TrackPointExtension><gpxtpx:hr>91</gpxtpx:hr></gpxtpx:TrackPointExtension></extensions></trkpt><trkpt lat="60.22925" lon="24.964165"><ele>25.0</ele><time>2026-05-17T09:39:13Z</time><extensions><gpxtpx:TrackPointExtension><gpxtpx:hr>99</gpxtpx:hr></gpxtpx:TrackPointExtension></extensions></trkpt><trkpt lat="60.22925" lon="24.964165"><ele>25.0</ele><time>2026-05-17T09:39:18Z</time><extensions><gpxtpx:TrackPointExtension><gpxtpx:hr>108</gpxtpx:hr></gpxtpx:TrackPointExtension></extensions></trkpt><trkpt lat="60.22925" lon="24.964165"><ele>25.0</ele><time>2026-05-17T09:39:27Z</time><extensions><gpxtpx:TrackPointExtension><gpxtpx:hr>115</gpxtpx:hr></gpxtpx:TrackPointExtension></extensions></trkpt><trkpt lat="60.22925" lon="24.964165"><ele>25.0</ele><time>2026-05-17T09:39:32Z</time><extensions><gpxtpx:TrackPointExtension><gpxtpx:hr>105</gpxtpx:hr></gpxtpx:TrackPointExtension></extensions></trkpt><trkpt lat="60.22925" lon="24.964165"><ele>25.0</ele><time>2026-05-17T09:39:35Z</time><extensions><gpxtpx:TrackPointExtension><gpxtpx:hr>101</gpxtpx:hr></gpxtpx:TrackPointExtension></extensions></trkpt><trkpt lat="60.22925" lon="24.964165"><ele>25.0</ele><time>2026-05-17T09:39:38Z</time><extensions><gpxtpx:TrackPointExtension><gpxtpx:hr>103</gpxtpx:hr></gpxtpx:TrackPointExtension></extensions></trkpt><trkpt lat="60.22925" lon="24.964165"><ele>25.0</ele><time>2026-05-17T09:39:43Z</time><extensions><gpxtpx:TrackPointExtension><gpxtpx:hr>107</gpxtpx:hr></gpxtpx:TrackPointExtension></extensions></trkpt><trkpt lat="60.22925" lon="24.964165"><ele>25.0</ele><time>2026-05-17T09:39:48Z</time><extensions><gpxtpx:TrackPointExtension><gpxtpx:hr>113</gpxtpx:hr></gpxtpx:TrackPointExtension></extensions></trkpt><trkpt lat="60.22925" lon="24.964165"><ele>25.0</ele><time>2026-05-17T09:39:53Z</time><extensions><gpxtpx:TrackPointExtension><gpxtpx:hr>118</gpxtpx:hr></gpxtpx:TrackPointExtension></extensions></trkpt><trkpt lat="60.22925" lon="24.964165"><ele>25.0</ele><time>2026-05-17T09:39:58Z</time><extensions><gpxtpx:TrackPointExtension><gpxtpx:hr>119</gpxtpx:hr></gpxtpx:TrackPointExtension></extensions></trkpt><trkpt lat="60.22925" lon="24.964165"><ele>25.0</ele><time>2026-05-17T09:40:03Z</time><extensions><gpxtpx:TrackPointExtension><gpxtpx:hr>121</gpxtpx:hr></gpxtpx:TrackPointExtension></extensions></trkpt><trkpt lat="60.22925" lon="24.964165"><ele>25.0</ele><time>2026-05-17T09:40:12Z</time><extensions><gpxtpx:TrackPointExtension><gpxtpx:hr>124</gpxtpx:hr></gpxtpx:TrackPointExtension></extensions></trkpt><trkpt lat="60.22925" lon="24.964165"><ele>25.0</ele><time>2026-05-17T09:40:17Z</time><extensions><gpxtpx:TrackPointExtension><gpxtpx:hr>121</gpxtpx:hr></gpxtpx:TrackPointExtension></extensions></trkpt><trkpt lat="60.22925" lon="24.964165"><ele>25.0</ele><time>2026-05-17T09:40:19Z</time><extensions><gpxtpx:TrackPointExtension><gpxtpx:hr>121</gpxtpx:hr></gpxtpx:TrackPointExtension></extensions></trkpt><trkpt lat="60.22925" lon="24.964165"><ele>25.0</ele><time>2026-05-17T09:40:25Z</time><extensions><gpxtpx:TrackPointExtension><gpxtpx:hr>117</gpxtpx:hr></gpxtpx:TrackPointExtension></extensions></trkpt><trkpt lat="60.22925" lon="24.964165"><ele>25.0</ele><time>2026-05-17T09:40:32Z</time><extensions><gpxtpx:TrackPointExtension><gpxtpx:hr>108</gpxtpx:hr></gpxtpx:TrackPointExtension></extensions></trkpt><trkpt lat="60.22925" lon="24.964165"><ele>25.0</ele><time>2026-05-17T09:40:33Z</time><extensions><gpxtpx:TrackPointExtension><gpxtpx:hr>108</gpxtpx:hr></gpxtpx:TrackPointExtension></extensions></trkpt><trkpt lat="60.22925" lon="24.964165"><ele>25.0</ele><time>2026-05-17T09:40:42Z</time><extensions><gpxtpx:TrackPointExtension><gpxtpx:hr>92</gpxtpx:hr></gpxtpx:TrackPointExtension></extensions></trkpt><trkpt lat="60.22925" lon="24.964165"><ele>25.0</ele><time>2026-05-17T09:40:44Z</time><extensions><gpxtpx:TrackPointExtension><gpxtpx:hr>91</gpxtpx:hr></gpxtpx:TrackPointExtension></extensions></trkpt><trkpt lat="60.22925" lon="24.964165"><ele>25.0</ele><time>2026-05-17T09:40:52Z</time><extensions><gpxtpx:TrackPointExtension><gpxtpx:hr>85</gpxtpx:hr></gpxtpx:TrackPointExtension></extensions></trkpt><trkpt lat="60.22925" lon="24.964165"><ele>25.0</ele><time>2026-05-17T09:40:57Z</time><extensions><gpxtpx:TrackPointExtension><gpxtpx:hr>84</gpxtpx:hr></gpxtpx:TrackPointExtension></extensions></trkpt><trkpt lat="60.22925" lon="24.964165"><ele>25.0</ele><time>2026-05-17T09:40:58Z</time><extensions><gpxtpx:TrackPointExtension><gpxtpx:hr>84</gpxtpx:hr></gpxtpx:TrackPointExtension></extensions></trkpt><trkpt lat="60.22925" lon="24.964165"><ele>25.0</ele><time>2026-05-17T09:41:04Z</time><extensions><gpxtpx:TrackPointExtension><gpxtpx:hr>86</gpxtpx:hr></gpxtpx:TrackPointExtension></extensions></trkpt><trkpt lat="60.22925" lon="24.964165"><ele>25.0</ele><time>2026-05-17T09:41:10Z</time><extensions><gpxtpx:TrackPointExtension><gpxtpx:hr>83</gpxtpx:hr></gpxtpx:TrackPointExtension></extensions></trkpt><trkpt lat="60.22925" lon="24.964165"><ele>25.0</ele><time>2026-05-17T09:41:16Z</time><extensions><gpxtpx:TrackPointExtension><gpxtpx:hr>82</gpxtpx:hr></gpxtpx:TrackPointExtension></extensions></trkpt><trkpt lat="60.22925" lon="24.964165"><ele>25.0</ele><time>2026-05-17T09:41:21Z</time><extensions><gpxtpx:TrackPointExtension><gpxtpx:hr>81</gpxtpx:hr></gpxtpx:TrackPointExtension></extensions></trkpt><trkpt lat="60.22925" lon="24.964165"><ele>25.0</ele><time>2026-05-17T09:41:26Z</time><extensions><gpxtpx:TrackPointExtension><gpxtpx:hr>81</gpxtpx:hr></gpxtpx:TrackPointExtension></extensions></trkpt><trkpt lat="60.22925" lon="24.964165"><ele>25.0</ele><time>2026-05-17T09:41:31Z</time><extensions><gpxtpx:TrackPointExtension><gpxtpx:hr>80</gpxtpx:hr></gpxtpx:TrackPointExtension></extensions></trkpt><trkpt lat="60.22925" lon="24.964165"><ele>25.0</ele><time>2026-05-17T09:41:33Z</time><extensions><gpxtpx:TrackPointExtension><gpxtpx:hr>81</gpxtpx:hr></gpxtpx:TrackPointExtension></extensions></trkpt><trkpt lat="60.22925" lon="24.964165"><ele>25.0</ele><time>2026-05-17T09:41:38Z</time><extensions><gpxtpx:TrackPointExtension><gpxtpx:hr>82</gpxtpx:hr></gpxtpx:TrackPointExtension></extensions></trkpt><trkpt lat="60.22925" lon="24.964165"><ele>25.0</ele><time>2026-05-17T09:41:43Z</time><extensions><gpxtpx:TrackPointExtension><gpxtpx:hr>84</gpxtpx:hr></gpxtpx:TrackPointExtension></extensions></trkpt><trkpt lat="60.22925" lon="24.964165"><ele>25.0</ele><time>2026-05-17T09:41:49Z</time><extensions><gpxtpx:TrackPointExtension><gpxtpx:hr>87</gpxtpx:hr></gpxtpx:TrackPointExtension></extensions></trkpt><trkpt lat="60.22925" lon="24.964165"><ele>25.0</ele><time>2026-05-17T09:41:53Z</time><extensions><gpxtpx:TrackPointExtension><gpxtpx:hr>91</gpxtpx:hr></gpxtpx:TrackPointExtension></extensions></trkpt><trkpt lat="60.22925" lon="24.964165"><ele>25.0</ele><time>2026-05-17T09:41:58Z</time><extensions><gpxtpx:TrackPointExtension><gpxtpx:hr>92</gpxtpx:hr></gpxtpx:TrackPointExtension></extensions></trkpt><trkpt lat="60.22925" lon="24.964165"><ele>25.0</ele><time>2026-05-17T09:42:03Z</time><extensions><gpxtpx:TrackPointExtension><gpxtpx:hr>93</gpxtpx:hr></gpxtpx:TrackPointExtension></extensions></trkpt><trkpt lat="60.22925" lon="24.964165"><ele>25.0</ele><time>2026-05-17T09:42:08Z</time><extensions><gpxtpx:TrackPointExtension><gpxtpx:hr>100</gpxtpx:hr></gpxtpx:TrackPointExtension></extensions></trkpt><trkpt lat="60.22925" lon="24.964165"><ele>25.0</ele><time>2026-05-17T09:42:14Z</time><extensions><gpxtpx:TrackPointExtension><gpxtpx:hr>110</gpxtpx:hr></gpxtpx:TrackPointExtension></extensions></trkpt><trkpt lat="60.22925" lon="24.964165"><ele>25.0</ele><time>2026-05-17T09:42:22Z</time><extensions><gpxtpx:TrackPointExtension><gpxtpx:hr>120</gpxtpx:hr></gpxtpx:TrackPointExtension></extensions></trkpt><trkpt lat="60.22925" lon="24.964165"><ele>25.0</ele><time>2026-05-17T09:42:27Z</time><extensions><gpxtpx:TrackPointExtension><gpxtpx:hr>112</gpxtpx:hr></gpxtpx:TrackPointExtension></extensions></trkpt><trkpt lat="60.22925" lon="24.964165"><ele>25.0</ele><time>2026-05-17T09:42:32Z</time><extensions><gpxtpx:TrackPointExtension><gpxtpx:hr>103</gpxtpx:hr></gpxtpx:TrackPointExtension></extensions></trkpt><trkpt lat="60.22925" lon="24.964165"><ele>25.0</ele><time>2026-05-17T09:42:35Z</time><extensions><gpxtpx:TrackPointExtension><gpxtpx:hr>101</gpxtpx:hr></gpxtpx:TrackPointExtension></extensions></trkpt><trkpt lat="60.22925" lon="24.964165"><ele>25.0</ele><time>2026-05-17T09:42:38Z</time><extensions><gpxtpx:TrackPointExtension><gpxtpx:hr>101</gpxtpx:hr></gpxtpx:TrackPointExtension></extensions></trkpt><trkpt lat="60.22925" lon="24.964165"><ele>25.0</ele><time>2026-05-17T09:42:43Z</time><extensions><gpxtpx:TrackPointExtension><gpxtpx:hr>104</gpxtpx:hr></gpxtpx:TrackPointExtension></extensions></trkpt><trkpt lat="60.22925" lon="24.964165"><ele>25.0</ele><time>2026-05-17T09:42:49Z</time><extensions><gpxtpx:TrackPointExtension><gpxtpx:hr>115</gpxtpx:hr></gpxtpx:TrackPointExtension></extensions></trkpt><trkpt lat="60.22925" lon="24.964165"><ele>25.0</ele><time>2026-05-17T09:42:53Z</time><extensions><gpxtpx:TrackPointExtension><gpxtpx:hr>122</gpxtpx:hr></gpxtpx:TrackPointExtension></extensions></trkpt><trkpt lat="60.22925" lon="24.964165"><ele>25.0</ele><time>2026-05-17T09:43:02Z</time><extensions><gpxtpx:TrackPointExtension><gpxtpx:hr>131</gpxtpx:hr></gpxtpx:TrackPointExtension></extensions></trkpt><trkpt lat="60.22925" lon="24.964165"><ele>25.0</ele><time>2026-05-17T09:43:03Z</time><extensions><gpxtpx:TrackPointExtension><gpxtpx:hr>130</gpxtpx:hr></gpxtpx:TrackPointExtension></extensions></trkpt><trkpt lat="60.22925" lon="24.964165"><ele>25.0</ele><time>2026-05-17T09:43:08Z</time><extensions><gpxtpx:TrackPointExtension><gpxtpx:hr>124</gpxtpx:hr></gpxtpx:TrackPointExtension></extensions></trkpt><trkpt lat="60.22925" lon="24.964165"><ele>25.0</ele><time>2026-05-17T09:43:16Z</time><extensions><gpxtpx:TrackPointExtension><gpxtpx:hr>120</gpxtpx:hr></gpxtpx:TrackPointExtension></extensions></trkpt><trkpt lat="60.22925" lon="24.964165"><ele>25.0</ele><time>2026-05-17T09:43:22Z</time><extensions><gpxtpx:TrackPointExtension><gpxtpx:hr>118</gpxtpx:hr></gpxtpx:TrackPointExtension></extensions></trkpt><trkpt lat="60.22925" lon="24.964165"><ele>25.0</ele><time>2026-05-17T09:43:23Z</time><extensions><gpxtpx:TrackPointExtension><gpxtpx:hr>119</gpxtpx:hr></gpxtpx:TrackPointExtension></extensions></trkpt><trkpt lat="60.22925" lon="24.964165"><ele>25.0</ele><time>2026-05-17T09:43:29Z</time><extensions><gpxtpx:TrackPointExtension><gpxtpx:hr>115</gpxtpx:hr></gpxtpx:TrackPointExtension></extensions></trkpt><trkpt lat="60.22925" lon="24.964165"><ele>25.0</ele><time>2026-05-17T09:43:35Z</time><extensions><gpxtpx:TrackPointExtension><gpxtpx:hr>120</gpxtpx:hr></gpxtpx:TrackPointExtension></extensions></trkpt><trkpt lat="60.22925" lon="24.964165"><ele>25.0</ele><time>2026-05-17T09:43:40Z</time><extensions><gpxtpx:TrackPointExtension><gpxtpx:hr>115</gpxtpx:hr></gpxtpx:TrackPointExtension></extensions></trkpt><trkpt lat="60.22925" lon="24.964165"><ele>25.0</ele><time>2026-05-17T09:43:44Z</time><extensions><gpxtpx:TrackPointExtension><gpxtpx:hr>109</gpxtpx:hr></gpxtpx:TrackPointExtension></extensions></trkpt><trkpt lat="60.22925" lon="24.964165"><ele>25.0</ele><time>2026-05-17T09:43:53Z</time><extensions><gpxtpx:TrackPointExtension><gpxtpx:hr>108</gpxtpx:hr></gpxtpx:TrackPointExtension></extensions></trkpt><trkpt lat="60.22925" lon="24.964165"><ele>25.0</ele><time>2026-05-17T09:43:58Z</time><extensions><gpxtpx:TrackPointExtension><gpxtpx:hr>103</gpxtpx:hr></gpxtpx:TrackPointExtension></extensions></trkpt><trkpt lat="60.22925" lon="24.964165"><ele>25.0</ele><time>2026-05-17T09:44:03Z</time><extensions><gpxtpx:TrackPointExtension><gpxtpx:hr>102</gpxtpx:hr></gpxtpx:TrackPointExtension></extensions></trkpt><trkpt lat="60.22925" lon="24.964165"><ele>25.0</ele><time>2026-05-17T09:44:04Z</time><extensions><gpxtpx:TrackPointExtension><gpxtpx:hr>103</gpxtpx:hr></gpxtpx:TrackPointExtension></extensions></trkpt><trkpt lat="60.22925" lon="24.964165"><ele>25.0</ele><time>2026-05-17T09:44:09Z</time><extensions><gpxtpx:TrackPointExtension><gpxtpx:hr>112</gpxtpx:hr></gpxtpx:TrackPointExtension></extensions></trkpt><trkpt lat="60.22925" lon="24.964165"><ele>25.0</ele><time>2026-05-17T09:44:15Z</time><extensions><gpxtpx:TrackPointExtension><gpxtpx:hr>122</gpxtpx:hr></gpxtpx:TrackPointExtension></extensions></trkpt><trkpt lat="60.22925" lon="24.964165"><ele>25.0</ele><time>2026-05-17T09:44:21Z</time><extensions><gpxtpx:TrackPointExtension><gpxtpx:hr>129</gpxtpx:hr></gpxtpx:TrackPointExtension></extensions></trkpt><trkpt lat="60.22925" lon="24.964165"><ele>25.0</ele><time>2026-05-17T09:44:28Z</time><extensions><gpxtpx:TrackPointExtension><gpxtpx:hr>124</gpxtpx:hr></gpxtpx:TrackPointExtension></extensions></trkpt><trkpt lat="60.22925" lon="24.964165"><ele>25.0</ele><time>2026-05-17T09:44:32Z</time><extensions><gpxtpx:TrackPointExtension><gpxtpx:hr>118</gpxtpx:hr></gpxtpx:TrackPointExtension></extensions></trkpt><trkpt lat="60.22925" lon="24.964165"><ele>25.0</ele><time>2026-05-17T09:44:38Z</time><extensions><gpxtpx:TrackPointExtension><gpxtpx:hr>112</gpxtpx:hr></gpxtpx:TrackPointExtension></extensions></trkpt><trkpt lat="60.22925" lon="24.964165"><ele>25.0</ele><time>2026-05-17T09:44:43Z</time><extensions><gpxtpx:TrackPointExtension><gpxtpx:hr>109</gpxtpx:hr></gpxtpx:TrackPointExtension></extensions></trkpt><trkpt lat="60.22925" lon="24.964165"><ele>25.0</ele><time>2026-05-17T09:44:45Z</time><extensions><gpxtpx:TrackPointExtension><gpxtpx:hr>108</gpxtpx:hr></gpxtpx:TrackPointExtension></extensions></trkpt><trkpt lat="60.22925" lon="24.964165"><ele>25.0</ele><time>2026-05-17T09:44:53Z</time><extensions><gpxtpx:TrackPointExtension><gpxtpx:hr>104</gpxtpx:hr></gpxtpx:TrackPointExtension></extensions></trkpt><trkpt lat="60.22925" lon="24.964165"><ele>25.0</ele><time>2026-05-17T09:44:58Z</time><extensions><gpxtpx:TrackPointExtension><gpxtpx:hr>102</gpxtpx:hr></gpxtpx:TrackPointExtension></extensions></trkpt><trkpt lat="60.22925" lon="24.964165"><ele>25.0</ele><time>2026-05-17T09:45:01Z</time><extensions><gpxtpx:TrackPointExtension><gpxtpx:hr>100</gpxtpx:hr></gpxtpx:TrackPointExtension></extensions></trkpt><trkpt lat="60.22925" lon="24.964165"><ele>25.0</ele><time>2026-05-17T09:45:04Z</time><extensions><gpxtpx:TrackPointExtension><gpxtpx:hr>100</gpxtpx:hr></gpxtpx:TrackPointExtension></extensions></trkpt><trkpt lat="60.22925" lon="24.964165"><ele>25.0</ele><time>2026-05-17T09:45:11Z</time><extensions><gpxtpx:TrackPointExtension><gpxtpx:hr>99</gpxtpx:hr></gpxtpx:TrackPointExtension></extensions></trkpt><trkpt lat="60.22925" lon="24.964165"><ele>25.0</ele><time>2026-05-17T09:45:17Z</time><extensions><gpxtpx:TrackPointExtension><gpxtpx:hr>96</gpxtpx:hr></gpxtpx:TrackPointExtension></extensions></trkpt><trkpt lat="60.22925" lon="24.964165"><ele>25.0</ele><time>2026-05-17T09:45:21Z</time><extensions><gpxtpx:TrackPointExtension><gpxtpx:hr>96</gpxtpx:hr></gpxtpx:TrackPointExtension></extensions></trkpt><trkpt lat="60.22925" lon="24.964165"><ele>25.0</ele><time>2026-05-17T09:45:27Z</time><extensions><gpxtpx:TrackPointExtension><gpxtpx:hr>91</gpxtpx:hr></gpxtpx:TrackPointExtension></extensions></trkpt><trkpt lat="60.22925" lon="24.964165"><ele>25.0</ele><time>2026-05-17T09:45:29Z</time><extensions><gpxtpx:TrackPointExtension><gpxtpx:hr>92</gpxtpx:hr></gpxtpx:TrackPointExtension></extensions></trkpt><trkpt lat="60.22925" lon="24.964165"><ele>25.0</ele><time>2026-05-17T09:45:38Z</time><extensions><gpxtpx:TrackPointExtension><gpxtpx:hr>91</gpxtpx:hr></gpxtpx:TrackPointExtension></extensions></trkpt><trkpt lat="60.22925" lon="24.964165"><ele>25.0</ele><time>2026-05-17T09:45:39Z</time><extensions><gpxtpx:TrackPointExtension><gpxtpx:hr>92</gpxtpx:hr></gpxtpx:TrackPointExtension></extensions></trkpt><trkpt lat="60.22925" lon="24.964165"><ele>25.0</ele><time>2026-05-17T09:45:44Z</time><extensions><gpxtpx:TrackPointExtension><gpxtpx:hr>94</gpxtpx:hr></gpxtpx:TrackPointExtension></extensions></trkpt><trkpt lat="60.22925" lon="24.964165"><ele>25.0</ele><time>2026-05-17T09:45:49Z</time><extensions><gpxtpx:TrackPointExtension><gpxtpx:hr>100</gpxtpx:hr></gpxtpx:TrackPointExtension></extensions></trkpt><trkpt lat="60.22925" lon="24.964165"><ele>25.0</ele><time>2026-05-17T09:45:56Z</time><extensions><gpxtpx:TrackPointExtension><gpxtpx:hr>104</gpxtpx:hr></gpxtpx:TrackPointExtension></extensions></trkpt><trkpt lat="60.22925" lon="24.964165"><ele>25.0</ele><time>2026-05-17T09:46:00Z</time><extensions><gpxtpx:TrackPointExtension><gpxtpx:hr>111</gpxtpx:hr></gpxtpx:TrackPointExtension></extensions></trkpt><trkpt lat="60.22925" lon="24.964165"><ele>25.0</ele><time>2026-05-17T09:46:04Z</time><extensions><gpxtpx:TrackPointExtension><gpxtpx:hr>116</gpxtpx:hr></gpxtpx:TrackPointExtension></extensions></trkpt><trkpt lat="60.22925" lon="24.964165"><ele>25.0</ele><time>2026-05-17T09:46:09Z</time><extensions><gpxtpx:TrackPointExtension><gpxtpx:hr>122</gpxtpx:hr></gpxtpx:TrackPointExtension></extensions></trkpt><trkpt lat="60.22925" lon="24.964165"><ele>25.0</ele><time>2026-05-17T09:46:14Z</time><extensions><gpxtpx:TrackPointExtension><gpxtpx:hr>124</gpxtpx:hr></gpxtpx:TrackPointExtension></extensions></trkpt><trkpt lat="60.22925" lon="24.964165"><ele>25.0</ele><time>2026-05-17T09:46:23Z</time><extensions><gpxtpx:TrackPointExtension><gpxtpx:hr>111</gpxtpx:hr></gpxtpx:TrackPointExtension></extensions></trkpt><trkpt lat="60.22925" lon="24.964165"><ele>25.0</ele><time>2026-05-17T09:46:26Z</time><extensions><gpxtpx:TrackPointExtension><gpxtpx:hr>108</gpxtpx:hr></gpxtpx:TrackPointExtension></extensions></trkpt><trkpt lat="60.22925" lon="24.964165"><ele>25.0</ele><time>2026-05-17T09:46:32Z</time><extensions><gpxtpx:TrackPointExtension><gpxtpx:hr>102</gpxtpx:hr></gpxtpx:TrackPointExtension></extensions></trkpt><trkpt lat="60.22925" lon="24.964165"><ele>25.0</ele><time>2026-05-17T09:46:38Z</time><extensions><gpxtpx:TrackPointExtension><gpxtpx:hr>94</gpxtpx:hr></gpxtpx:TrackPointExtension></extensions></trkpt><trkpt lat="60.22925" lon="24.964165"><ele>25.0</ele><time>2026-05-17T09:46:40Z</time><extensions><gpxtpx:TrackPointExtension><gpxtpx:hr>97</gpxtpx:hr></gpxtpx:TrackPointExtension></extensions></trkpt><trkpt lat="60.22925" lon="24.964165"><ele>25.0</ele><time>2026-05-17T09:46:48Z</time><extensions><gpxtpx:TrackPointExtension><gpxtpx:hr>97</gpxtpx:hr></gpxtpx:TrackPointExtension></extensions></trkpt><trkpt lat="60.22925" lon="24.964165"><ele>25.0</ele><time>2026-05-17T09:46:49Z</time><extensions><gpxtpx:TrackPointExtension><gpxtpx:hr>98</gpxtpx:hr></gpxtpx:TrackPointExtension></extensions></trkpt><trkpt lat="60.22925" lon="24.964165"><ele>25.0</ele><time>2026-05-17T09:46:58Z</time><extensions><gpxtpx:TrackPointExtension><gpxtpx:hr>98</gpxtpx:hr></gpxtpx:TrackPointExtension></extensions></trkpt><trkpt lat="60.22925" lon="24.964165"><ele>25.0</ele><time>2026-05-17T09:47:03Z</time><extensions><gpxtpx:TrackPointExtension><gpxtpx:hr>96</gpxtpx:hr></gpxtpx:TrackPointExtension></extensions></trkpt><trkpt lat="60.22925" lon="24.964165"><ele>25.0</ele><time>2026-05-17T09:47:06Z</time><extensions><gpxtpx:TrackPointExtension><gpxtpx:hr>96</gpxtpx:hr></gpxtpx:TrackPointExtension></extensions></trkpt><trkpt lat="60.22925" lon="24.964165"><ele>25.0</ele><time>2026-05-17T09:47:10Z</time><extensions><gpxtpx:TrackPointExtension><gpxtpx:hr>91</gpxtpx:hr></gpxtpx:TrackPointExtension></extensions></trkpt><trkpt lat="60.22925" lon="24.964165"><ele>25.0</ele><time>2026-05-17T09:47:14Z</time><extensions><gpxtpx:TrackPointExtension><gpxtpx:hr>90</gpxtpx:hr></gpxtpx:TrackPointExtension></extensions></trkpt><trkpt lat="60.22925" lon="24.964165"><ele>25.0</ele><time>2026-05-17T09:47:19Z</time><extensions><gpxtpx:TrackPointExtension><gpxtpx:hr>94</gpxtpx:hr></gpxtpx:TrackPointExtension></extensions></trkpt><trkpt lat="60.22925" lon="24.964165"><ele>25.0</ele><time>2026-05-17T09:47:28Z</time><extensions><gpxtpx:TrackPointExtension><gpxtpx:hr>98</gpxtpx:hr></gpxtpx:TrackPointExtension></extensions></trkpt><trkpt lat="60.22925" lon="24.964165"><ele>25.0</ele><time>2026-05-17T09:47:29Z</time><extensions><gpxtpx:TrackPointExtension><gpxtpx:hr>98</gpxtpx:hr></gpxtpx:TrackPointExtension></extensions></trkpt><trkpt lat="60.22925" lon="24.964165"><ele>25.0</ele><time>2026-05-17T09:47:34Z</time><extensions><gpxtpx:TrackPointExtension><gpxtpx:hr>105</gpxtpx:hr></gpxtpx:TrackPointExtension></extensions></trkpt><trkpt lat="60.22925" lon="24.964165"><ele>25.0</ele><time>2026-05-17T09:47:39Z</time><extensions><gpxtpx:TrackPointExtension><gpxtpx:hr>115</gpxtpx:hr></gpxtpx:TrackPointExtension></extensions></trkpt><trkpt lat="60.22925" lon="24.964165"><ele>25.0</ele><time>2026-05-17T09:47:48Z</time><extensions><gpxtpx:TrackPointExtension><gpxtpx:hr>120</gpxtpx:hr></gpxtpx:TrackPointExtension></extensions></trkpt><trkpt lat="60.22925" lon="24.964165"><ele>25.0</ele><time>2026-05-17T09:47:53Z</time><extensions><gpxtpx:TrackPointExtension><gpxtpx:hr>112</gpxtpx:hr></gpxtpx:TrackPointExtension></extensions></trkpt><trkpt lat="60.22925" lon="24.964165"><ele>25.0</ele><time>2026-05-17T09:47:56Z</time><extensions><gpxtpx:TrackPointExtension><gpxtpx:hr>107</gpxtpx:hr></gpxtpx:TrackPointExtension></extensions></trkpt><trkpt lat="60.22925" lon="24.964165"><ele>25.0</ele><time>2026-05-17T09:48:00Z</time><extensions><gpxtpx:TrackPointExtension><gpxtpx:hr>104</gpxtpx:hr></gpxtpx:TrackPointExtension></extensions></trkpt><trkpt lat="60.22925" lon="24.964165"><ele>25.0</ele><time>2026-05-17T09:48:04Z</time><extensions><gpxtpx:TrackPointExtension><gpxtpx:hr>102</gpxtpx:hr></gpxtpx:TrackPointExtension></extensions></trkpt><trkpt lat="60.22925" lon="24.964165"><ele>25.0</ele><time>2026-05-17T09:48:09Z</time><extensions><gpxtpx:TrackPointExtension><gpxtpx:hr>102</gpxtpx:hr></gpxtpx:TrackPointExtension></extensions></trkpt><trkpt lat="60.22925" lon="24.964165"><ele>25.0</ele><time>2026-05-17T09:48:18Z</time><extensions><gpxtpx:TrackPointExtension><gpxtpx:hr>101</gpxtpx:hr></gpxtpx:TrackPointExtension></extensions></trkpt><trkpt lat="60.22925" lon="24.964165"><ele>25.0</ele><time>2026-05-17T09:48:23Z</time><extensions><gpxtpx:TrackPointExtension><gpxtpx:hr>100</gpxtpx:hr></gpxtpx:TrackPointExtension></extensions></trkpt><trkpt lat="60.22925" lon="24.964165"><ele>25.0</ele><time>2026-05-17T09:48:25Z</time><extensions><gpxtpx:TrackPointExtension><gpxtpx:hr>100</gpxtpx:hr></gpxtpx:TrackPointExtension></extensions></trkpt><trkpt lat="60.22925" lon="24.964165"><ele>25.0</ele><time>2026-05-17T09:48:31Z</time><extensions><gpxtpx:TrackPointExtension><gpxtpx:hr>96</gpxtpx:hr></gpxtpx:TrackPointExtension></extensions></trkpt><trkpt lat="60.22925" lon="24.964165"><ele>25.0</ele><time>2026-05-17T09:48:38Z</time><extensions><gpxtpx:TrackPointExtension><gpxtpx:hr>96</gpxtpx:hr></gpxtpx:TrackPointExtension></extensions></trkpt><trkpt lat="60.22925" lon="24.964165"><ele>25.0</ele><time>2026-05-17T09:48:42Z</time><extensions><gpxtpx:TrackPointExtension><gpxtpx:hr>96</gpxtpx:hr></gpxtpx:TrackPointExtension></extensions></trkpt><trkpt lat="60.22925" lon="24.964165"><ele>25.0</ele><time>2026-05-17T09:48:44Z</time><extensions><gpxtpx:TrackPointExtension><gpxtpx:hr>96</gpxtpx:hr></gpxtpx:TrackPointExtension></extensions></trkpt><trkpt lat="60.22925" lon="24.964165"><ele>25.0</ele><time>2026-05-17T09:48:49Z</time><extensions><gpxtpx:TrackPointExtension><gpxtpx:hr>96</gpxtpx:hr></gpxtpx:TrackPointExtension></extensions></trkpt><trkpt lat="60.22925" lon="24.964165"><ele>25.0</ele><time>2026-05-17T09:48:54Z</time><extensions><gpxtpx:TrackPointExtension><gpxtpx:hr>97</gpxtpx:hr></gpxtpx:TrackPointExtension></extensions></trkpt><trkpt lat="60.22925" lon="24.964165"><ele>25.0</ele><time>2026-05-17T09:48:59Z</time><extensions><gpxtpx:TrackPointExtension><gpxtpx:hr>102</gpxtpx:hr></gpxtpx:TrackPointExtension></extensions></trkpt><trkpt lat="60.22925" lon="24.964165"><ele>25.0</ele><time>2026-05-17T09:49:04Z</time><extensions><gpxtpx:TrackPointExtension><gpxtpx:hr>112</gpxtpx:hr></gpxtpx:TrackPointExtension></extensions></trkpt><trkpt lat="60.22925" lon="24.964165"><ele>25.0</ele><time>2026-05-17T09:49:11Z</time><extensions><gpxtpx:TrackPointExtension><gpxtpx:hr>120</gpxtpx:hr></gpxtpx:TrackPointExtension></extensions></trkpt><trkpt lat="60.22925" lon="24.964165"><ele>25.0</ele><time>2026-05-17T09:49:18Z</time><extensions><gpxtpx:TrackPointExtension><gpxtpx:hr>120</gpxtpx:hr></gpxtpx:TrackPointExtension></extensions></trkpt><trkpt lat="60.22925" lon="24.964165"><ele>25.0</ele><time>2026-05-17T09:49:23Z</time><extensions><gpxtpx:TrackPointExtension><gpxtpx:hr>110</gpxtpx:hr></gpxtpx:TrackPointExtension></extensions></trkpt><trkpt lat="60.22925" lon="24.964165"><ele>25.0</ele><time>2026-05-17T09:49:26Z</time><extensions><gpxtpx:TrackPointExtension><gpxtpx:hr>108</gpxtpx:hr></gpxtpx:TrackPointExtension></extensions></trkpt><trkpt lat="60.22925" lon="24.964165"><ele>25.0</ele><time>2026-05-17T09:49:33Z</time><extensions><gpxtpx:TrackPointExtension><gpxtpx:hr>102</gpxtpx:hr></gpxtpx:TrackPointExtension></extensions></trkpt><trkpt lat="60.22925" lon="24.964165"><ele>25.0</ele><time>2026-05-17T09:49:37Z</time><extensions><gpxtpx:TrackPointExtension><gpxtpx:hr>102</gpxtpx:hr></gpxtpx:TrackPointExtension></extensions></trkpt><trkpt lat="60.22925" lon="24.964165"><ele>25.0</ele><time>2026-05-17T09:49:39Z</time><extensions><gpxtpx:TrackPointExtension><gpxtpx:hr>101</gpxtpx:hr></gpxtpx:TrackPointExtension></extensions></trkpt><trkpt lat="60.22925" lon="24.964165"><ele>25.0</ele><time>2026-05-17T09:49:44Z</time><extensions><gpxtpx:TrackPointExtension><gpxtpx:hr>101</gpxtpx:hr></gpxtpx:TrackPointExtension></extensions></trkpt><trkpt lat="60.22925" lon="24.964165"><ele>25.0</ele><time>2026-05-17T09:49:49Z</time><extensions><gpxtpx:TrackPointExtension><gpxtpx:hr>102</gpxtpx:hr></gpxtpx:TrackPointExtension></extensions></trkpt><trkpt lat="60.22925" lon="24.964165"><ele>25.0</ele><time>2026-05-17T09:49:54Z</time><extensions><gpxtpx:TrackPointExtension><gpxtpx:hr>102</gpxtpx:hr></gpxtpx:TrackPointExtension></extensions></trkpt><trkpt lat="60.22925" lon="24.964165"><ele>25.0</ele><time>2026-05-17T09:49:59Z</time><extensions><gpxtpx:TrackPointExtension><gpxtpx:hr>104</gpxtpx:hr></gpxtpx:TrackPointExtension></extensions></trkpt><trkpt lat="60.22925" lon="24.964165"><ele>25.0</ele><time>2026-05-17T09:50:04Z</time><extensions><gpxtpx:TrackPointExtension><gpxtpx:hr>111</gpxtpx:hr></gpxtpx:TrackPointExtension></extensions></trkpt><trkpt lat="60.22925" lon="24.964165"><ele>25.0</ele><time>2026-05-17T09:50:09Z</time><extensions><gpxtpx:TrackPointExtension><gpxtpx:hr>116</gpxtpx:hr></gpxtpx:TrackPointExtension></extensions></trkpt><trkpt lat="60.22925" lon="24.964165"><ele>25.0</ele><time>2026-05-17T09:50:28Z</time><extensions><gpxtpx:TrackPointExtension><gpxtpx:hr>111</gpxtpx:hr></gpxtpx:TrackPointExtension></extensions></trkpt><trkpt lat="60.22925" lon="24.964165"><ele>25.0</ele><time>2026-05-17T09:50:33Z</time><extensions><gpxtpx:TrackPointExtension><gpxtpx:hr>110</gpxtpx:hr></gpxtpx:TrackPointExtension></extensions></trkpt><trkpt lat="60.22925" lon="24.964165"><ele>25.0</ele><time>2026-05-17T09:50:38Z</time><extensions><gpxtpx:TrackPointExtension><gpxtpx:hr>107</gpxtpx:hr></gpxtpx:TrackPointExtension></extensions></trkpt><trkpt lat="60.22925" lon="24.964165"><ele>25.0</ele><time>2026-05-17T09:50:43Z</time><extensions><gpxtpx:TrackPointExtension><gpxtpx:hr>110</gpxtpx:hr></gpxtpx:TrackPointExtension></extensions></trkpt><trkpt lat="60.22925" lon="24.964165"><ele>25.0</ele><time>2026-05-17T09:50:46Z</time><extensions><gpxtpx:TrackPointExtension><gpxtpx:hr>111</gpxtpx:hr></gpxtpx:TrackPointExtension></extensions></trkpt><trkpt lat="60.22925" lon="24.964165"><ele>25.0</ele><time>2026-05-17T09:50:53Z</time><extensions><gpxtpx:TrackPointExtension><gpxtpx:hr>110</gpxtpx:hr></gpxtpx:TrackPointExtension></extensions></trkpt><trkpt lat="60.22925" lon="24.964165"><ele>25.0</ele><time>2026-05-17T09:50:58Z</time><extensions><gpxtpx:TrackPointExtension><gpxtpx:hr>109</gpxtpx:hr></gpxtpx:TrackPointExtension></extensions></trkpt><trkpt lat="60.22925" lon="24.964165"><ele>25.0</ele><time>2026-05-17T09:50:59Z</time><extensions><gpxtpx:TrackPointExtension><gpxtpx:hr>109</gpxtpx:hr></gpxtpx:TrackPointExtension></extensions></trkpt><trkpt lat="60.22925" lon="24.964165"><ele>25.0</ele><time>2026-05-17T09:51:04Z</time><extensions><gpxtpx:TrackPointExtension><gpxtpx:hr>107</gpxtpx:hr></gpxtpx:TrackPointExtension></extensions></trkpt><trkpt lat="60.22925" lon="24.964165"><ele>25.0</ele><time>2026-05-17T09:51:13Z</time><extensions><gpxtpx:TrackPointExtension><gpxtpx:hr>103</gpxtpx:hr></gpxtpx:TrackPointExtension></extensions></trkpt><trkpt lat="60.22925" lon="24.964165"><ele>25.0</ele><time>2026-05-17T09:51:16Z</time><extensions><gpxtpx:TrackPointExtension><gpxtpx:hr>105</gpxtpx:hr></gpxtpx:TrackPointExtension></extensions></trkpt><trkpt lat="60.22925" lon="24.964165"><ele>25.0</ele><time>2026-05-17T09:51:19Z</time><extensions><gpxtpx:TrackPointExtension><gpxtpx:hr>105</gpxtpx:hr></gpxtpx:TrackPointExtension></extensions></trkpt><trkpt lat="60.22925" lon="24.964165"><ele>25.0</ele><time>2026-05-17T09:51:27Z</time><extensions><gpxtpx:TrackPointExtension><gpxtpx:hr>104</gpxtpx:hr></gpxtpx:TrackPointExtension></extensions></trkpt><trkpt lat="60.22925" lon="24.964165"><ele>25.0</ele><time>2026-05-17T09:51:31Z</time><extensions><gpxtpx:TrackPointExtension><gpxtpx:hr>104</gpxtpx:hr></gpxtpx:TrackPointExtension></extensions></trkpt><trkpt lat="60.22925" lon="24.964165"><ele>25.0</ele><time>2026-05-17T09:51:34Z</time><extensions><gpxtpx:TrackPointExtension><gpxtpx:hr>105</gpxtpx:hr></gpxtpx:TrackPointExtension></extensions></trkpt><trkpt lat="60.22925" lon="24.964165"><ele>25.0</ele><time>2026-05-17T09:51:39Z</time><extensions><gpxtpx:TrackPointExtension><gpxtpx:hr>104</gpxtpx:hr></gpxtpx:TrackPointExtension></extensions></trkpt><trkpt lat="60.22925" lon="24.964165"><ele>25.0</ele><time>2026-05-17T09:51:44Z</time><extensions><gpxtpx:TrackPointExtension><gpxtpx:hr>104</gpxtpx:hr></gpxtpx:TrackPointExtension></extensions></trkpt><trkpt lat="60.22925" lon="24.964165"><ele>25.0</ele><time>2026-05-17T09:51:49Z</time><extensions><gpxtpx:TrackPointExtension><gpxtpx:hr>111</gpxtpx:hr></gpxtpx:TrackPointExtension></extensions></trkpt><trkpt lat="60.22925" lon="24.964165"><ele>25.0</ele><time>2026-05-17T09:51:54Z</time><extensions><gpxtpx:TrackPointExtension><gpxtpx:hr>117</gpxtpx:hr></gpxtpx:TrackPointExtension></extensions></trkpt><trkpt lat="60.22925" lon="24.964165"><ele>25.0</ele><time>2026-05-17T09:52:18Z</time><extensions><gpxtpx:TrackPointExtension><gpxtpx:hr>87</gpxtpx:hr></gpxtpx:TrackPointExtension></extensions></trkpt><trkpt lat="60.22925" lon="24.964165"><ele>25.0</ele><time>2026-05-17T09:52:20Z</time><extensions><gpxtpx:TrackPointExtension><gpxtpx:hr>88</gpxtpx:hr></gpxtpx:TrackPointExtension></extensions></trkpt><trkpt lat="60.22925" lon="24.964165"><ele>25.0</ele><time>2026-05-17T09:52:28Z</time><extensions><gpxtpx:TrackPointExtension><gpxtpx:hr>99</gpxtpx:hr></gpxtpx:TrackPointExtension></extensions></trkpt><trkpt lat="60.22925" lon="24.964165"><ele>25.0</ele><time>2026-05-17T09:52:33Z</time><extensions><gpxtpx:TrackPointExtension><gpxtpx:hr>99</gpxtpx:hr></gpxtpx:TrackPointExtension></extensions></trkpt><trkpt lat="60.22925" lon="24.964165"><ele>25.0</ele><time>2026-05-17T09:52:37Z</time><extensions><gpxtpx:TrackPointExtension><gpxtpx:hr>99</gpxtpx:hr></gpxtpx:TrackPointExtension></extensions></trkpt><trkpt lat="60.22925" lon="24.964165"><ele>25.0</ele><time>2026-05-17T09:52:43Z</time><extensions><gpxtpx:TrackPointExtension><gpxtpx:hr>99</gpxtpx:hr></gpxtpx:TrackPointExtension></extensions></trkpt><trkpt lat="60.22925" lon="24.964165"><ele>25.0</ele><time>2026-05-17T09:52:44Z</time><extensions><gpxtpx:TrackPointExtension><gpxtpx:hr>99</gpxtpx:hr></gpxtpx:TrackPointExtension></extensions></trkpt><trkpt lat="60.22925" lon="24.964165"><ele>25.0</ele><time>2026-05-17T09:52:51Z</time><extensions><gpxtpx:TrackPointExtension><gpxtpx:hr>99</gpxtpx:hr></gpxtpx:TrackPointExtension></extensions></trkpt><trkpt lat="60.22925" lon="24.964165"><ele>25.0</ele><time>2026-05-17T09:52:55Z</time><extensions><gpxtpx:TrackPointExtension><gpxtpx:hr>99</gpxtpx:hr></gpxtpx:TrackPointExtension></extensions></trkpt><trkpt lat="60.22925" lon="24.964165"><ele>25.0</ele><time>2026-05-17T09:53:03Z</time><extensions><gpxtpx:TrackPointExtension><gpxtpx:hr>97</gpxtpx:hr></gpxtpx:TrackPointExtension></extensions></trkpt><trkpt lat="60.22925" lon="24.964165"><ele>25.0</ele><time>2026-05-17T09:53:04Z</time><extensions><gpxtpx:TrackPointExtension><gpxtpx:hr>97</gpxtpx:hr></gpxtpx:TrackPointExtension></extensions></trkpt><trkpt lat="60.22925" lon="24.964165"><ele>25.0</ele><time>2026-05-17T09:53:13Z</time><extensions><gpxtpx:TrackPointExtension><gpxtpx:hr>98</gpxtpx:hr></gpxtpx:TrackPointExtension></extensions></trkpt><trkpt lat="60.22925" lon="24.964165"><ele>25.0</ele><time>2026-05-17T09:53:17Z</time><extensions><gpxtpx:TrackPointExtension><gpxtpx:hr>97</gpxtpx:hr></gpxtpx:TrackPointExtension></extensions></trkpt><trkpt lat="60.22925" lon="24.964165"><ele>25.0</ele><time>2026-05-17T09:53:19Z</time><extensions><gpxtpx:TrackPointExtension><gpxtpx:hr>97</gpxtpx:hr></gpxtpx:TrackPointExtension></extensions></trkpt><trkpt lat="60.22925" lon="24.964165"><ele>25.0</ele><time>2026-05-17T09:53:24Z</time><extensions><gpxtpx:TrackPointExtension><gpxtpx:hr>99</gpxtpx:hr></gpxtpx:TrackPointExtension></extensions></trkpt><trkpt lat="60.22925" lon="24.964165"><ele>25.0</ele><time>2026-05-17T09:53:29Z</time><extensions><gpxtpx:TrackPointExtension><gpxtpx:hr>100</gpxtpx:hr></gpxtpx:TrackPointExtension></extensions></trkpt><trkpt lat="60.22925" lon="24.964165"><ele>25.0</ele><time>2026-05-17T09:53:38Z</time><extensions><gpxtpx:TrackPointExtension><gpxtpx:hr>99</gpxtpx:hr></gpxtpx:TrackPointExtension></extensions></trkpt><trkpt lat="60.22925" lon="24.964165"><ele>25.0</ele><time>2026-05-17T09:53:43Z</time><extensions><gpxtpx:TrackPointExtension><gpxtpx:hr>102</gpxtpx:hr></gpxtpx:TrackPointExtension></extensions></trkpt><trkpt lat="60.22925" lon="24.964165"><ele>25.0</ele><time>2026-05-17T09:53:46Z</time><extensions><gpxtpx:TrackPointExtension><gpxtpx:hr>99</gpxtpx:hr></gpxtpx:TrackPointExtension></extensions></trkpt><trkpt lat="60.22925" lon="24.964165"><ele>25.0</ele><time>2026-05-17T09:53:49Z</time><extensions><gpxtpx:TrackPointExtension><gpxtpx:hr>101</gpxtpx:hr></gpxtpx:TrackPointExtension></extensions></trkpt><trkpt lat="60.22925" lon="24.964165"><ele>25.0</ele><time>2026-05-17T09:53:54Z</time><extensions><gpxtpx:TrackPointExtension><gpxtpx:hr>102</gpxtpx:hr></gpxtpx:TrackPointExtension></extensions></trkpt><trkpt lat="60.22925" lon="24.964165"><ele>25.0</ele><time>2026-05-17T09:53:59Z</time><extensions><gpxtpx:TrackPointExtension><gpxtpx:hr>108</gpxtpx:hr></gpxtpx:TrackPointExtension></extensions></trkpt><trkpt lat="60.22925" lon="24.964165"><ele>25.0</ele><time>2026-05-17T09:54:08Z</time><extensions><gpxtpx:TrackPointExtension><gpxtpx:hr>116</gpxtpx:hr></gpxtpx:TrackPointExtension></extensions></trkpt><trkpt lat="60.22925" lon="24.964165"><ele>25.0</ele><time>2026-05-17T09:54:13Z</time><extensions><gpxtpx:TrackPointExtension><gpxtpx:hr>112</gpxtpx:hr></gpxtpx:TrackPointExtension></extensions></trkpt><trkpt lat="60.22925" lon="24.964165"><ele>25.0</ele><time>2026-05-17T09:54:14Z</time><extensions><gpxtpx:TrackPointExtension><gpxtpx:hr>111</gpxtpx:hr></gpxtpx:TrackPointExtension></extensions></trkpt><trkpt lat="60.22925" lon="24.964165"><ele>25.0</ele><time>2026-05-17T09:54:22Z</time><extensions><gpxtpx:TrackPointExtension><gpxtpx:hr>105</gpxtpx:hr></gpxtpx:TrackPointExtension></extensions></trkpt><trkpt lat="60.22925" lon="24.964165"><ele>25.0</ele><time>2026-05-17T09:54:25Z</time><extensions><gpxtpx:TrackPointExtension><gpxtpx:hr>105</gpxtpx:hr></gpxtpx:TrackPointExtension></extensions></trkpt><trkpt lat="60.22925" lon="24.964165"><ele>25.0</ele><time>2026-05-17T09:54:33Z</time><extensions><gpxtpx:TrackPointExtension><gpxtpx:hr>104</gpxtpx:hr></gpxtpx:TrackPointExtension></extensions></trkpt><trkpt lat="60.22925" lon="24.964165"><ele>25.0</ele><time>2026-05-17T09:54:37Z</time><extensions><gpxtpx:TrackPointExtension><gpxtpx:hr>101</gpxtpx:hr></gpxtpx:TrackPointExtension></extensions></trkpt><trkpt lat="60.22925" lon="24.964165"><ele>25.0</ele><time>2026-05-17T09:54:43Z</time><extensions><gpxtpx:TrackPointExtension><gpxtpx:hr>100</gpxtpx:hr></gpxtpx:TrackPointExtension></extensions></trkpt><trkpt lat="60.22925" lon="24.964165"><ele>25.0</ele><time>2026-05-17T09:54:44Z</time><extensions><gpxtpx:TrackPointExtension><gpxtpx:hr>100</gpxtpx:hr></gpxtpx:TrackPointExtension></extensions></trkpt><trkpt lat="60.22925" lon="24.964165"><ele>25.0</ele><time>2026-05-17T09:54:49Z</time><extensions><gpxtpx:TrackPointExtension><gpxtpx:hr>103</gpxtpx:hr></gpxtpx:TrackPointExtension></extensions></trkpt><trkpt lat="60.22925" lon="24.964165"><ele>25.0</ele><time>2026-05-17T09:54:56Z</time><extensions><gpxtpx:TrackPointExtension><gpxtpx:hr>99</gpxtpx:hr></gpxtpx:TrackPointExtension></extensions></trkpt><trkpt lat="60.22925" lon="24.964165"><ele>25.0</ele><time>2026-05-17T09:55:00Z</time><extensions><gpxtpx:TrackPointExtension><gpxtpx:hr>100</gpxtpx:hr></gpxtpx:TrackPointExtension></extensions></trkpt><trkpt lat="60.22925" lon="24.964165"><ele>25.0</ele><time>2026-05-17T09:55:08Z</time><extensions><gpxtpx:TrackPointExtension><gpxtpx:hr>99</gpxtpx:hr></gpxtpx:TrackPointExtension></extensions></trkpt><trkpt lat="60.22925" lon="24.964165"><ele>25.0</ele><time>2026-05-17T09:55:09Z</time><extensions><gpxtpx:TrackPointExtension><gpxtpx:hr>99</gpxtpx:hr></gpxtpx:TrackPointExtension></extensions></trkpt><trkpt lat="60.22925" lon="24.964165"><ele>25.0</ele><time>2026-05-17T09:55:14Z</time><extensions><gpxtpx:TrackPointExtension><gpxtpx:hr>100</gpxtpx:hr></gpxtpx:TrackPointExtension></extensions></trkpt><trkpt lat="60.22925" lon="24.964165"><ele>25.0</ele><time>2026-05-17T09:55:20Z</time><extensions><gpxtpx:TrackPointExtension><gpxtpx:hr>100</gpxtpx:hr></gpxtpx:TrackPointExtension></extensions></trkpt><trkpt lat="60.22925" lon="24.964165"><ele>25.0</ele><time>2026-05-17T09:55:28Z</time><extensions><gpxtpx:TrackPointExtension><gpxtpx:hr>100</gpxtpx:hr></gpxtpx:TrackPointExtension></extensions></trkpt><trkpt lat="60.22925" lon="24.964165"><ele>25.0</ele><time>2026-05-17T09:55:30Z</time><extensions><gpxtpx:TrackPointExtension><gpxtpx:hr>100</gpxtpx:hr></gpxtpx:TrackPointExtension></extensions></trkpt><trkpt lat="60.22925" lon="24.964165"><ele>25.0</ele><time>2026-05-17T09:55:38Z</time><extensions><gpxtpx:TrackPointExtension><gpxtpx:hr>101</gpxtpx:hr></gpxtpx:TrackPointExtension></extensions></trkpt><trkpt lat="60.22925" lon="24.964165"><ele>25.0</ele><time>2026-05-17T09:55:39Z</time><extensions><gpxtpx:TrackPointExtension><gpxtpx:hr>101</gpxtpx:hr></gpxtpx:TrackPointExtension></extensions></trkpt><trkpt lat="60.22925" lon="24.964165"><ele>25.0</ele><time>2026-05-17T09:55:48Z</time><extensions><gpxtpx:TrackPointExtension><gpxtpx:hr>103</gpxtpx:hr></gpxtpx:TrackPointExtension></extensions></trkpt><trkpt lat="60.22925" lon="24.964165"><ele>25.0</ele><time>2026-05-17T09:55:53Z</time><extensions><gpxtpx:TrackPointExtension><gpxtpx:hr>103</gpxtpx:hr></gpxtpx:TrackPointExtension></extensions></trkpt><trkpt lat="60.22925" lon="24.964165"><ele>25.0</ele><time>2026-05-17T09:55:54Z</time><extensions><gpxtpx:TrackPointExtension><gpxtpx:hr>102</gpxtpx:hr></gpxtpx:TrackPointExtension></extensions></trkpt><trkpt lat="60.22925" lon="24.964165"><ele>25.0</ele><time>2026-05-17T09:56:01Z</time><extensions><gpxtpx:TrackPointExtension><gpxtpx:hr>101</gpxtpx:hr></gpxtpx:TrackPointExtension></extensions></trkpt><trkpt lat="60.22925" lon="24.964165"><ele>25.0</ele><time>2026-05-17T09:56:08Z</time><extensions><gpxtpx:TrackPointExtension><gpxtpx:hr>101</gpxtpx:hr></gpxtpx:TrackPointExtension></extensions></trkpt><trkpt lat="60.22925" lon="24.964165"><ele>25.0</ele><time>2026-05-17T09:56:11Z</time><extensions><gpxtpx:TrackPointExtension><gpxtpx:hr>101</gpxtpx:hr></gpxtpx:TrackPointExtension></extensions></trkpt><trkpt lat="60.22925" lon="24.964165"><ele>25.0</ele><time>2026-05-17T09:56:16Z</time><extensions><gpxtpx:TrackPointExtension><gpxtpx:hr>101</gpxtpx:hr></gpxtpx:TrackPointExtension></extensions></trkpt><trkpt lat="60.22925" lon="24.964165"><ele>25.0</ele><time>2026-05-17T09:56:23Z</time><extensions><gpxtpx:TrackPointExtension><gpxtpx:hr>102</gpxtpx:hr></gpxtpx:TrackPointExtension></extensions></trkpt><trkpt lat="60.22925" lon="24.964165"><ele>25.0</ele><time>2026-05-17T09:56:24Z</time><extensions><gpxtpx:TrackPointExtension><gpxtpx:hr>102</gpxtpx:hr></gpxtpx:TrackPointExtension></extensions></trkpt><trkpt lat="60.22925" lon="24.964165"><ele>25.0</ele><time>2026-05-17T09:56:33Z</time><extensions><gpxtpx:TrackPointExtension><gpxtpx:hr>99</gpxtpx:hr></gpxtpx:TrackPointExtension></extensions></trkpt><trkpt lat="60.22925" lon="24.964165"><ele>25.0</ele><time>2026-05-17T09:56:35Z</time><extensions><gpxtpx:TrackPointExtension><gpxtpx:hr>99</gpxtpx:hr></gpxtpx:TrackPointExtension></extensions></trkpt><trkpt lat="60.22925" lon="24.964165"><ele>25.0</ele><time>2026-05-17T09:56:39Z</time><extensions><gpxtpx:TrackPointExtension><gpxtpx:hr>100</gpxtpx:hr></gpxtpx:TrackPointExtension></extensions></trkpt><trkpt lat="60.22925" lon="24.964165"><ele>25.0</ele><time>2026-05-17T09:56:48Z</time><extensions><gpxtpx:TrackPointExtension><gpxtpx:hr>98</gpxtpx:hr></gpxtpx:TrackPointExtension></extensions></trkpt><trkpt lat="60.22925" lon="24.964165"><ele>25.0</ele><time>2026-05-17T09:56:51Z</time><extensions><gpxtpx:TrackPointExtension><gpxtpx:hr>99</gpxtpx:hr></gpxtpx:TrackPointExtension></extensions></trkpt><trkpt lat="60.22925" lon="24.964165"><ele>25.0</ele><time>2026-05-17T09:56:55Z</time><extensions><gpxtpx:TrackPointExtension><gpxtpx:hr>99</gpxtpx:hr></gpxtpx:TrackPointExtension></extensions></trkpt><trkpt lat="60.22925" lon="24.964165"><ele>25.0</ele><time>2026-05-17T09:56:59Z</time><extensions><gpxtpx:TrackPointExtension><gpxtpx:hr>99</gpxtpx:hr></gpxtpx:TrackPointExtension></extensions></trkpt><trkpt lat="60.22925" lon="24.964165"><ele>25.0</ele><time>2026-05-17T09:57:05Z</time><extensions><gpxtpx:TrackPointExtension><gpxtpx:hr>100</gpxtpx:hr></gpxtpx:TrackPointExtension></extensions></trkpt><trkpt lat="60.22925" lon="24.964165"><ele>25.0</ele><time>2026-05-17T09:57:13Z</time><extensions><gpxtpx:TrackPointExtension><gpxtpx:hr>100</gpxtpx:hr></gpxtpx:TrackPointExtension></extensions></trkpt><trkpt lat="60.22925" lon="24.964165"><ele>25.0</ele><time>2026-05-17T09:57:14Z</time><extensions><gpxtpx:TrackPointExtension><gpxtpx:hr>100</gpxtpx:hr></gpxtpx:TrackPointExtension></extensions></trkpt><trkpt lat="60.22925" lon="24.964165"><ele>25.0</ele><time>2026-05-17T09:57:19Z</time><extensions><gpxtpx:TrackPointExtension><gpxtpx:hr>99</gpxtpx:hr></gpxtpx:TrackPointExtension></extensions></trkpt></trkseg></trk></gpx>