<?xml version="1.0" encoding="UTF-8" standalone="no"?><gpx xmlns="http://www.topografix.com/GPX/1/1" xmlns:gpxtpx="http://www.garmin.com/xmlschemas/TrackPointExtension/v1" xmlns:xsi="http://www.w3.org/2001/XMLSchema-instance" creator="Sports Tracker" version="1.1" xsi:schemaLocation="http://www.topografix.com/GPX/1/1 http://www.topografix.com/GPX/1/1/gpx.xsd http://www.garmin.com/xmlschemas/TrackPointExtension/v1 http://www.garmin.com/xmlschemas/TrackPointExtensionv1.xsd"><metadata><name/><desc/><author><name>anttipehkonen240</name></author></metadata><trk><name/><trkseg><trkpt lat="42.788463" lon="17.34266"><ele>2.3</ele><time>2026-04-02T08:41:03Z</time></trkpt><trkpt lat="42.78853" lon="17.342598"><ele>2.5</ele><time>2026-04-02T08:41:11Z</time></trkpt><trkpt lat="42.788598" lon="17.342543"><ele>2.5</ele><time>2026-04-02T08:41:17Z</time></trkpt><trkpt lat="42.788668" lon="17.342487"><ele>2.1</ele><time>2026-04-02T08:41:24Z</time></trkpt><trkpt lat="42.788728" lon="17.342418"><ele>1.3</ele><time>2026-04-02T08:41:32Z</time></trkpt><trkpt lat="42.788788" lon="17.342348"><ele>1.9</ele><time>2026-04-02T08:41:39Z</time></trkpt><trkpt lat="42.788833" lon="17.342272"><ele>2.3</ele><time>2026-04-02T08:41:45Z</time></trkpt><trkpt lat="42.788822" lon="17.34217"><ele>2.3</ele><time>2026-04-02T08:41:55Z</time></trkpt><trkpt lat="42.78879" lon="17.342075"><ele>1.5</ele><time>2026-04-02T08:42:03Z</time></trkpt><trkpt lat="42.788747" lon="17.34199"><ele>1.8</ele><time>2026-04-02T08:42:10Z</time></trkpt><trkpt lat="42.788697" lon="17.341908"><ele>2.4</ele><time>2026-04-02T08:42:18Z</time></trkpt><trkpt lat="42.788652" lon="17.341825"><ele>2.5</ele><time>2026-04-02T08:42:25Z</time></trkpt><trkpt lat="42.78861" lon="17.341743"><ele>3.1</ele><time>2026-04-02T08:42:31Z</time></trkpt><trkpt lat="42.788545" lon="17.3417"><ele>2.7</ele><time>2026-04-02T08:42:38Z</time></trkpt><trkpt lat="42.788565" lon="17.341795"><ele>3.3</ele><time>2026-04-02T08:42:46Z</time></trkpt><trkpt lat="42.788488" lon="17.341758"><ele>4.3</ele><time>2026-04-02T08:42:57Z</time></trkpt><trkpt lat="42.78843" lon="17.341685"><ele>4.8</ele><time>2026-04-02T08:43:04Z</time></trkpt><trkpt lat="42.788385" lon="17.3416"><ele>5.6</ele><time>2026-04-02T08:43:11Z</time></trkpt><trkpt lat="42.788322" lon="17.34153"><ele>5.1</ele><time>2026-04-02T08:43:17Z</time></trkpt><trkpt lat="42.788253" lon="17.341472"><ele>5.9</ele><time>2026-04-02T08:43:24Z</time></trkpt><trkpt lat="42.788185" lon="17.341413"><ele>6.7</ele><time>2026-04-02T08:43:31Z</time></trkpt><trkpt lat="42.788113" lon="17.341375"><ele>7.6</ele><time>2026-04-02T08:43:37Z</time></trkpt><trkpt lat="42.788037" lon="17.34135"><ele>7.6</ele><time>2026-04-02T08:43:44Z</time></trkpt><trkpt lat="42.787965" lon="17.34131"><ele>7.3</ele><time>2026-04-02T08:43:51Z</time></trkpt><trkpt lat="42.787902" lon="17.34126"><ele>8.3</ele><time>2026-04-02T08:43:58Z</time></trkpt><trkpt lat="42.787838" lon="17.341205"><ele>8.0</ele><time>2026-04-02T08:44:04Z</time></trkpt><trkpt lat="42.787777" lon="17.341153"><ele>8.2</ele><time>2026-04-02T08:44:10Z</time></trkpt><trkpt lat="42.787712" lon="17.341102"><ele>8.3</ele><time>2026-04-02T08:44:16Z</time></trkpt><trkpt lat="42.78764" lon="17.34107"><ele>9.2</ele><time>2026-04-02T08:44:43Z</time></trkpt><trkpt lat="42.787563" lon="17.341053"><ele>9.2</ele><time>2026-04-02T08:44:50Z</time></trkpt><trkpt lat="42.787487" lon="17.34106"><ele>10.9</ele><time>2026-04-02T08:44:58Z</time></trkpt><trkpt lat="42.787413" lon="17.34106"><ele>10.7</ele><time>2026-04-02T08:45:05Z</time></trkpt><trkpt lat="42.787345" lon="17.341033"><ele>11.6</ele><time>2026-04-02T08:45:13Z</time></trkpt><trkpt lat="42.78728" lon="17.340988"><ele>12.2</ele><time>2026-04-02T08:45:20Z</time></trkpt><trkpt lat="42.787207" lon="17.340948"><ele>11.8</ele><time>2026-04-02T08:45:27Z</time></trkpt><trkpt lat="42.787138" lon="17.340903"><ele>12.2</ele><time>2026-04-02T08:45:33Z</time></trkpt><trkpt lat="42.787073" lon="17.340855"><ele>12.5</ele><time>2026-04-02T08:45:40Z</time></trkpt><trkpt lat="42.787008" lon="17.340813"><ele>12.4</ele><time>2026-04-02T08:45:47Z</time></trkpt><trkpt lat="42.78695" lon="17.34074"><ele>12.4</ele><time>2026-04-02T08:45:55Z</time></trkpt><trkpt lat="42.786905" lon="17.340655"><ele>12.3</ele><time>2026-04-02T08:46:01Z</time></trkpt><trkpt lat="42.786853" lon="17.34057"><ele>12.2</ele><time>2026-04-02T08:46:09Z</time></trkpt><trkpt lat="42.786822" lon="17.340477"><ele>12.0</ele><time>2026-04-02T08:46:16Z</time></trkpt><trkpt lat="42.786775" lon="17.3404"><ele>11.3</ele><time>2026-04-02T08:46:22Z</time></trkpt><trkpt lat="42.78673" lon="17.340303"><ele>10.4</ele><time>2026-04-02T08:46:30Z</time></trkpt><trkpt lat="42.786697" lon="17.34021"><ele>10.9</ele><time>2026-04-02T08:46:36Z</time></trkpt><trkpt lat="42.786658" lon="17.340127"><ele>9.6</ele><time>2026-04-02T08:46:42Z</time></trkpt><trkpt lat="42.786615" lon="17.340032"><ele>9.4</ele><time>2026-04-02T08:46:50Z</time></trkpt><trkpt lat="42.786572" lon="17.339947"><ele>10.0</ele><time>2026-04-02T08:46:57Z</time></trkpt><trkpt lat="42.786542" lon="17.339852"><ele>9.4</ele><time>2026-04-02T08:47:04Z</time></trkpt><trkpt lat="42.7865" lon="17.339767"><ele>9.9</ele><time>2026-04-02T08:47:10Z</time></trkpt><trkpt lat="42.786463" lon="17.339678"><ele>10.3</ele><time>2026-04-02T08:47:17Z</time></trkpt><trkpt lat="42.786417" lon="17.339593"><ele>9.9</ele><time>2026-04-02T08:47:23Z</time></trkpt><trkpt lat="42.786373" lon="17.33951"><ele>10.1</ele><time>2026-04-02T08:47:29Z</time></trkpt><trkpt lat="42.78633" lon="17.339423"><ele>10.7</ele><time>2026-04-02T08:47:35Z</time></trkpt><trkpt lat="42.786285" lon="17.339325"><ele>10.2</ele><time>2026-04-02T08:47:42Z</time></trkpt><trkpt lat="42.78624" lon="17.339233"><ele>9.6</ele><time>2026-04-02T08:47:49Z</time></trkpt><trkpt lat="42.786192" lon="17.339158"><ele>9.3</ele><time>2026-04-02T08:47:56Z</time></trkpt><trkpt lat="42.786142" lon="17.339075"><ele>9.1</ele><time>2026-04-02T08:48:02Z</time></trkpt><trkpt lat="42.786082" lon="17.339"><ele>9.2</ele><time>2026-04-02T08:48:08Z</time></trkpt><trkpt lat="42.786033" lon="17.338928"><ele>9.7</ele><time>2026-04-02T08:48:14Z</time></trkpt><trkpt lat="42.785983" lon="17.338847"><ele>9.8</ele><time>2026-04-02T08:48:21Z</time></trkpt><trkpt lat="42.785927" lon="17.338775"><ele>10.4</ele><time>2026-04-02T08:48:28Z</time></trkpt><trkpt lat="42.785875" lon="17.338703"><ele>12.0</ele><time>2026-04-02T08:48:34Z</time></trkpt><trkpt lat="42.785815" lon="17.338635"><ele>11.1</ele><time>2026-04-02T08:48:41Z</time></trkpt><trkpt lat="42.785757" lon="17.338572"><ele>12.4</ele><time>2026-04-02T08:48:47Z</time></trkpt><trkpt lat="42.785697" lon="17.338492"><ele>12.1</ele><time>2026-04-02T08:48:53Z</time></trkpt><trkpt lat="42.785637" lon="17.338428"><ele>12.2</ele><time>2026-04-02T08:49:00Z</time></trkpt><trkpt lat="42.78558" lon="17.338358"><ele>11.6</ele><time>2026-04-02T08:49:06Z</time></trkpt><trkpt lat="42.785523" lon="17.338283"><ele>11.8</ele><time>2026-04-02T08:49:13Z</time></trkpt><trkpt lat="42.785467" lon="17.338212"><ele>11.5</ele><time>2026-04-02T08:49:19Z</time></trkpt><trkpt lat="42.785403" lon="17.338143"><ele>11.2</ele><time>2026-04-02T08:49:26Z</time></trkpt><trkpt lat="42.78534" lon="17.338077"><ele>11.4</ele><time>2026-04-02T08:49:33Z</time></trkpt><trkpt lat="42.785293" lon="17.337995"><ele>11.0</ele><time>2026-04-02T08:49:41Z</time></trkpt><trkpt lat="42.785237" lon="17.337912"><ele>10.6</ele><time>2026-04-02T08:49:48Z</time></trkpt><trkpt lat="42.785193" lon="17.337818"><ele>10.2</ele><time>2026-04-02T08:49:55Z</time></trkpt><trkpt lat="42.78518" lon="17.337717"><ele>10.6</ele><time>2026-04-02T08:50:02Z</time></trkpt><trkpt lat="42.785157" lon="17.337622"><ele>10.4</ele><time>2026-04-02T08:50:08Z</time></trkpt><trkpt lat="42.785133" lon="17.33751"><ele>9.2</ele><time>2026-04-02T08:50:15Z</time></trkpt><trkpt lat="42.785113" lon="17.33741"><ele>8.6</ele><time>2026-04-02T08:50:21Z</time></trkpt><trkpt lat="42.785088" lon="17.337312"><ele>8.3</ele><time>2026-04-02T08:50:28Z</time></trkpt><trkpt lat="42.785072" lon="17.337205"><ele>6.7</ele><time>2026-04-02T08:50:35Z</time></trkpt><trkpt lat="42.785038" lon="17.337102"><ele>7.5</ele><time>2026-04-02T08:50:42Z</time></trkpt><trkpt lat="42.785018" lon="17.336997"><ele>6.9</ele><time>2026-04-02T08:50:49Z</time></trkpt><trkpt lat="42.785008" lon="17.3369"><ele>7.6</ele><time>2026-04-02T08:50:55Z</time></trkpt><trkpt lat="42.78498" lon="17.336793"><ele>8.1</ele><time>2026-04-02T08:51:02Z</time></trkpt><trkpt lat="42.784965" lon="17.33669"><ele>10.8</ele><time>2026-04-02T08:51:09Z</time></trkpt><trkpt lat="42.784935" lon="17.336598"><ele>11.5</ele><time>2026-04-02T08:51:15Z</time></trkpt><trkpt lat="42.784888" lon="17.33651"><ele>9.7</ele><time>2026-04-02T08:51:22Z</time></trkpt><trkpt lat="42.784843" lon="17.336417"><ele>8.6</ele><time>2026-04-02T08:51:29Z</time></trkpt><trkpt lat="42.784785" lon="17.336353"><ele>6.9</ele><time>2026-04-02T08:51:35Z</time></trkpt><trkpt lat="42.78473" lon="17.336282"><ele>7.1</ele><time>2026-04-02T08:51:41Z</time></trkpt><trkpt lat="42.784665" lon="17.33622"><ele>7.9</ele><time>2026-04-02T08:51:47Z</time></trkpt><trkpt lat="42.784603" lon="17.336145"><ele>7.3</ele><time>2026-04-02T08:51:54Z</time></trkpt><trkpt lat="42.784555" lon="17.336072"><ele>7.1</ele><time>2026-04-02T08:52:00Z</time></trkpt><trkpt lat="42.784498" lon="17.335997"><ele>6.5</ele><time>2026-04-02T08:52:07Z</time></trkpt><trkpt lat="42.78444" lon="17.335917"><ele>7.9</ele><time>2026-04-02T08:52:14Z</time></trkpt><trkpt lat="42.784387" lon="17.335852"><ele>8.4</ele><time>2026-04-02T08:52:20Z</time></trkpt><trkpt lat="42.784332" lon="17.335765"><ele>7.4</ele><time>2026-04-02T08:52:27Z</time></trkpt><trkpt lat="42.784277" lon="17.335695"><ele>8.1</ele><time>2026-04-02T08:52:33Z</time></trkpt><trkpt lat="42.784228" lon="17.335622"><ele>8.3</ele><time>2026-04-02T08:52:39Z</time></trkpt><trkpt lat="42.784268" lon="17.335717"><ele>6.0</ele><time>2026-04-02T08:53:11Z</time></trkpt><trkpt lat="42.784323" lon="17.335797"><ele>6.1</ele><time>2026-04-02T08:53:17Z</time></trkpt><trkpt lat="42.784382" lon="17.335877"><ele>6.7</ele><time>2026-04-02T08:53:25Z</time></trkpt><trkpt lat="42.78443" lon="17.335952"><ele>7.5</ele><time>2026-04-02T08:53:31Z</time></trkpt><trkpt lat="42.784487" lon="17.336018"><ele>7.2</ele><time>2026-04-02T08:53:37Z</time></trkpt><trkpt lat="42.784533" lon="17.336097"><ele>7.1</ele><time>2026-04-02T08:53:43Z</time></trkpt><trkpt lat="42.784595" lon="17.336168"><ele>6.9</ele><time>2026-04-02T08:53:50Z</time></trkpt><trkpt lat="42.784652" lon="17.33624"><ele>6.5</ele><time>2026-04-02T08:53:57Z</time></trkpt><trkpt lat="42.784707" lon="17.336307"><ele>6.8</ele><time>2026-04-02T08:54:03Z</time></trkpt><trkpt lat="42.784758" lon="17.336378"><ele>6.5</ele><time>2026-04-02T08:54:09Z</time></trkpt><trkpt lat="42.78481" lon="17.336453"><ele>6.9</ele><time>2026-04-02T08:54:15Z</time></trkpt><trkpt lat="42.784858" lon="17.336532"><ele>7.8</ele><time>2026-04-02T08:54:21Z</time></trkpt><trkpt lat="42.784903" lon="17.336622"><ele>8.1</ele><time>2026-04-02T08:54:27Z</time></trkpt><trkpt lat="42.784937" lon="17.336717"><ele>9.3</ele><time>2026-04-02T08:54:34Z</time></trkpt><trkpt lat="42.784967" lon="17.336823"><ele>8.4</ele><time>2026-04-02T08:54:40Z</time></trkpt><trkpt lat="42.78499" lon="17.336923"><ele>7.9</ele><time>2026-04-02T08:54:46Z</time></trkpt><trkpt lat="42.785007" lon="17.337028"><ele>7.6</ele><time>2026-04-02T08:54:52Z</time></trkpt><trkpt lat="42.785035" lon="17.33714"><ele>7.2</ele><time>2026-04-02T08:54:58Z</time></trkpt><trkpt lat="42.785053" lon="17.337243"><ele>6.0</ele><time>2026-04-02T08:55:04Z</time></trkpt><trkpt lat="42.785072" lon="17.337352"><ele>7.2</ele><time>2026-04-02T08:55:10Z</time></trkpt><trkpt lat="42.785097" lon="17.337455"><ele>7.6</ele><time>2026-04-02T08:55:16Z</time></trkpt><trkpt lat="42.785122" lon="17.337547"><ele>6.9</ele><time>2026-04-02T08:55:22Z</time></trkpt><trkpt lat="42.785145" lon="17.337652"><ele>7.3</ele><time>2026-04-02T08:55:28Z</time></trkpt><trkpt lat="42.78516" lon="17.33775"><ele>8.1</ele><time>2026-04-02T08:55:34Z</time></trkpt><trkpt lat="42.785183" lon="17.337853"><ele>10.0</ele><time>2026-04-02T08:55:40Z</time></trkpt><trkpt lat="42.785223" lon="17.337937"><ele>10.0</ele><time>2026-04-02T08:55:46Z</time></trkpt><trkpt lat="42.78527" lon="17.338015"><ele>11.2</ele><time>2026-04-02T08:55:52Z</time></trkpt><trkpt lat="42.785318" lon="17.338093"><ele>11.6</ele><time>2026-04-02T08:55:58Z</time></trkpt><trkpt lat="42.785373" lon="17.338173"><ele>12.6</ele><time>2026-04-02T08:56:04Z</time></trkpt><trkpt lat="42.785432" lon="17.338235"><ele>11.5</ele><time>2026-04-02T08:56:10Z</time></trkpt><trkpt lat="42.785495" lon="17.338298"><ele>12.5</ele><time>2026-04-02T08:56:16Z</time></trkpt><trkpt lat="42.785547" lon="17.338377"><ele>11.9</ele><time>2026-04-02T08:56:22Z</time></trkpt><trkpt lat="42.78561" lon="17.338438"><ele>11.7</ele><time>2026-04-02T08:56:28Z</time></trkpt><trkpt lat="42.785673" lon="17.338517"><ele>12.1</ele><time>2026-04-02T08:56:34Z</time></trkpt><trkpt lat="42.78574" lon="17.338583"><ele>11.3</ele><time>2026-04-02T08:56:40Z</time></trkpt><trkpt lat="42.785797" lon="17.338652"><ele>11.3</ele><time>2026-04-02T08:56:46Z</time></trkpt><trkpt lat="42.785858" lon="17.338717"><ele>11.6</ele><time>2026-04-02T08:56:52Z</time></trkpt><trkpt lat="42.785913" lon="17.338788"><ele>11.6</ele><time>2026-04-02T08:56:58Z</time></trkpt><trkpt lat="42.785963" lon="17.338863"><ele>11.6</ele><time>2026-04-02T08:57:04Z</time></trkpt><trkpt lat="42.786028" lon="17.338935"><ele>9.7</ele><time>2026-04-02T08:57:12Z</time></trkpt><trkpt lat="42.786085" lon="17.339007"><ele>9.6</ele><time>2026-04-02T08:57:18Z</time></trkpt><trkpt lat="42.786137" lon="17.33909"><ele>9.4</ele><time>2026-04-02T08:57:24Z</time></trkpt><trkpt lat="42.786183" lon="17.339178"><ele>10.2</ele><time>2026-04-02T08:57:30Z</time></trkpt><trkpt lat="42.786228" lon="17.339268"><ele>10.4</ele><time>2026-04-02T08:57:36Z</time></trkpt><trkpt lat="42.78627" lon="17.339363"><ele>10.3</ele><time>2026-04-02T08:57:41Z</time></trkpt><trkpt lat="42.786322" lon="17.339447"><ele>10.7</ele><time>2026-04-02T08:57:47Z</time></trkpt><trkpt lat="42.786367" lon="17.339528"><ele>11.2</ele><time>2026-04-02T08:57:53Z</time></trkpt><trkpt lat="42.786415" lon="17.339613"><ele>11.6</ele><time>2026-04-02T08:57:59Z</time></trkpt><trkpt lat="42.786453" lon="17.339707"><ele>10.9</ele><time>2026-04-02T08:58:05Z</time></trkpt><trkpt lat="42.78649" lon="17.339798"><ele>10.7</ele><time>2026-04-02T08:58:11Z</time></trkpt><trkpt lat="42.786532" lon="17.339888"><ele>10.8</ele><time>2026-04-02T08:58:17Z</time></trkpt><trkpt lat="42.78657" lon="17.339985"><ele>11.6</ele><time>2026-04-02T08:58:24Z</time></trkpt><trkpt lat="42.786607" lon="17.340072"><ele>10.9</ele><time>2026-04-02T08:58:30Z</time></trkpt><trkpt lat="42.786642" lon="17.340162"><ele>10.5</ele><time>2026-04-02T08:58:36Z</time></trkpt><trkpt lat="42.786682" lon="17.340255"><ele>10.4</ele><time>2026-04-02T08:58:42Z</time></trkpt><trkpt lat="42.786718" lon="17.340347"><ele>10.6</ele><time>2026-04-02T08:58:48Z</time></trkpt><trkpt lat="42.786762" lon="17.34044"><ele>11.5</ele><time>2026-04-02T08:58:54Z</time></trkpt><trkpt lat="42.786813" lon="17.340525"><ele>11.1</ele><time>2026-04-02T08:59:00Z</time></trkpt><trkpt lat="42.786862" lon="17.340607"><ele>11.9</ele><time>2026-04-02T08:59:06Z</time></trkpt><trkpt lat="42.78691" lon="17.340692"><ele>11.4</ele><time>2026-04-02T08:59:13Z</time></trkpt><trkpt lat="42.786958" lon="17.34077"><ele>11.5</ele><time>2026-04-02T08:59:19Z</time></trkpt><trkpt lat="42.787022" lon="17.340833"><ele>12.0</ele><time>2026-04-02T08:59:26Z</time></trkpt><trkpt lat="42.78708" lon="17.340893"><ele>12.0</ele><time>2026-04-02T08:59:33Z</time></trkpt><trkpt lat="42.787148" lon="17.340932"><ele>10.7</ele><time>2026-04-02T08:59:39Z</time></trkpt><trkpt lat="42.787218" lon="17.340967"><ele>11.4</ele><time>2026-04-02T08:59:46Z</time></trkpt><trkpt lat="42.787282" lon="17.34102"><ele>10.6</ele><time>2026-04-02T08:59:51Z</time></trkpt><trkpt lat="42.787352" lon="17.341055"><ele>12.0</ele><time>2026-04-02T08:59:57Z</time></trkpt><trkpt lat="42.787425" lon="17.341083"><ele>11.0</ele><time>2026-04-02T09:00:03Z</time></trkpt><trkpt lat="42.787498" lon="17.341085"><ele>10.9</ele><time>2026-04-02T09:00:10Z</time></trkpt><trkpt lat="42.78757" lon="17.341073"><ele>9.8</ele><time>2026-04-02T09:00:17Z</time></trkpt><trkpt lat="42.787648" lon="17.341087"><ele>7.9</ele><time>2026-04-02T09:00:23Z</time></trkpt><trkpt lat="42.787723" lon="17.34112"><ele>7.0</ele><time>2026-04-02T09:00:29Z</time></trkpt><trkpt lat="42.787795" lon="17.34117"><ele>6.7</ele><time>2026-04-02T09:00:35Z</time></trkpt><trkpt lat="42.787857" lon="17.34123"><ele>7.4</ele><time>2026-04-02T09:00:41Z</time></trkpt><trkpt lat="42.787928" lon="17.341288"><ele>8.5</ele><time>2026-04-02T09:00:47Z</time></trkpt><trkpt lat="42.787998" lon="17.341345"><ele>8.3</ele><time>2026-04-02T09:00:53Z</time></trkpt><trkpt lat="42.788067" lon="17.34139"><ele>6.9</ele><time>2026-04-02T09:00:59Z</time></trkpt><trkpt lat="42.788137" lon="17.341425"><ele>7.2</ele><time>2026-04-02T09:01:05Z</time></trkpt><trkpt lat="42.788212" lon="17.341455"><ele>7.0</ele><time>2026-04-02T09:01:11Z</time></trkpt><trkpt lat="42.78828" lon="17.341505"><ele>5.9</ele><time>2026-04-02T09:01:17Z</time></trkpt><trkpt lat="42.788333" lon="17.341582"><ele>6.9</ele><time>2026-04-02T09:01:23Z</time></trkpt><trkpt lat="42.788397" lon="17.341645"><ele>5.6</ele><time>2026-04-02T09:01:29Z</time></trkpt><trkpt lat="42.788448" lon="17.341728"><ele>5.3</ele><time>2026-04-02T09:01:35Z</time></trkpt><trkpt lat="42.788507" lon="17.341813"><ele>4.5</ele><time>2026-04-02T09:01:41Z</time></trkpt><trkpt lat="42.788545" lon="17.341908"><ele>4.5</ele><time>2026-04-02T09:01:47Z</time></trkpt><trkpt lat="42.78857" lon="17.342007"><ele>5.2</ele><time>2026-04-02T09:01:53Z</time></trkpt><trkpt lat="42.788583" lon="17.342117"><ele>5.1</ele><time>2026-04-02T09:01:59Z</time></trkpt><trkpt lat="42.788575" lon="17.342222"><ele>4.2</ele><time>2026-04-02T09:02:05Z</time></trkpt><trkpt lat="42.788545" lon="17.342328"><ele>3.1</ele><time>2026-04-02T09:02:11Z</time></trkpt><trkpt lat="42.788505" lon="17.342418"><ele>3.9</ele><time>2026-04-02T09:02:17Z</time></trkpt><trkpt lat="42.788443" lon="17.342482"><ele>2.8</ele><time>2026-04-02T09:02:23Z</time></trkpt><trkpt lat="42.788385" lon="17.342543"><ele>3.1</ele><time>2026-04-02T09:02:30Z</time></trkpt><trkpt lat="42.788323" lon="17.342595"><ele>4.3</ele><time>2026-04-02T09:02:36Z</time></trkpt><trkpt lat="42.788263" lon="17.34267"><ele>4.9</ele><time>2026-04-02T09:02:43Z</time></trkpt><trkpt lat="42.788202" lon="17.342737"><ele>7.0</ele><time>2026-04-02T09:02:49Z</time></trkpt><trkpt lat="42.788132" lon="17.342788"><ele>5.6</ele><time>2026-04-02T09:02:57Z</time></trkpt><trkpt lat="42.788072" lon="17.342872"><ele>5.8</ele><time>2026-04-02T09:03:04Z</time></trkpt></trkseg></trk></gpx>