<?xml version="1.0" encoding="UTF-8" standalone="no"?><gpx xmlns="http://www.topografix.com/GPX/1/1" xmlns:gpxtpx="http://www.garmin.com/xmlschemas/TrackPointExtension/v1" xmlns:xsi="http://www.w3.org/2001/XMLSchema-instance" creator="Sports Tracker" version="1.1" xsi:schemaLocation="http://www.topografix.com/GPX/1/1 http://www.topografix.com/GPX/1/1/gpx.xsd http://www.garmin.com/xmlschemas/TrackPointExtension/v1 http://www.garmin.com/xmlschemas/TrackPointExtensionv1.xsd"><metadata><name/><desc/><author><name>anttipehkonen240</name></author></metadata><trk><name/><trkseg><trkpt lat="64.69221" lon="24.469342"><ele>2.0</ele><time>2026-01-02T07:33:13Z</time></trkpt><trkpt lat="64.69221" lon="24.469342"><ele>2.0</ele><time>2026-01-02T07:33:29Z</time><extensions><gpxtpx:TrackPointExtension><gpxtpx:hr>115</gpxtpx:hr></gpxtpx:TrackPointExtension></extensions></trkpt><trkpt lat="64.69221" lon="24.469342"><ele>2.0</ele><time>2026-01-02T07:33:34Z</time><extensions><gpxtpx:TrackPointExtension><gpxtpx:hr>107</gpxtpx:hr></gpxtpx:TrackPointExtension></extensions></trkpt><trkpt lat="64.69221" lon="24.469342"><ele>2.0</ele><time>2026-01-02T07:33:35Z</time><extensions><gpxtpx:TrackPointExtension><gpxtpx:hr>109</gpxtpx:hr></gpxtpx:TrackPointExtension></extensions></trkpt><trkpt lat="64.69221" lon="24.469342"><ele>2.0</ele><time>2026-01-02T07:33:42Z</time><extensions><gpxtpx:TrackPointExtension><gpxtpx:hr>115</gpxtpx:hr></gpxtpx:TrackPointExtension></extensions></trkpt><trkpt lat="64.69221" lon="24.469342"><ele>2.0</ele><time>2026-01-02T07:33:48Z</time><extensions><gpxtpx:TrackPointExtension><gpxtpx:hr>119</gpxtpx:hr></gpxtpx:TrackPointExtension></extensions></trkpt><trkpt lat="64.69221" lon="24.469342"><ele>2.0</ele><time>2026-01-02T07:33:54Z</time><extensions><gpxtpx:TrackPointExtension><gpxtpx:hr>122</gpxtpx:hr></gpxtpx:TrackPointExtension></extensions></trkpt><trkpt lat="64.69221" lon="24.469342"><ele>2.0</ele><time>2026-01-02T07:33:56Z</time><extensions><gpxtpx:TrackPointExtension><gpxtpx:hr>123</gpxtpx:hr></gpxtpx:TrackPointExtension></extensions></trkpt><trkpt lat="64.69221" lon="24.469342"><ele>2.0</ele><time>2026-01-02T07:34:03Z</time><extensions><gpxtpx:TrackPointExtension><gpxtpx:hr>123</gpxtpx:hr></gpxtpx:TrackPointExtension></extensions></trkpt><trkpt lat="64.69221" lon="24.469342"><ele>2.0</ele><time>2026-01-02T07:34:09Z</time><extensions><gpxtpx:TrackPointExtension><gpxtpx:hr>124</gpxtpx:hr></gpxtpx:TrackPointExtension></extensions></trkpt><trkpt lat="64.69221" lon="24.469342"><ele>2.0</ele><time>2026-01-02T07:34:10Z</time><extensions><gpxtpx:TrackPointExtension><gpxtpx:hr>124</gpxtpx:hr></gpxtpx:TrackPointExtension></extensions></trkpt><trkpt lat="64.69221" lon="24.469342"><ele>2.0</ele><time>2026-01-02T07:34:19Z</time><extensions><gpxtpx:TrackPointExtension><gpxtpx:hr>129</gpxtpx:hr></gpxtpx:TrackPointExtension></extensions></trkpt><trkpt lat="64.69221" lon="24.469342"><ele>2.0</ele><time>2026-01-02T07:34:24Z</time><extensions><gpxtpx:TrackPointExtension><gpxtpx:hr>130</gpxtpx:hr></gpxtpx:TrackPointExtension></extensions></trkpt><trkpt lat="64.69221" lon="24.469342"><ele>2.0</ele><time>2026-01-02T07:34:25Z</time><extensions><gpxtpx:TrackPointExtension><gpxtpx:hr>130</gpxtpx:hr></gpxtpx:TrackPointExtension></extensions></trkpt><trkpt lat="64.69221" lon="24.469342"><ele>2.0</ele><time>2026-01-02T07:34:34Z</time><extensions><gpxtpx:TrackPointExtension><gpxtpx:hr>130</gpxtpx:hr></gpxtpx:TrackPointExtension></extensions></trkpt><trkpt lat="64.69221" lon="24.469342"><ele>2.0</ele><time>2026-01-02T07:34:37Z</time><extensions><gpxtpx:TrackPointExtension><gpxtpx:hr>131</gpxtpx:hr></gpxtpx:TrackPointExtension></extensions></trkpt><trkpt lat="64.69221" lon="24.469342"><ele>2.0</ele><time>2026-01-02T07:34:41Z</time><extensions><gpxtpx:TrackPointExtension><gpxtpx:hr>129</gpxtpx:hr></gpxtpx:TrackPointExtension></extensions></trkpt><trkpt lat="64.69221" lon="24.469342"><ele>2.0</ele><time>2026-01-02T07:34:46Z</time><extensions><gpxtpx:TrackPointExtension><gpxtpx:hr>130</gpxtpx:hr></gpxtpx:TrackPointExtension></extensions></trkpt><trkpt lat="64.69221" lon="24.469342"><ele>2.0</ele><time>2026-01-02T07:34:51Z</time><extensions><gpxtpx:TrackPointExtension><gpxtpx:hr>132</gpxtpx:hr></gpxtpx:TrackPointExtension></extensions></trkpt><trkpt lat="64.69221" lon="24.469342"><ele>2.0</ele><time>2026-01-02T07:34:57Z</time><extensions><gpxtpx:TrackPointExtension><gpxtpx:hr>133</gpxtpx:hr></gpxtpx:TrackPointExtension></extensions></trkpt><trkpt lat="64.69221" lon="24.469342"><ele>2.0</ele><time>2026-01-02T07:35:04Z</time><extensions><gpxtpx:TrackPointExtension><gpxtpx:hr>134</gpxtpx:hr></gpxtpx:TrackPointExtension></extensions></trkpt><trkpt lat="64.69221" lon="24.469342"><ele>2.0</ele><time>2026-01-02T07:35:08Z</time><extensions><gpxtpx:TrackPointExtension><gpxtpx:hr>134</gpxtpx:hr></gpxtpx:TrackPointExtension></extensions></trkpt><trkpt lat="64.69221" lon="24.469342"><ele>2.0</ele><time>2026-01-02T07:35:14Z</time><extensions><gpxtpx:TrackPointExtension><gpxtpx:hr>134</gpxtpx:hr></gpxtpx:TrackPointExtension></extensions></trkpt><trkpt lat="64.69221" lon="24.469342"><ele>2.0</ele><time>2026-01-02T07:35:18Z</time><extensions><gpxtpx:TrackPointExtension><gpxtpx:hr>134</gpxtpx:hr></gpxtpx:TrackPointExtension></extensions></trkpt><trkpt lat="64.69221" lon="24.469342"><ele>2.0</ele><time>2026-01-02T07:35:20Z</time><extensions><gpxtpx:TrackPointExtension><gpxtpx:hr>134</gpxtpx:hr></gpxtpx:TrackPointExtension></extensions></trkpt><trkpt lat="64.69221" lon="24.469342"><ele>2.0</ele><time>2026-01-02T07:35:29Z</time><extensions><gpxtpx:TrackPointExtension><gpxtpx:hr>135</gpxtpx:hr></gpxtpx:TrackPointExtension></extensions></trkpt><trkpt lat="64.69221" lon="24.469342"><ele>2.0</ele><time>2026-01-02T07:35:30Z</time><extensions><gpxtpx:TrackPointExtension><gpxtpx:hr>134</gpxtpx:hr></gpxtpx:TrackPointExtension></extensions></trkpt><trkpt lat="64.69221" lon="24.469342"><ele>2.0</ele><time>2026-01-02T07:35:39Z</time><extensions><gpxtpx:TrackPointExtension><gpxtpx:hr>135</gpxtpx:hr></gpxtpx:TrackPointExtension></extensions></trkpt><trkpt lat="64.69221" lon="24.469342"><ele>2.0</ele><time>2026-01-02T07:35:44Z</time><extensions><gpxtpx:TrackPointExtension><gpxtpx:hr>136</gpxtpx:hr></gpxtpx:TrackPointExtension></extensions></trkpt><trkpt lat="64.69221" lon="24.469342"><ele>2.0</ele><time>2026-01-02T07:35:49Z</time><extensions><gpxtpx:TrackPointExtension><gpxtpx:hr>136</gpxtpx:hr></gpxtpx:TrackPointExtension></extensions></trkpt><trkpt lat="64.69221" lon="24.469342"><ele>2.0</ele><time>2026-01-02T07:35:52Z</time><extensions><gpxtpx:TrackPointExtension><gpxtpx:hr>136</gpxtpx:hr></gpxtpx:TrackPointExtension></extensions></trkpt><trkpt lat="64.69221" lon="24.469342"><ele>2.0</ele><time>2026-01-02T07:35:55Z</time><extensions><gpxtpx:TrackPointExtension><gpxtpx:hr>137</gpxtpx:hr></gpxtpx:TrackPointExtension></extensions></trkpt><trkpt lat="64.69221" lon="24.469342"><ele>2.0</ele><time>2026-01-02T07:36:02Z</time><extensions><gpxtpx:TrackPointExtension><gpxtpx:hr>135</gpxtpx:hr></gpxtpx:TrackPointExtension></extensions></trkpt><trkpt lat="64.69221" lon="24.469342"><ele>2.0</ele><time>2026-01-02T07:36:08Z</time><extensions><gpxtpx:TrackPointExtension><gpxtpx:hr>136</gpxtpx:hr></gpxtpx:TrackPointExtension></extensions></trkpt><trkpt lat="64.69221" lon="24.469342"><ele>2.0</ele><time>2026-01-02T07:36:13Z</time><extensions><gpxtpx:TrackPointExtension><gpxtpx:hr>137</gpxtpx:hr></gpxtpx:TrackPointExtension></extensions></trkpt><trkpt lat="64.69221" lon="24.469342"><ele>2.0</ele><time>2026-01-02T07:36:16Z</time><extensions><gpxtpx:TrackPointExtension><gpxtpx:hr>136</gpxtpx:hr></gpxtpx:TrackPointExtension></extensions></trkpt><trkpt lat="64.69221" lon="24.469342"><ele>2.0</ele><time>2026-01-02T07:36:20Z</time><extensions><gpxtpx:TrackPointExtension><gpxtpx:hr>136</gpxtpx:hr></gpxtpx:TrackPointExtension></extensions></trkpt><trkpt lat="64.69221" lon="24.469342"><ele>2.0</ele><time>2026-01-02T07:36:28Z</time><extensions><gpxtpx:TrackPointExtension><gpxtpx:hr>137</gpxtpx:hr></gpxtpx:TrackPointExtension></extensions></trkpt><trkpt lat="64.69221" lon="24.469342"><ele>2.0</ele><time>2026-01-02T07:36:34Z</time><extensions><gpxtpx:TrackPointExtension><gpxtpx:hr>137</gpxtpx:hr></gpxtpx:TrackPointExtension></extensions></trkpt><trkpt lat="64.69221" lon="24.469342"><ele>2.0</ele><time>2026-01-02T07:36:35Z</time><extensions><gpxtpx:TrackPointExtension><gpxtpx:hr>137</gpxtpx:hr></gpxtpx:TrackPointExtension></extensions></trkpt><trkpt lat="64.69221" lon="24.469342"><ele>2.0</ele><time>2026-01-02T07:36:41Z</time><extensions><gpxtpx:TrackPointExtension><gpxtpx:hr>136</gpxtpx:hr></gpxtpx:TrackPointExtension></extensions></trkpt><trkpt lat="64.69221" lon="24.469342"><ele>2.0</ele><time>2026-01-02T07:36:48Z</time><extensions><gpxtpx:TrackPointExtension><gpxtpx:hr>137</gpxtpx:hr></gpxtpx:TrackPointExtension></extensions></trkpt><trkpt lat="64.69221" lon="24.469342"><ele>2.0</ele><time>2026-01-02T07:36:51Z</time><extensions><gpxtpx:TrackPointExtension><gpxtpx:hr>138</gpxtpx:hr></gpxtpx:TrackPointExtension></extensions></trkpt><trkpt lat="64.69221" lon="24.469342"><ele>2.0</ele><time>2026-01-02T07:36:55Z</time><extensions><gpxtpx:TrackPointExtension><gpxtpx:hr>137</gpxtpx:hr></gpxtpx:TrackPointExtension></extensions></trkpt><trkpt lat="64.69221" lon="24.469342"><ele>2.0</ele><time>2026-01-02T07:37:00Z</time><extensions><gpxtpx:TrackPointExtension><gpxtpx:hr>137</gpxtpx:hr></gpxtpx:TrackPointExtension></extensions></trkpt><trkpt lat="64.69221" lon="24.469342"><ele>2.0</ele><time>2026-01-02T07:37:07Z</time><extensions><gpxtpx:TrackPointExtension><gpxtpx:hr>138</gpxtpx:hr></gpxtpx:TrackPointExtension></extensions></trkpt><trkpt lat="64.69221" lon="24.469342"><ele>2.0</ele><time>2026-01-02T07:37:14Z</time><extensions><gpxtpx:TrackPointExtension><gpxtpx:hr>138</gpxtpx:hr></gpxtpx:TrackPointExtension></extensions></trkpt><trkpt lat="64.69221" lon="24.469342"><ele>2.0</ele><time>2026-01-02T07:37:19Z</time><extensions><gpxtpx:TrackPointExtension><gpxtpx:hr>138</gpxtpx:hr></gpxtpx:TrackPointExtension></extensions></trkpt><trkpt lat="64.69221" lon="24.469342"><ele>2.0</ele><time>2026-01-02T07:37:20Z</time><extensions><gpxtpx:TrackPointExtension><gpxtpx:hr>138</gpxtpx:hr></gpxtpx:TrackPointExtension></extensions></trkpt><trkpt lat="64.69221" lon="24.469342"><ele>2.0</ele><time>2026-01-02T07:37:25Z</time><extensions><gpxtpx:TrackPointExtension><gpxtpx:hr>137</gpxtpx:hr></gpxtpx:TrackPointExtension></extensions></trkpt><trkpt lat="64.69221" lon="24.469342"><ele>2.0</ele><time>2026-01-02T07:37:30Z</time><extensions><gpxtpx:TrackPointExtension><gpxtpx:hr>137</gpxtpx:hr></gpxtpx:TrackPointExtension></extensions></trkpt><trkpt lat="64.69221" lon="24.469342"><ele>2.0</ele><time>2026-01-02T07:37:39Z</time><extensions><gpxtpx:TrackPointExtension><gpxtpx:hr>139</gpxtpx:hr></gpxtpx:TrackPointExtension></extensions></trkpt><trkpt lat="64.69221" lon="24.469342"><ele>2.0</ele><time>2026-01-02T07:37:44Z</time><extensions><gpxtpx:TrackPointExtension><gpxtpx:hr>139</gpxtpx:hr></gpxtpx:TrackPointExtension></extensions></trkpt><trkpt lat="64.69221" lon="24.469342"><ele>2.0</ele><time>2026-01-02T07:37:49Z</time><extensions><gpxtpx:TrackPointExtension><gpxtpx:hr>139</gpxtpx:hr></gpxtpx:TrackPointExtension></extensions></trkpt><trkpt lat="64.69221" lon="24.469342"><ele>2.0</ele><time>2026-01-02T07:37:51Z</time><extensions><gpxtpx:TrackPointExtension><gpxtpx:hr>139</gpxtpx:hr></gpxtpx:TrackPointExtension></extensions></trkpt><trkpt lat="64.69221" lon="24.469342"><ele>2.0</ele><time>2026-01-02T07:37:58Z</time><extensions><gpxtpx:TrackPointExtension><gpxtpx:hr>140</gpxtpx:hr></gpxtpx:TrackPointExtension></extensions></trkpt><trkpt lat="64.69221" lon="24.469342"><ele>2.0</ele><time>2026-01-02T07:38:04Z</time><extensions><gpxtpx:TrackPointExtension><gpxtpx:hr>138</gpxtpx:hr></gpxtpx:TrackPointExtension></extensions></trkpt><trkpt lat="64.69221" lon="24.469342"><ele>2.0</ele><time>2026-01-02T07:38:09Z</time><extensions><gpxtpx:TrackPointExtension><gpxtpx:hr>138</gpxtpx:hr></gpxtpx:TrackPointExtension></extensions></trkpt><trkpt lat="64.69221" lon="24.469342"><ele>2.0</ele><time>2026-01-02T07:38:13Z</time><extensions><gpxtpx:TrackPointExtension><gpxtpx:hr>139</gpxtpx:hr></gpxtpx:TrackPointExtension></extensions></trkpt><trkpt lat="64.69221" lon="24.469342"><ele>2.0</ele><time>2026-01-02T07:38:15Z</time><extensions><gpxtpx:TrackPointExtension><gpxtpx:hr>140</gpxtpx:hr></gpxtpx:TrackPointExtension></extensions></trkpt><trkpt lat="64.69221" lon="24.469342"><ele>2.0</ele><time>2026-01-02T07:38:24Z</time><extensions><gpxtpx:TrackPointExtension><gpxtpx:hr>138</gpxtpx:hr></gpxtpx:TrackPointExtension></extensions></trkpt><trkpt lat="64.69221" lon="24.469342"><ele>2.0</ele><time>2026-01-02T07:38:25Z</time><extensions><gpxtpx:TrackPointExtension><gpxtpx:hr>138</gpxtpx:hr></gpxtpx:TrackPointExtension></extensions></trkpt><trkpt lat="64.69221" lon="24.469342"><ele>2.0</ele><time>2026-01-02T07:38:33Z</time><extensions><gpxtpx:TrackPointExtension><gpxtpx:hr>138</gpxtpx:hr></gpxtpx:TrackPointExtension></extensions></trkpt><trkpt lat="64.69221" lon="24.469342"><ele>2.0</ele><time>2026-01-02T07:38:38Z</time><extensions><gpxtpx:TrackPointExtension><gpxtpx:hr>139</gpxtpx:hr></gpxtpx:TrackPointExtension></extensions></trkpt><trkpt lat="64.69221" lon="24.469342"><ele>2.0</ele><time>2026-01-02T07:38:42Z</time><extensions><gpxtpx:TrackPointExtension><gpxtpx:hr>139</gpxtpx:hr></gpxtpx:TrackPointExtension></extensions></trkpt><trkpt lat="64.69221" lon="24.469342"><ele>2.0</ele><time>2026-01-02T07:38:47Z</time><extensions><gpxtpx:TrackPointExtension><gpxtpx:hr>140</gpxtpx:hr></gpxtpx:TrackPointExtension></extensions></trkpt><trkpt lat="64.69221" lon="24.469342"><ele>2.0</ele><time>2026-01-02T07:38:54Z</time><extensions><gpxtpx:TrackPointExtension><gpxtpx:hr>140</gpxtpx:hr></gpxtpx:TrackPointExtension></extensions></trkpt><trkpt lat="64.69221" lon="24.469342"><ele>2.0</ele><time>2026-01-02T07:38:55Z</time><extensions><gpxtpx:TrackPointExtension><gpxtpx:hr>140</gpxtpx:hr></gpxtpx:TrackPointExtension></extensions></trkpt><trkpt lat="64.69221" lon="24.469342"><ele>2.0</ele><time>2026-01-02T07:39:03Z</time><extensions><gpxtpx:TrackPointExtension><gpxtpx:hr>141</gpxtpx:hr></gpxtpx:TrackPointExtension></extensions></trkpt><trkpt lat="64.69221" lon="24.469342"><ele>2.0</ele><time>2026-01-02T07:39:07Z</time><extensions><gpxtpx:TrackPointExtension><gpxtpx:hr>141</gpxtpx:hr></gpxtpx:TrackPointExtension></extensions></trkpt><trkpt lat="64.69221" lon="24.469342"><ele>2.0</ele><time>2026-01-02T07:39:13Z</time><extensions><gpxtpx:TrackPointExtension><gpxtpx:hr>141</gpxtpx:hr></gpxtpx:TrackPointExtension></extensions></trkpt><trkpt lat="64.69221" lon="24.469342"><ele>2.0</ele><time>2026-01-02T07:39:19Z</time><extensions><gpxtpx:TrackPointExtension><gpxtpx:hr>142</gpxtpx:hr></gpxtpx:TrackPointExtension></extensions></trkpt><trkpt lat="64.69221" lon="24.469342"><ele>2.0</ele><time>2026-01-02T07:39:24Z</time><extensions><gpxtpx:TrackPointExtension><gpxtpx:hr>141</gpxtpx:hr></gpxtpx:TrackPointExtension></extensions></trkpt><trkpt lat="64.69221" lon="24.469342"><ele>2.0</ele><time>2026-01-02T07:39:25Z</time><extensions><gpxtpx:TrackPointExtension><gpxtpx:hr>141</gpxtpx:hr></gpxtpx:TrackPointExtension></extensions></trkpt><trkpt lat="64.69221" lon="24.469342"><ele>2.0</ele><time>2026-01-02T07:39:30Z</time><extensions><gpxtpx:TrackPointExtension><gpxtpx:hr>141</gpxtpx:hr></gpxtpx:TrackPointExtension></extensions></trkpt><trkpt lat="64.69221" lon="24.469342"><ele>2.0</ele><time>2026-01-02T07:39:39Z</time><extensions><gpxtpx:TrackPointExtension><gpxtpx:hr>139</gpxtpx:hr></gpxtpx:TrackPointExtension></extensions></trkpt><trkpt lat="64.69221" lon="24.469342"><ele>2.0</ele><time>2026-01-02T07:39:42Z</time><extensions><gpxtpx:TrackPointExtension><gpxtpx:hr>137</gpxtpx:hr></gpxtpx:TrackPointExtension></extensions></trkpt><trkpt lat="64.69221" lon="24.469342"><ele>2.0</ele><time>2026-01-02T07:39:49Z</time><extensions><gpxtpx:TrackPointExtension><gpxtpx:hr>130</gpxtpx:hr></gpxtpx:TrackPointExtension></extensions></trkpt><trkpt lat="64.69221" lon="24.469342"><ele>2.0</ele><time>2026-01-02T07:39:51Z</time><extensions><gpxtpx:TrackPointExtension><gpxtpx:hr>129</gpxtpx:hr></gpxtpx:TrackPointExtension></extensions></trkpt><trkpt lat="64.69221" lon="24.469342"><ele>2.0</ele><time>2026-01-02T07:39:55Z</time><extensions><gpxtpx:TrackPointExtension><gpxtpx:hr>125</gpxtpx:hr></gpxtpx:TrackPointExtension></extensions></trkpt><trkpt lat="64.69221" lon="24.469342"><ele>2.0</ele><time>2026-01-02T07:40:04Z</time><extensions><gpxtpx:TrackPointExtension><gpxtpx:hr>120</gpxtpx:hr></gpxtpx:TrackPointExtension></extensions></trkpt><trkpt lat="64.69221" lon="24.469342"><ele>2.0</ele><time>2026-01-02T07:40:05Z</time><extensions><gpxtpx:TrackPointExtension><gpxtpx:hr>121</gpxtpx:hr></gpxtpx:TrackPointExtension></extensions></trkpt><trkpt lat="64.69221" lon="24.469342"><ele>2.0</ele><time>2026-01-02T07:40:13Z</time><extensions><gpxtpx:TrackPointExtension><gpxtpx:hr>124</gpxtpx:hr></gpxtpx:TrackPointExtension></extensions></trkpt><trkpt lat="64.69221" lon="24.469342"><ele>2.0</ele><time>2026-01-02T07:40:16Z</time><extensions><gpxtpx:TrackPointExtension><gpxtpx:hr>126</gpxtpx:hr></gpxtpx:TrackPointExtension></extensions></trkpt><trkpt lat="64.69221" lon="24.469342"><ele>2.0</ele><time>2026-01-02T07:40:23Z</time><extensions><gpxtpx:TrackPointExtension><gpxtpx:hr>129</gpxtpx:hr></gpxtpx:TrackPointExtension></extensions></trkpt><trkpt lat="64.69221" lon="24.469342"><ele>2.0</ele><time>2026-01-02T07:40:28Z</time><extensions><gpxtpx:TrackPointExtension><gpxtpx:hr>134</gpxtpx:hr></gpxtpx:TrackPointExtension></extensions></trkpt><trkpt lat="64.69221" lon="24.469342"><ele>2.0</ele><time>2026-01-02T07:40:32Z</time><extensions><gpxtpx:TrackPointExtension><gpxtpx:hr>135</gpxtpx:hr></gpxtpx:TrackPointExtension></extensions></trkpt><trkpt lat="64.69221" lon="24.469342"><ele>2.0</ele><time>2026-01-02T07:40:38Z</time><extensions><gpxtpx:TrackPointExtension><gpxtpx:hr>135</gpxtpx:hr></gpxtpx:TrackPointExtension></extensions></trkpt><trkpt lat="64.69221" lon="24.469342"><ele>2.0</ele><time>2026-01-02T07:40:40Z</time><extensions><gpxtpx:TrackPointExtension><gpxtpx:hr>135</gpxtpx:hr></gpxtpx:TrackPointExtension></extensions></trkpt><trkpt lat="64.69221" lon="24.469342"><ele>2.0</ele><time>2026-01-02T07:40:45Z</time><extensions><gpxtpx:TrackPointExtension><gpxtpx:hr>136</gpxtpx:hr></gpxtpx:TrackPointExtension></extensions></trkpt><trkpt lat="64.69221" lon="24.469342"><ele>2.0</ele><time>2026-01-02T07:40:50Z</time><extensions><gpxtpx:TrackPointExtension><gpxtpx:hr>137</gpxtpx:hr></gpxtpx:TrackPointExtension></extensions></trkpt><trkpt lat="64.69221" lon="24.469342"><ele>2.0</ele><time>2026-01-02T07:40:57Z</time><extensions><gpxtpx:TrackPointExtension><gpxtpx:hr>139</gpxtpx:hr></gpxtpx:TrackPointExtension></extensions></trkpt><trkpt lat="64.69221" lon="24.469342"><ele>2.0</ele><time>2026-01-02T07:41:00Z</time><extensions><gpxtpx:TrackPointExtension><gpxtpx:hr>141</gpxtpx:hr></gpxtpx:TrackPointExtension></extensions></trkpt><trkpt lat="64.69221" lon="24.469342"><ele>2.0</ele><time>2026-01-02T07:41:09Z</time><extensions><gpxtpx:TrackPointExtension><gpxtpx:hr>143</gpxtpx:hr></gpxtpx:TrackPointExtension></extensions></trkpt><trkpt lat="64.69221" lon="24.469342"><ele>2.0</ele><time>2026-01-02T07:41:10Z</time><extensions><gpxtpx:TrackPointExtension><gpxtpx:hr>143</gpxtpx:hr></gpxtpx:TrackPointExtension></extensions></trkpt><trkpt lat="64.69221" lon="24.469342"><ele>2.0</ele><time>2026-01-02T07:41:15Z</time><extensions><gpxtpx:TrackPointExtension><gpxtpx:hr>143</gpxtpx:hr></gpxtpx:TrackPointExtension></extensions></trkpt><trkpt lat="64.69221" lon="24.469342"><ele>2.0</ele><time>2026-01-02T07:41:20Z</time><extensions><gpxtpx:TrackPointExtension><gpxtpx:hr>145</gpxtpx:hr></gpxtpx:TrackPointExtension></extensions></trkpt><trkpt lat="64.69221" lon="24.469342"><ele>2.0</ele><time>2026-01-02T07:41:26Z</time><extensions><gpxtpx:TrackPointExtension><gpxtpx:hr>147</gpxtpx:hr></gpxtpx:TrackPointExtension></extensions></trkpt><trkpt lat="64.69221" lon="24.469342"><ele>2.0</ele><time>2026-01-02T07:41:33Z</time><extensions><gpxtpx:TrackPointExtension><gpxtpx:hr>143</gpxtpx:hr></gpxtpx:TrackPointExtension></extensions></trkpt><trkpt lat="64.69221" lon="24.469342"><ele>2.0</ele><time>2026-01-02T07:41:39Z</time><extensions><gpxtpx:TrackPointExtension><gpxtpx:hr>142</gpxtpx:hr></gpxtpx:TrackPointExtension></extensions></trkpt><trkpt lat="64.69221" lon="24.469342"><ele>2.0</ele><time>2026-01-02T07:41:42Z</time><extensions><gpxtpx:TrackPointExtension><gpxtpx:hr>142</gpxtpx:hr></gpxtpx:TrackPointExtension></extensions></trkpt><trkpt lat="64.69221" lon="24.469342"><ele>2.0</ele><time>2026-01-02T07:41:49Z</time><extensions><gpxtpx:TrackPointExtension><gpxtpx:hr>141</gpxtpx:hr></gpxtpx:TrackPointExtension></extensions></trkpt><trkpt lat="64.69221" lon="24.469342"><ele>2.0</ele><time>2026-01-02T07:41:51Z</time><extensions><gpxtpx:TrackPointExtension><gpxtpx:hr>140</gpxtpx:hr></gpxtpx:TrackPointExtension></extensions></trkpt><trkpt lat="64.69221" lon="24.469342"><ele>2.0</ele><time>2026-01-02T07:41:57Z</time><extensions><gpxtpx:TrackPointExtension><gpxtpx:hr>136</gpxtpx:hr></gpxtpx:TrackPointExtension></extensions></trkpt><trkpt lat="64.69221" lon="24.469342"><ele>2.0</ele><time>2026-01-02T07:42:04Z</time><extensions><gpxtpx:TrackPointExtension><gpxtpx:hr>135</gpxtpx:hr></gpxtpx:TrackPointExtension></extensions></trkpt><trkpt lat="64.69221" lon="24.469342"><ele>2.0</ele><time>2026-01-02T07:42:09Z</time><extensions><gpxtpx:TrackPointExtension><gpxtpx:hr>133</gpxtpx:hr></gpxtpx:TrackPointExtension></extensions></trkpt><trkpt lat="64.69221" lon="24.469342"><ele>2.0</ele><time>2026-01-02T07:42:12Z</time><extensions><gpxtpx:TrackPointExtension><gpxtpx:hr>132</gpxtpx:hr></gpxtpx:TrackPointExtension></extensions></trkpt><trkpt lat="64.69221" lon="24.469342"><ele>2.0</ele><time>2026-01-02T07:42:15Z</time><extensions><gpxtpx:TrackPointExtension><gpxtpx:hr>130</gpxtpx:hr></gpxtpx:TrackPointExtension></extensions></trkpt><trkpt lat="64.69221" lon="24.469342"><ele>2.0</ele><time>2026-01-02T07:42:23Z</time><extensions><gpxtpx:TrackPointExtension><gpxtpx:hr>129</gpxtpx:hr></gpxtpx:TrackPointExtension></extensions></trkpt><trkpt lat="64.69221" lon="24.469342"><ele>2.0</ele><time>2026-01-02T07:42:25Z</time><extensions><gpxtpx:TrackPointExtension><gpxtpx:hr>127</gpxtpx:hr></gpxtpx:TrackPointExtension></extensions></trkpt><trkpt lat="64.69221" lon="24.469342"><ele>2.0</ele><time>2026-01-02T07:42:33Z</time><extensions><gpxtpx:TrackPointExtension><gpxtpx:hr>130</gpxtpx:hr></gpxtpx:TrackPointExtension></extensions></trkpt><trkpt lat="64.69221" lon="24.469342"><ele>2.0</ele><time>2026-01-02T07:42:37Z</time><extensions><gpxtpx:TrackPointExtension><gpxtpx:hr>131</gpxtpx:hr></gpxtpx:TrackPointExtension></extensions></trkpt><trkpt lat="64.69221" lon="24.469342"><ele>2.0</ele><time>2026-01-02T07:42:41Z</time><extensions><gpxtpx:TrackPointExtension><gpxtpx:hr>130</gpxtpx:hr></gpxtpx:TrackPointExtension></extensions></trkpt><trkpt lat="64.69221" lon="24.469342"><ele>2.0</ele><time>2026-01-02T07:42:49Z</time><extensions><gpxtpx:TrackPointExtension><gpxtpx:hr>133</gpxtpx:hr></gpxtpx:TrackPointExtension></extensions></trkpt><trkpt lat="64.69221" lon="24.469342"><ele>2.0</ele><time>2026-01-02T07:42:54Z</time><extensions><gpxtpx:TrackPointExtension><gpxtpx:hr>133</gpxtpx:hr></gpxtpx:TrackPointExtension></extensions></trkpt><trkpt lat="64.69221" lon="24.469342"><ele>2.0</ele><time>2026-01-02T07:42:55Z</time><extensions><gpxtpx:TrackPointExtension><gpxtpx:hr>133</gpxtpx:hr></gpxtpx:TrackPointExtension></extensions></trkpt><trkpt lat="64.69221" lon="24.469342"><ele>2.0</ele><time>2026-01-02T07:43:04Z</time><extensions><gpxtpx:TrackPointExtension><gpxtpx:hr>122</gpxtpx:hr></gpxtpx:TrackPointExtension></extensions></trkpt><trkpt lat="64.69221" lon="24.469342"><ele>2.0</ele><time>2026-01-02T07:43:05Z</time><extensions><gpxtpx:TrackPointExtension><gpxtpx:hr>120</gpxtpx:hr></gpxtpx:TrackPointExtension></extensions></trkpt><trkpt lat="64.69221" lon="24.469342"><ele>2.0</ele><time>2026-01-02T07:43:14Z</time><extensions><gpxtpx:TrackPointExtension><gpxtpx:hr>114</gpxtpx:hr></gpxtpx:TrackPointExtension></extensions></trkpt><trkpt lat="64.69221" lon="24.469342"><ele>2.0</ele><time>2026-01-02T07:43:18Z</time><extensions><gpxtpx:TrackPointExtension><gpxtpx:hr>113</gpxtpx:hr></gpxtpx:TrackPointExtension></extensions></trkpt><trkpt lat="64.69221" lon="24.469342"><ele>2.0</ele><time>2026-01-02T07:43:20Z</time><extensions><gpxtpx:TrackPointExtension><gpxtpx:hr>113</gpxtpx:hr></gpxtpx:TrackPointExtension></extensions></trkpt><trkpt lat="64.69221" lon="24.469342"><ele>2.0</ele><time>2026-01-02T07:43:26Z</time><extensions><gpxtpx:TrackPointExtension><gpxtpx:hr>108</gpxtpx:hr></gpxtpx:TrackPointExtension></extensions></trkpt><trkpt lat="64.69221" lon="24.469342"><ele>2.0</ele><time>2026-01-02T07:43:31Z</time><extensions><gpxtpx:TrackPointExtension><gpxtpx:hr>106</gpxtpx:hr></gpxtpx:TrackPointExtension></extensions></trkpt><trkpt lat="64.69221" lon="24.469342"><ele>2.0</ele><time>2026-01-02T07:43:37Z</time><extensions><gpxtpx:TrackPointExtension><gpxtpx:hr>104</gpxtpx:hr></gpxtpx:TrackPointExtension></extensions></trkpt><trkpt lat="64.69221" lon="24.469342"><ele>2.0</ele><time>2026-01-02T07:43:42Z</time><extensions><gpxtpx:TrackPointExtension><gpxtpx:hr>102</gpxtpx:hr></gpxtpx:TrackPointExtension></extensions></trkpt><trkpt lat="64.69221" lon="24.469342"><ele>2.0</ele><time>2026-01-02T07:43:48Z</time><extensions><gpxtpx:TrackPointExtension><gpxtpx:hr>106</gpxtpx:hr></gpxtpx:TrackPointExtension></extensions></trkpt><trkpt lat="64.69221" lon="24.469342"><ele>2.0</ele><time>2026-01-02T07:43:52Z</time><extensions><gpxtpx:TrackPointExtension><gpxtpx:hr>106</gpxtpx:hr></gpxtpx:TrackPointExtension></extensions></trkpt><trkpt lat="64.69221" lon="24.469342"><ele>2.0</ele><time>2026-01-02T07:43:55Z</time><extensions><gpxtpx:TrackPointExtension><gpxtpx:hr>103</gpxtpx:hr></gpxtpx:TrackPointExtension></extensions></trkpt><trkpt lat="64.69221" lon="24.469342"><ele>2.0</ele><time>2026-01-02T07:44:00Z</time><extensions><gpxtpx:TrackPointExtension><gpxtpx:hr>103</gpxtpx:hr></gpxtpx:TrackPointExtension></extensions></trkpt><trkpt lat="64.69221" lon="24.469342"><ele>2.0</ele><time>2026-01-02T07:44:09Z</time><extensions><gpxtpx:TrackPointExtension><gpxtpx:hr>116</gpxtpx:hr></gpxtpx:TrackPointExtension></extensions></trkpt><trkpt lat="64.69221" lon="24.469342"><ele>2.0</ele><time>2026-01-02T07:44:14Z</time><extensions><gpxtpx:TrackPointExtension><gpxtpx:hr>115</gpxtpx:hr></gpxtpx:TrackPointExtension></extensions></trkpt><trkpt lat="64.69221" lon="24.469342"><ele>2.0</ele><time>2026-01-02T07:44:15Z</time><extensions><gpxtpx:TrackPointExtension><gpxtpx:hr>114</gpxtpx:hr></gpxtpx:TrackPointExtension></extensions></trkpt><trkpt lat="64.69221" lon="24.469342"><ele>2.0</ele><time>2026-01-02T07:44:22Z</time><extensions><gpxtpx:TrackPointExtension><gpxtpx:hr>110</gpxtpx:hr></gpxtpx:TrackPointExtension></extensions></trkpt><trkpt lat="64.69221" lon="24.469342"><ele>2.0</ele><time>2026-01-02T07:44:27Z</time><extensions><gpxtpx:TrackPointExtension><gpxtpx:hr>111</gpxtpx:hr></gpxtpx:TrackPointExtension></extensions></trkpt><trkpt lat="64.69221" lon="24.469342"><ele>2.0</ele><time>2026-01-02T07:44:34Z</time><extensions><gpxtpx:TrackPointExtension><gpxtpx:hr>116</gpxtpx:hr></gpxtpx:TrackPointExtension></extensions></trkpt><trkpt lat="64.69221" lon="24.469342"><ele>2.0</ele><time>2026-01-02T07:44:37Z</time><extensions><gpxtpx:TrackPointExtension><gpxtpx:hr>118</gpxtpx:hr></gpxtpx:TrackPointExtension></extensions></trkpt><trkpt lat="64.69221" lon="24.469342"><ele>2.0</ele><time>2026-01-02T07:44:41Z</time><extensions><gpxtpx:TrackPointExtension><gpxtpx:hr>119</gpxtpx:hr></gpxtpx:TrackPointExtension></extensions></trkpt><trkpt lat="64.69221" lon="24.469342"><ele>2.0</ele><time>2026-01-02T07:44:49Z</time><extensions><gpxtpx:TrackPointExtension><gpxtpx:hr>121</gpxtpx:hr></gpxtpx:TrackPointExtension></extensions></trkpt><trkpt lat="64.69221" lon="24.469342"><ele>2.0</ele><time>2026-01-02T07:44:54Z</time><extensions><gpxtpx:TrackPointExtension><gpxtpx:hr>121</gpxtpx:hr></gpxtpx:TrackPointExtension></extensions></trkpt><trkpt lat="64.69221" lon="24.469342"><ele>2.0</ele><time>2026-01-02T07:44:59Z</time><extensions><gpxtpx:TrackPointExtension><gpxtpx:hr>123</gpxtpx:hr></gpxtpx:TrackPointExtension></extensions></trkpt><trkpt lat="64.69221" lon="24.469342"><ele>2.0</ele><time>2026-01-02T07:45:04Z</time><extensions><gpxtpx:TrackPointExtension><gpxtpx:hr>123</gpxtpx:hr></gpxtpx:TrackPointExtension></extensions></trkpt><trkpt lat="64.69221" lon="24.469342"><ele>2.0</ele><time>2026-01-02T07:45:06Z</time><extensions><gpxtpx:TrackPointExtension><gpxtpx:hr>122</gpxtpx:hr></gpxtpx:TrackPointExtension></extensions></trkpt><trkpt lat="64.69221" lon="24.469342"><ele>2.0</ele><time>2026-01-02T07:45:14Z</time><extensions><gpxtpx:TrackPointExtension><gpxtpx:hr>122</gpxtpx:hr></gpxtpx:TrackPointExtension></extensions></trkpt><trkpt lat="64.69221" lon="24.469342"><ele>2.0</ele><time>2026-01-02T07:45:16Z</time><extensions><gpxtpx:TrackPointExtension><gpxtpx:hr>121</gpxtpx:hr></gpxtpx:TrackPointExtension></extensions></trkpt><trkpt lat="64.69221" lon="24.469342"><ele>2.0</ele><time>2026-01-02T07:45:21Z</time><extensions><gpxtpx:TrackPointExtension><gpxtpx:hr>118</gpxtpx:hr></gpxtpx:TrackPointExtension></extensions></trkpt><trkpt lat="64.69221" lon="24.469342"><ele>2.0</ele><time>2026-01-02T07:45:29Z</time><extensions><gpxtpx:TrackPointExtension><gpxtpx:hr>111</gpxtpx:hr></gpxtpx:TrackPointExtension></extensions></trkpt><trkpt lat="64.69221" lon="24.469342"><ele>2.0</ele><time>2026-01-02T07:45:34Z</time><extensions><gpxtpx:TrackPointExtension><gpxtpx:hr>109</gpxtpx:hr></gpxtpx:TrackPointExtension></extensions></trkpt><trkpt lat="64.69221" lon="24.469342"><ele>2.0</ele><time>2026-01-02T07:45:37Z</time><extensions><gpxtpx:TrackPointExtension><gpxtpx:hr>107</gpxtpx:hr></gpxtpx:TrackPointExtension></extensions></trkpt><trkpt lat="64.69221" lon="24.469342"><ele>2.0</ele><time>2026-01-02T07:45:42Z</time><extensions><gpxtpx:TrackPointExtension><gpxtpx:hr>105</gpxtpx:hr></gpxtpx:TrackPointExtension></extensions></trkpt><trkpt lat="64.69221" lon="24.469342"><ele>2.0</ele><time>2026-01-02T07:45:45Z</time><extensions><gpxtpx:TrackPointExtension><gpxtpx:hr>104</gpxtpx:hr></gpxtpx:TrackPointExtension></extensions></trkpt><trkpt lat="64.69221" lon="24.469342"><ele>2.0</ele><time>2026-01-02T07:45:50Z</time><extensions><gpxtpx:TrackPointExtension><gpxtpx:hr>104</gpxtpx:hr></gpxtpx:TrackPointExtension></extensions></trkpt><trkpt lat="64.69221" lon="24.469342"><ele>2.0</ele><time>2026-01-02T07:45:55Z</time><extensions><gpxtpx:TrackPointExtension><gpxtpx:hr>106</gpxtpx:hr></gpxtpx:TrackPointExtension></extensions></trkpt><trkpt lat="64.69221" lon="24.469342"><ele>2.0</ele><time>2026-01-02T07:46:00Z</time><extensions><gpxtpx:TrackPointExtension><gpxtpx:hr>112</gpxtpx:hr></gpxtpx:TrackPointExtension></extensions></trkpt><trkpt lat="64.69221" lon="24.469342"><ele>2.0</ele><time>2026-01-02T07:46:05Z</time><extensions><gpxtpx:TrackPointExtension><gpxtpx:hr>119</gpxtpx:hr></gpxtpx:TrackPointExtension></extensions></trkpt><trkpt lat="64.69221" lon="24.469342"><ele>2.0</ele><time>2026-01-02T07:46:11Z</time><extensions><gpxtpx:TrackPointExtension><gpxtpx:hr>125</gpxtpx:hr></gpxtpx:TrackPointExtension></extensions></trkpt><trkpt lat="64.69221" lon="24.469342"><ele>2.0</ele><time>2026-01-02T07:46:16Z</time><extensions><gpxtpx:TrackPointExtension><gpxtpx:hr>123</gpxtpx:hr></gpxtpx:TrackPointExtension></extensions></trkpt><trkpt lat="64.69221" lon="24.469342"><ele>2.0</ele><time>2026-01-02T07:46:20Z</time><extensions><gpxtpx:TrackPointExtension><gpxtpx:hr>123</gpxtpx:hr></gpxtpx:TrackPointExtension></extensions></trkpt><trkpt lat="64.69221" lon="24.469342"><ele>2.0</ele><time>2026-01-02T07:46:26Z</time><extensions><gpxtpx:TrackPointExtension><gpxtpx:hr>126</gpxtpx:hr></gpxtpx:TrackPointExtension></extensions></trkpt><trkpt lat="64.69221" lon="24.469342"><ele>2.0</ele><time>2026-01-02T07:46:34Z</time><extensions><gpxtpx:TrackPointExtension><gpxtpx:hr>115</gpxtpx:hr></gpxtpx:TrackPointExtension></extensions></trkpt><trkpt lat="64.69221" lon="24.469342"><ele>2.0</ele><time>2026-01-02T07:46:35Z</time><extensions><gpxtpx:TrackPointExtension><gpxtpx:hr>115</gpxtpx:hr></gpxtpx:TrackPointExtension></extensions></trkpt><trkpt lat="64.69221" lon="24.469342"><ele>2.0</ele><time>2026-01-02T07:46:40Z</time><extensions><gpxtpx:TrackPointExtension><gpxtpx:hr>114</gpxtpx:hr></gpxtpx:TrackPointExtension></extensions></trkpt><trkpt lat="64.69221" lon="24.469342"><ele>2.0</ele><time>2026-01-02T07:46:49Z</time><extensions><gpxtpx:TrackPointExtension><gpxtpx:hr>118</gpxtpx:hr></gpxtpx:TrackPointExtension></extensions></trkpt><trkpt lat="64.69221" lon="24.469342"><ele>2.0</ele><time>2026-01-02T07:46:54Z</time><extensions><gpxtpx:TrackPointExtension><gpxtpx:hr>124</gpxtpx:hr></gpxtpx:TrackPointExtension></extensions></trkpt><trkpt lat="64.69221" lon="24.469342"><ele>2.0</ele><time>2026-01-02T07:46:58Z</time><extensions><gpxtpx:TrackPointExtension><gpxtpx:hr>127</gpxtpx:hr></gpxtpx:TrackPointExtension></extensions></trkpt><trkpt lat="64.69221" lon="24.469342"><ele>2.0</ele><time>2026-01-02T07:47:03Z</time><extensions><gpxtpx:TrackPointExtension><gpxtpx:hr>128</gpxtpx:hr></gpxtpx:TrackPointExtension></extensions></trkpt><trkpt lat="64.69221" lon="24.469342"><ele>2.0</ele><time>2026-01-02T07:47:06Z</time><extensions><gpxtpx:TrackPointExtension><gpxtpx:hr>126</gpxtpx:hr></gpxtpx:TrackPointExtension></extensions></trkpt><trkpt lat="64.69221" lon="24.469342"><ele>2.0</ele><time>2026-01-02T07:47:14Z</time><extensions><gpxtpx:TrackPointExtension><gpxtpx:hr>118</gpxtpx:hr></gpxtpx:TrackPointExtension></extensions></trkpt><trkpt lat="64.69221" lon="24.469342"><ele>2.0</ele><time>2026-01-02T07:47:19Z</time><extensions><gpxtpx:TrackPointExtension><gpxtpx:hr>116</gpxtpx:hr></gpxtpx:TrackPointExtension></extensions></trkpt><trkpt lat="64.69221" lon="24.469342"><ele>2.0</ele><time>2026-01-02T07:47:20Z</time><extensions><gpxtpx:TrackPointExtension><gpxtpx:hr>115</gpxtpx:hr></gpxtpx:TrackPointExtension></extensions></trkpt><trkpt lat="64.69221" lon="24.469342"><ele>2.0</ele><time>2026-01-02T07:47:29Z</time><extensions><gpxtpx:TrackPointExtension><gpxtpx:hr>111</gpxtpx:hr></gpxtpx:TrackPointExtension></extensions></trkpt><trkpt lat="64.69221" lon="24.469342"><ele>2.0</ele><time>2026-01-02T07:47:33Z</time><extensions><gpxtpx:TrackPointExtension><gpxtpx:hr>109</gpxtpx:hr></gpxtpx:TrackPointExtension></extensions></trkpt><trkpt lat="64.69221" lon="24.469342"><ele>2.0</ele><time>2026-01-02T07:47:35Z</time><extensions><gpxtpx:TrackPointExtension><gpxtpx:hr>108</gpxtpx:hr></gpxtpx:TrackPointExtension></extensions></trkpt><trkpt lat="64.69221" lon="24.469342"><ele>2.0</ele><time>2026-01-02T07:47:40Z</time><extensions><gpxtpx:TrackPointExtension><gpxtpx:hr>103</gpxtpx:hr></gpxtpx:TrackPointExtension></extensions></trkpt><trkpt lat="64.69221" lon="24.469342"><ele>2.0</ele><time>2026-01-02T07:47:49Z</time><extensions><gpxtpx:TrackPointExtension><gpxtpx:hr>99</gpxtpx:hr></gpxtpx:TrackPointExtension></extensions></trkpt><trkpt lat="64.69221" lon="24.469342"><ele>2.0</ele><time>2026-01-02T07:47:53Z</time><extensions><gpxtpx:TrackPointExtension><gpxtpx:hr>101</gpxtpx:hr></gpxtpx:TrackPointExtension></extensions></trkpt><trkpt lat="64.69221" lon="24.469342"><ele>2.0</ele><time>2026-01-02T07:47:55Z</time><extensions><gpxtpx:TrackPointExtension><gpxtpx:hr>102</gpxtpx:hr></gpxtpx:TrackPointExtension></extensions></trkpt><trkpt lat="64.69221" lon="24.469342"><ele>2.0</ele><time>2026-01-02T07:48:00Z</time><extensions><gpxtpx:TrackPointExtension><gpxtpx:hr>103</gpxtpx:hr></gpxtpx:TrackPointExtension></extensions></trkpt><trkpt lat="64.69221" lon="24.469342"><ele>2.0</ele><time>2026-01-02T07:48:05Z</time><extensions><gpxtpx:TrackPointExtension><gpxtpx:hr>109</gpxtpx:hr></gpxtpx:TrackPointExtension></extensions></trkpt><trkpt lat="64.69221" lon="24.469342"><ele>2.0</ele><time>2026-01-02T07:48:14Z</time><extensions><gpxtpx:TrackPointExtension><gpxtpx:hr>116</gpxtpx:hr></gpxtpx:TrackPointExtension></extensions></trkpt><trkpt lat="64.69221" lon="24.469342"><ele>2.0</ele><time>2026-01-02T07:48:15Z</time><extensions><gpxtpx:TrackPointExtension><gpxtpx:hr>117</gpxtpx:hr></gpxtpx:TrackPointExtension></extensions></trkpt><trkpt lat="64.69221" lon="24.469342"><ele>2.0</ele><time>2026-01-02T07:48:20Z</time><extensions><gpxtpx:TrackPointExtension><gpxtpx:hr>121</gpxtpx:hr></gpxtpx:TrackPointExtension></extensions></trkpt><trkpt lat="64.69221" lon="24.469342"><ele>2.0</ele><time>2026-01-02T07:48:25Z</time><extensions><gpxtpx:TrackPointExtension><gpxtpx:hr>125</gpxtpx:hr></gpxtpx:TrackPointExtension></extensions></trkpt><trkpt lat="64.69221" lon="24.469342"><ele>2.0</ele><time>2026-01-02T07:48:39Z</time><extensions><gpxtpx:TrackPointExtension><gpxtpx:hr>122</gpxtpx:hr></gpxtpx:TrackPointExtension></extensions></trkpt><trkpt lat="64.69221" lon="24.469342"><ele>2.0</ele><time>2026-01-02T07:48:40Z</time><extensions><gpxtpx:TrackPointExtension><gpxtpx:hr>122</gpxtpx:hr></gpxtpx:TrackPointExtension></extensions></trkpt><trkpt lat="64.69221" lon="24.469342"><ele>2.0</ele><time>2026-01-02T07:48:49Z</time><extensions><gpxtpx:TrackPointExtension><gpxtpx:hr>117</gpxtpx:hr></gpxtpx:TrackPointExtension></extensions></trkpt><trkpt lat="64.69221" lon="24.469342"><ele>2.0</ele><time>2026-01-02T07:48:53Z</time><extensions><gpxtpx:TrackPointExtension><gpxtpx:hr>118</gpxtpx:hr></gpxtpx:TrackPointExtension></extensions></trkpt><trkpt lat="64.69221" lon="24.469342"><ele>2.0</ele><time>2026-01-02T07:48:59Z</time><extensions><gpxtpx:TrackPointExtension><gpxtpx:hr>119</gpxtpx:hr></gpxtpx:TrackPointExtension></extensions></trkpt><trkpt lat="64.69221" lon="24.469342"><ele>2.0</ele><time>2026-01-02T07:49:04Z</time><extensions><gpxtpx:TrackPointExtension><gpxtpx:hr>120</gpxtpx:hr></gpxtpx:TrackPointExtension></extensions></trkpt><trkpt lat="64.69221" lon="24.469342"><ele>2.0</ele><time>2026-01-02T07:49:05Z</time><extensions><gpxtpx:TrackPointExtension><gpxtpx:hr>120</gpxtpx:hr></gpxtpx:TrackPointExtension></extensions></trkpt><trkpt lat="64.69221" lon="24.469342"><ele>2.0</ele><time>2026-01-02T07:49:13Z</time><extensions><gpxtpx:TrackPointExtension><gpxtpx:hr>124</gpxtpx:hr></gpxtpx:TrackPointExtension></extensions></trkpt><trkpt lat="64.69221" lon="24.469342"><ele>2.0</ele><time>2026-01-02T07:49:17Z</time><extensions><gpxtpx:TrackPointExtension><gpxtpx:hr>125</gpxtpx:hr></gpxtpx:TrackPointExtension></extensions></trkpt><trkpt lat="64.69221" lon="24.469342"><ele>2.0</ele><time>2026-01-02T07:49:22Z</time><extensions><gpxtpx:TrackPointExtension><gpxtpx:hr>125</gpxtpx:hr></gpxtpx:TrackPointExtension></extensions></trkpt><trkpt lat="64.69221" lon="24.469342"><ele>2.0</ele><time>2026-01-02T07:49:25Z</time><extensions><gpxtpx:TrackPointExtension><gpxtpx:hr>125</gpxtpx:hr></gpxtpx:TrackPointExtension></extensions></trkpt><trkpt lat="64.69221" lon="24.469342"><ele>2.0</ele><time>2026-01-02T07:49:30Z</time><extensions><gpxtpx:TrackPointExtension><gpxtpx:hr>122</gpxtpx:hr></gpxtpx:TrackPointExtension></extensions></trkpt><trkpt lat="64.69221" lon="24.469342"><ele>2.0</ele><time>2026-01-02T07:49:35Z</time><extensions><gpxtpx:TrackPointExtension><gpxtpx:hr>119</gpxtpx:hr></gpxtpx:TrackPointExtension></extensions></trkpt><trkpt lat="64.69221" lon="24.469342"><ele>2.0</ele><time>2026-01-02T07:49:41Z</time><extensions><gpxtpx:TrackPointExtension><gpxtpx:hr>112</gpxtpx:hr></gpxtpx:TrackPointExtension></extensions></trkpt><trkpt lat="64.69221" lon="24.469342"><ele>2.0</ele><time>2026-01-02T07:49:46Z</time><extensions><gpxtpx:TrackPointExtension><gpxtpx:hr>108</gpxtpx:hr></gpxtpx:TrackPointExtension></extensions></trkpt><trkpt lat="64.69221" lon="24.469342"><ele>2.0</ele><time>2026-01-02T07:49:50Z</time><extensions><gpxtpx:TrackPointExtension><gpxtpx:hr>107</gpxtpx:hr></gpxtpx:TrackPointExtension></extensions></trkpt><trkpt lat="64.69221" lon="24.469342"><ele>2.0</ele><time>2026-01-02T07:49:56Z</time><extensions><gpxtpx:TrackPointExtension><gpxtpx:hr>103</gpxtpx:hr></gpxtpx:TrackPointExtension></extensions></trkpt><trkpt lat="64.69221" lon="24.469342"><ele>2.0</ele><time>2026-01-02T07:50:00Z</time><extensions><gpxtpx:TrackPointExtension><gpxtpx:hr>104</gpxtpx:hr></gpxtpx:TrackPointExtension></extensions></trkpt><trkpt lat="64.69221" lon="24.469342"><ele>2.0</ele><time>2026-01-02T07:50:09Z</time><extensions><gpxtpx:TrackPointExtension><gpxtpx:hr>101</gpxtpx:hr></gpxtpx:TrackPointExtension></extensions></trkpt><trkpt lat="64.69221" lon="24.469342"><ele>2.0</ele><time>2026-01-02T07:50:10Z</time><extensions><gpxtpx:TrackPointExtension><gpxtpx:hr>101</gpxtpx:hr></gpxtpx:TrackPointExtension></extensions></trkpt><trkpt lat="64.69221" lon="24.469342"><ele>2.0</ele><time>2026-01-02T07:50:15Z</time><extensions><gpxtpx:TrackPointExtension><gpxtpx:hr>103</gpxtpx:hr></gpxtpx:TrackPointExtension></extensions></trkpt><trkpt lat="64.69221" lon="24.469342"><ele>2.0</ele><time>2026-01-02T07:50:20Z</time><extensions><gpxtpx:TrackPointExtension><gpxtpx:hr>109</gpxtpx:hr></gpxtpx:TrackPointExtension></extensions></trkpt><trkpt lat="64.69221" lon="24.469342"><ele>2.0</ele><time>2026-01-02T07:50:27Z</time><extensions><gpxtpx:TrackPointExtension><gpxtpx:hr>115</gpxtpx:hr></gpxtpx:TrackPointExtension></extensions></trkpt><trkpt lat="64.69221" lon="24.469342"><ele>2.0</ele><time>2026-01-02T07:50:34Z</time><extensions><gpxtpx:TrackPointExtension><gpxtpx:hr>121</gpxtpx:hr></gpxtpx:TrackPointExtension></extensions></trkpt><trkpt lat="64.69221" lon="24.469342"><ele>2.0</ele><time>2026-01-02T07:50:37Z</time><extensions><gpxtpx:TrackPointExtension><gpxtpx:hr>122</gpxtpx:hr></gpxtpx:TrackPointExtension></extensions></trkpt><trkpt lat="64.69221" lon="24.469342"><ele>2.0</ele><time>2026-01-02T07:50:40Z</time><extensions><gpxtpx:TrackPointExtension><gpxtpx:hr>121</gpxtpx:hr></gpxtpx:TrackPointExtension></extensions></trkpt><trkpt lat="64.69221" lon="24.469342"><ele>2.0</ele><time>2026-01-02T07:50:46Z</time><extensions><gpxtpx:TrackPointExtension><gpxtpx:hr>118</gpxtpx:hr></gpxtpx:TrackPointExtension></extensions></trkpt><trkpt lat="64.69221" lon="24.469342"><ele>2.0</ele><time>2026-01-02T07:50:54Z</time><extensions><gpxtpx:TrackPointExtension><gpxtpx:hr>121</gpxtpx:hr></gpxtpx:TrackPointExtension></extensions></trkpt><trkpt lat="64.69221" lon="24.469342"><ele>2.0</ele><time>2026-01-02T07:50:56Z</time><extensions><gpxtpx:TrackPointExtension><gpxtpx:hr>122</gpxtpx:hr></gpxtpx:TrackPointExtension></extensions></trkpt><trkpt lat="64.69221" lon="24.469342"><ele>2.0</ele><time>2026-01-02T07:51:00Z</time><extensions><gpxtpx:TrackPointExtension><gpxtpx:hr>125</gpxtpx:hr></gpxtpx:TrackPointExtension></extensions></trkpt><trkpt lat="64.69221" lon="24.469342"><ele>2.0</ele><time>2026-01-02T07:51:05Z</time><extensions><gpxtpx:TrackPointExtension><gpxtpx:hr>124</gpxtpx:hr></gpxtpx:TrackPointExtension></extensions></trkpt><trkpt lat="64.69221" lon="24.469342"><ele>2.0</ele><time>2026-01-02T07:51:14Z</time><extensions><gpxtpx:TrackPointExtension><gpxtpx:hr>109</gpxtpx:hr></gpxtpx:TrackPointExtension></extensions></trkpt><trkpt lat="64.69221" lon="24.469342"><ele>2.0</ele><time>2026-01-02T07:51:17Z</time><extensions><gpxtpx:TrackPointExtension><gpxtpx:hr>108</gpxtpx:hr></gpxtpx:TrackPointExtension></extensions></trkpt><trkpt lat="64.69221" lon="24.469342"><ele>2.0</ele><time>2026-01-02T07:51:20Z</time><extensions><gpxtpx:TrackPointExtension><gpxtpx:hr>106</gpxtpx:hr></gpxtpx:TrackPointExtension></extensions></trkpt><trkpt lat="64.69221" lon="24.469342"><ele>2.0</ele><time>2026-01-02T07:51:29Z</time><extensions><gpxtpx:TrackPointExtension><gpxtpx:hr>102</gpxtpx:hr></gpxtpx:TrackPointExtension></extensions></trkpt><trkpt lat="64.69221" lon="24.469342"><ele>2.0</ele><time>2026-01-02T07:51:33Z</time><extensions><gpxtpx:TrackPointExtension><gpxtpx:hr>103</gpxtpx:hr></gpxtpx:TrackPointExtension></extensions></trkpt><trkpt lat="64.69221" lon="24.469342"><ele>2.0</ele><time>2026-01-02T07:51:39Z</time><extensions><gpxtpx:TrackPointExtension><gpxtpx:hr>103</gpxtpx:hr></gpxtpx:TrackPointExtension></extensions></trkpt><trkpt lat="64.69221" lon="24.469342"><ele>2.0</ele><time>2026-01-02T07:51:42Z</time><extensions><gpxtpx:TrackPointExtension><gpxtpx:hr>103</gpxtpx:hr></gpxtpx:TrackPointExtension></extensions></trkpt><trkpt lat="64.69221" lon="24.469342"><ele>2.0</ele><time>2026-01-02T07:51:47Z</time><extensions><gpxtpx:TrackPointExtension><gpxtpx:hr>98</gpxtpx:hr></gpxtpx:TrackPointExtension></extensions></trkpt><trkpt lat="64.69221" lon="24.469342"><ele>2.0</ele><time>2026-01-02T07:51:50Z</time><extensions><gpxtpx:TrackPointExtension><gpxtpx:hr>96</gpxtpx:hr></gpxtpx:TrackPointExtension></extensions></trkpt><trkpt lat="64.69221" lon="24.469342"><ele>2.0</ele><time>2026-01-02T07:51:59Z</time><extensions><gpxtpx:TrackPointExtension><gpxtpx:hr>97</gpxtpx:hr></gpxtpx:TrackPointExtension></extensions></trkpt><trkpt lat="64.69221" lon="24.469342"><ele>2.0</ele><time>2026-01-02T07:52:02Z</time><extensions><gpxtpx:TrackPointExtension><gpxtpx:hr>98</gpxtpx:hr></gpxtpx:TrackPointExtension></extensions></trkpt><trkpt lat="64.69221" lon="24.469342"><ele>2.0</ele><time>2026-01-02T07:52:06Z</time><extensions><gpxtpx:TrackPointExtension><gpxtpx:hr>98</gpxtpx:hr></gpxtpx:TrackPointExtension></extensions></trkpt><trkpt lat="64.69221" lon="24.469342"><ele>2.0</ele><time>2026-01-02T07:52:10Z</time><extensions><gpxtpx:TrackPointExtension><gpxtpx:hr>99</gpxtpx:hr></gpxtpx:TrackPointExtension></extensions></trkpt><trkpt lat="64.69221" lon="24.469342"><ele>2.0</ele><time>2026-01-02T07:52:19Z</time><extensions><gpxtpx:TrackPointExtension><gpxtpx:hr>97</gpxtpx:hr></gpxtpx:TrackPointExtension></extensions></trkpt><trkpt lat="64.69221" lon="24.469342"><ele>2.0</ele><time>2026-01-02T07:52:20Z</time><extensions><gpxtpx:TrackPointExtension><gpxtpx:hr>96</gpxtpx:hr></gpxtpx:TrackPointExtension></extensions></trkpt><trkpt lat="64.69221" lon="24.469342"><ele>2.0</ele><time>2026-01-02T07:52:25Z</time><extensions><gpxtpx:TrackPointExtension><gpxtpx:hr>97</gpxtpx:hr></gpxtpx:TrackPointExtension></extensions></trkpt><trkpt lat="64.69221" lon="24.469342"><ele>2.0</ele><time>2026-01-02T07:52:30Z</time><extensions><gpxtpx:TrackPointExtension><gpxtpx:hr>99</gpxtpx:hr></gpxtpx:TrackPointExtension></extensions></trkpt><trkpt lat="64.69221" lon="24.469342"><ele>2.0</ele><time>2026-01-02T07:52:37Z</time><extensions><gpxtpx:TrackPointExtension><gpxtpx:hr>105</gpxtpx:hr></gpxtpx:TrackPointExtension></extensions></trkpt><trkpt lat="64.69221" lon="24.469342"><ele>2.0</ele><time>2026-01-02T07:52:43Z</time><extensions><gpxtpx:TrackPointExtension><gpxtpx:hr>112</gpxtpx:hr></gpxtpx:TrackPointExtension></extensions></trkpt><trkpt lat="64.69221" lon="24.469342"><ele>2.0</ele><time>2026-01-02T07:52:46Z</time><extensions><gpxtpx:TrackPointExtension><gpxtpx:hr>114</gpxtpx:hr></gpxtpx:TrackPointExtension></extensions></trkpt><trkpt lat="64.69221" lon="24.469342"><ele>2.0</ele><time>2026-01-02T07:52:54Z</time><extensions><gpxtpx:TrackPointExtension><gpxtpx:hr>124</gpxtpx:hr></gpxtpx:TrackPointExtension></extensions></trkpt><trkpt lat="64.69221" lon="24.469342"><ele>2.0</ele><time>2026-01-02T07:52:58Z</time><extensions><gpxtpx:TrackPointExtension><gpxtpx:hr>125</gpxtpx:hr></gpxtpx:TrackPointExtension></extensions></trkpt><trkpt lat="64.69221" lon="24.469342"><ele>2.0</ele><time>2026-01-02T07:53:00Z</time><extensions><gpxtpx:TrackPointExtension><gpxtpx:hr>124</gpxtpx:hr></gpxtpx:TrackPointExtension></extensions></trkpt><trkpt lat="64.69221" lon="24.469342"><ele>2.0</ele><time>2026-01-02T07:53:05Z</time><extensions><gpxtpx:TrackPointExtension><gpxtpx:hr>122</gpxtpx:hr></gpxtpx:TrackPointExtension></extensions></trkpt><trkpt lat="64.69221" lon="24.469342"><ele>2.0</ele><time>2026-01-02T07:53:10Z</time><extensions><gpxtpx:TrackPointExtension><gpxtpx:hr>124</gpxtpx:hr></gpxtpx:TrackPointExtension></extensions></trkpt><trkpt lat="64.69221" lon="24.469342"><ele>2.0</ele><time>2026-01-02T07:53:15Z</time><extensions><gpxtpx:TrackPointExtension><gpxtpx:hr>126</gpxtpx:hr></gpxtpx:TrackPointExtension></extensions></trkpt><trkpt lat="64.69221" lon="24.469342"><ele>2.0</ele><time>2026-01-02T07:53:23Z</time><extensions><gpxtpx:TrackPointExtension><gpxtpx:hr>122</gpxtpx:hr></gpxtpx:TrackPointExtension></extensions></trkpt><trkpt lat="64.69221" lon="24.469342"><ele>2.0</ele><time>2026-01-02T07:53:29Z</time><extensions><gpxtpx:TrackPointExtension><gpxtpx:hr>109</gpxtpx:hr></gpxtpx:TrackPointExtension></extensions></trkpt><trkpt lat="64.69221" lon="24.469342"><ele>2.0</ele><time>2026-01-02T07:53:33Z</time><extensions><gpxtpx:TrackPointExtension><gpxtpx:hr>106</gpxtpx:hr></gpxtpx:TrackPointExtension></extensions></trkpt><trkpt lat="64.69221" lon="24.469342"><ele>2.0</ele><time>2026-01-02T07:53:35Z</time><extensions><gpxtpx:TrackPointExtension><gpxtpx:hr>105</gpxtpx:hr></gpxtpx:TrackPointExtension></extensions></trkpt><trkpt lat="64.69221" lon="24.469342"><ele>2.0</ele><time>2026-01-02T07:53:44Z</time><extensions><gpxtpx:TrackPointExtension><gpxtpx:hr>100</gpxtpx:hr></gpxtpx:TrackPointExtension></extensions></trkpt><trkpt lat="64.69221" lon="24.469342"><ele>2.0</ele><time>2026-01-02T07:53:45Z</time><extensions><gpxtpx:TrackPointExtension><gpxtpx:hr>99</gpxtpx:hr></gpxtpx:TrackPointExtension></extensions></trkpt><trkpt lat="64.69221" lon="24.469342"><ele>2.0</ele><time>2026-01-02T07:53:54Z</time><extensions><gpxtpx:TrackPointExtension><gpxtpx:hr>103</gpxtpx:hr></gpxtpx:TrackPointExtension></extensions></trkpt><trkpt lat="64.69221" lon="24.469342"><ele>2.0</ele><time>2026-01-02T07:53:57Z</time><extensions><gpxtpx:TrackPointExtension><gpxtpx:hr>103</gpxtpx:hr></gpxtpx:TrackPointExtension></extensions></trkpt><trkpt lat="64.69221" lon="24.469342"><ele>2.0</ele><time>2026-01-02T07:54:00Z</time><extensions><gpxtpx:TrackPointExtension><gpxtpx:hr>102</gpxtpx:hr></gpxtpx:TrackPointExtension></extensions></trkpt><trkpt lat="64.69221" lon="24.469342"><ele>2.0</ele><time>2026-01-02T07:54:09Z</time><extensions><gpxtpx:TrackPointExtension><gpxtpx:hr>96</gpxtpx:hr></gpxtpx:TrackPointExtension></extensions></trkpt><trkpt lat="64.69221" lon="24.469342"><ele>2.0</ele><time>2026-01-02T07:54:14Z</time><extensions><gpxtpx:TrackPointExtension><gpxtpx:hr>98</gpxtpx:hr></gpxtpx:TrackPointExtension></extensions></trkpt><trkpt lat="64.69221" lon="24.469342"><ele>2.0</ele><time>2026-01-02T07:54:18Z</time><extensions><gpxtpx:TrackPointExtension><gpxtpx:hr>98</gpxtpx:hr></gpxtpx:TrackPointExtension></extensions></trkpt><trkpt lat="64.69221" lon="24.469342"><ele>2.0</ele><time>2026-01-02T07:54:20Z</time><extensions><gpxtpx:TrackPointExtension><gpxtpx:hr>99</gpxtpx:hr></gpxtpx:TrackPointExtension></extensions></trkpt><trkpt lat="64.69221" lon="24.469342"><ele>2.0</ele><time>2026-01-02T07:54:29Z</time><extensions><gpxtpx:TrackPointExtension><gpxtpx:hr>100</gpxtpx:hr></gpxtpx:TrackPointExtension></extensions></trkpt><trkpt lat="64.69221" lon="24.469342"><ele>2.0</ele><time>2026-01-02T07:54:30Z</time><extensions><gpxtpx:TrackPointExtension><gpxtpx:hr>99</gpxtpx:hr></gpxtpx:TrackPointExtension></extensions></trkpt><trkpt lat="64.69221" lon="24.469342"><ele>2.0</ele><time>2026-01-02T07:54:38Z</time><extensions><gpxtpx:TrackPointExtension><gpxtpx:hr>92</gpxtpx:hr></gpxtpx:TrackPointExtension></extensions></trkpt><trkpt lat="64.69221" lon="24.469342"><ele>2.0</ele><time>2026-01-02T07:54:40Z</time><extensions><gpxtpx:TrackPointExtension><gpxtpx:hr>91</gpxtpx:hr></gpxtpx:TrackPointExtension></extensions></trkpt><trkpt lat="64.69221" lon="24.469342"><ele>2.0</ele><time>2026-01-02T07:54:49Z</time><extensions><gpxtpx:TrackPointExtension><gpxtpx:hr>86</gpxtpx:hr></gpxtpx:TrackPointExtension></extensions></trkpt><trkpt lat="64.69221" lon="24.469342"><ele>2.0</ele><time>2026-01-02T07:54:52Z</time><extensions><gpxtpx:TrackPointExtension><gpxtpx:hr>84</gpxtpx:hr></gpxtpx:TrackPointExtension></extensions></trkpt><trkpt lat="64.69221" lon="24.469342"><ele>2.0</ele><time>2026-01-02T07:54:56Z</time><extensions><gpxtpx:TrackPointExtension><gpxtpx:hr>85</gpxtpx:hr></gpxtpx:TrackPointExtension></extensions></trkpt><trkpt lat="64.69221" lon="24.469342"><ele>2.0</ele><time>2026-01-02T07:55:00Z</time><extensions><gpxtpx:TrackPointExtension><gpxtpx:hr>89</gpxtpx:hr></gpxtpx:TrackPointExtension></extensions></trkpt><trkpt lat="64.69221" lon="24.469342"><ele>2.0</ele><time>2026-01-02T07:55:06Z</time><extensions><gpxtpx:TrackPointExtension><gpxtpx:hr>95</gpxtpx:hr></gpxtpx:TrackPointExtension></extensions></trkpt><trkpt lat="64.69221" lon="24.469342"><ele>2.0</ele><time>2026-01-02T07:55:10Z</time><extensions><gpxtpx:TrackPointExtension><gpxtpx:hr>98</gpxtpx:hr></gpxtpx:TrackPointExtension></extensions></trkpt><trkpt lat="64.69221" lon="24.469342"><ele>2.0</ele><time>2026-01-02T07:55:15Z</time><extensions><gpxtpx:TrackPointExtension><gpxtpx:hr>100</gpxtpx:hr></gpxtpx:TrackPointExtension></extensions></trkpt><trkpt lat="64.69221" lon="24.469342"><ele>2.0</ele><time>2026-01-02T07:55:20Z</time><extensions><gpxtpx:TrackPointExtension><gpxtpx:hr>106</gpxtpx:hr></gpxtpx:TrackPointExtension></extensions></trkpt><trkpt lat="64.69221" lon="24.469342"><ele>2.0</ele><time>2026-01-02T07:55:25Z</time><extensions><gpxtpx:TrackPointExtension><gpxtpx:hr>112</gpxtpx:hr></gpxtpx:TrackPointExtension></extensions></trkpt><trkpt lat="64.69221" lon="24.469342"><ele>2.0</ele><time>2026-01-02T07:55:30Z</time><extensions><gpxtpx:TrackPointExtension><gpxtpx:hr>118</gpxtpx:hr></gpxtpx:TrackPointExtension></extensions></trkpt><trkpt lat="64.69221" lon="24.469342"><ele>2.0</ele><time>2026-01-02T07:55:39Z</time><extensions><gpxtpx:TrackPointExtension><gpxtpx:hr>125</gpxtpx:hr></gpxtpx:TrackPointExtension></extensions></trkpt><trkpt lat="64.69221" lon="24.469342"><ele>2.0</ele><time>2026-01-02T07:55:44Z</time><extensions><gpxtpx:TrackPointExtension><gpxtpx:hr>121</gpxtpx:hr></gpxtpx:TrackPointExtension></extensions></trkpt><trkpt lat="64.69221" lon="24.469342"><ele>2.0</ele><time>2026-01-02T07:55:45Z</time><extensions><gpxtpx:TrackPointExtension><gpxtpx:hr>120</gpxtpx:hr></gpxtpx:TrackPointExtension></extensions></trkpt><trkpt lat="64.69221" lon="24.469342"><ele>2.0</ele><time>2026-01-02T07:55:53Z</time><extensions><gpxtpx:TrackPointExtension><gpxtpx:hr>117</gpxtpx:hr></gpxtpx:TrackPointExtension></extensions></trkpt><trkpt lat="64.69221" lon="24.469342"><ele>2.0</ele><time>2026-01-02T07:55:58Z</time><extensions><gpxtpx:TrackPointExtension><gpxtpx:hr>119</gpxtpx:hr></gpxtpx:TrackPointExtension></extensions></trkpt><trkpt lat="64.69221" lon="24.469342"><ele>2.0</ele><time>2026-01-02T07:56:01Z</time><extensions><gpxtpx:TrackPointExtension><gpxtpx:hr>122</gpxtpx:hr></gpxtpx:TrackPointExtension></extensions></trkpt><trkpt lat="64.69221" lon="24.469342"><ele>2.0</ele><time>2026-01-02T07:56:05Z</time><extensions><gpxtpx:TrackPointExtension><gpxtpx:hr>125</gpxtpx:hr></gpxtpx:TrackPointExtension></extensions></trkpt><trkpt lat="64.69221" lon="24.469342"><ele>2.0</ele><time>2026-01-02T07:56:10Z</time><extensions><gpxtpx:TrackPointExtension><gpxtpx:hr>128</gpxtpx:hr></gpxtpx:TrackPointExtension></extensions></trkpt><trkpt lat="64.69221" lon="24.469342"><ele>2.0</ele><time>2026-01-02T07:56:19Z</time><extensions><gpxtpx:TrackPointExtension><gpxtpx:hr>127</gpxtpx:hr></gpxtpx:TrackPointExtension></extensions></trkpt><trkpt lat="64.69221" lon="24.469342"><ele>2.0</ele><time>2026-01-02T07:56:24Z</time><extensions><gpxtpx:TrackPointExtension><gpxtpx:hr>108</gpxtpx:hr></gpxtpx:TrackPointExtension></extensions></trkpt><trkpt lat="64.69221" lon="24.469342"><ele>2.0</ele><time>2026-01-02T07:56:28Z</time><extensions><gpxtpx:TrackPointExtension><gpxtpx:hr>103</gpxtpx:hr></gpxtpx:TrackPointExtension></extensions></trkpt><trkpt lat="64.69221" lon="24.469342"><ele>2.0</ele><time>2026-01-02T07:56:30Z</time><extensions><gpxtpx:TrackPointExtension><gpxtpx:hr>101</gpxtpx:hr></gpxtpx:TrackPointExtension></extensions></trkpt><trkpt lat="64.69221" lon="24.469342"><ele>2.0</ele><time>2026-01-02T07:56:35Z</time><extensions><gpxtpx:TrackPointExtension><gpxtpx:hr>100</gpxtpx:hr></gpxtpx:TrackPointExtension></extensions></trkpt><trkpt lat="64.69221" lon="24.469342"><ele>2.0</ele><time>2026-01-02T07:56:44Z</time><extensions><gpxtpx:TrackPointExtension><gpxtpx:hr>101</gpxtpx:hr></gpxtpx:TrackPointExtension></extensions></trkpt><trkpt lat="64.69221" lon="24.469342"><ele>2.0</ele><time>2026-01-02T07:56:49Z</time><extensions><gpxtpx:TrackPointExtension><gpxtpx:hr>98</gpxtpx:hr></gpxtpx:TrackPointExtension></extensions></trkpt><trkpt lat="64.69221" lon="24.469342"><ele>2.0</ele><time>2026-01-02T07:56:53Z</time><extensions><gpxtpx:TrackPointExtension><gpxtpx:hr>96</gpxtpx:hr></gpxtpx:TrackPointExtension></extensions></trkpt><trkpt lat="64.69221" lon="24.469342"><ele>2.0</ele><time>2026-01-02T07:56:58Z</time><extensions><gpxtpx:TrackPointExtension><gpxtpx:hr>92</gpxtpx:hr></gpxtpx:TrackPointExtension></extensions></trkpt><trkpt lat="64.69221" lon="24.469342"><ele>2.0</ele><time>2026-01-02T07:57:00Z</time><extensions><gpxtpx:TrackPointExtension><gpxtpx:hr>92</gpxtpx:hr></gpxtpx:TrackPointExtension></extensions></trkpt><trkpt lat="64.69221" lon="24.469342"><ele>2.0</ele><time>2026-01-02T07:57:05Z</time><extensions><gpxtpx:TrackPointExtension><gpxtpx:hr>94</gpxtpx:hr></gpxtpx:TrackPointExtension></extensions></trkpt><trkpt lat="64.69221" lon="24.469342"><ele>2.0</ele><time>2026-01-02T07:57:10Z</time><extensions><gpxtpx:TrackPointExtension><gpxtpx:hr>100</gpxtpx:hr></gpxtpx:TrackPointExtension></extensions></trkpt><trkpt lat="64.69221" lon="24.469342"><ele>2.0</ele><time>2026-01-02T07:57:15Z</time><extensions><gpxtpx:TrackPointExtension><gpxtpx:hr>106</gpxtpx:hr></gpxtpx:TrackPointExtension></extensions></trkpt><trkpt lat="64.69221" lon="24.469342"><ele>2.0</ele><time>2026-01-02T07:57:20Z</time><extensions><gpxtpx:TrackPointExtension><gpxtpx:hr>113</gpxtpx:hr></gpxtpx:TrackPointExtension></extensions></trkpt><trkpt lat="64.69221" lon="24.469342"><ele>2.0</ele><time>2026-01-02T07:57:25Z</time><extensions><gpxtpx:TrackPointExtension><gpxtpx:hr>116</gpxtpx:hr></gpxtpx:TrackPointExtension></extensions></trkpt><trkpt lat="64.69221" lon="24.469342"><ele>2.0</ele><time>2026-01-02T07:57:32Z</time><extensions><gpxtpx:TrackPointExtension><gpxtpx:hr>114</gpxtpx:hr></gpxtpx:TrackPointExtension></extensions></trkpt><trkpt lat="64.69221" lon="24.469342"><ele>2.0</ele><time>2026-01-02T07:57:39Z</time><extensions><gpxtpx:TrackPointExtension><gpxtpx:hr>109</gpxtpx:hr></gpxtpx:TrackPointExtension></extensions></trkpt><trkpt lat="64.69221" lon="24.469342"><ele>2.0</ele><time>2026-01-02T07:57:40Z</time><extensions><gpxtpx:TrackPointExtension><gpxtpx:hr>109</gpxtpx:hr></gpxtpx:TrackPointExtension></extensions></trkpt><trkpt lat="64.69221" lon="24.469342"><ele>2.0</ele><time>2026-01-02T07:57:48Z</time><extensions><gpxtpx:TrackPointExtension><gpxtpx:hr>114</gpxtpx:hr></gpxtpx:TrackPointExtension></extensions></trkpt><trkpt lat="64.69221" lon="24.469342"><ele>2.0</ele><time>2026-01-02T07:57:53Z</time><extensions><gpxtpx:TrackPointExtension><gpxtpx:hr>114</gpxtpx:hr></gpxtpx:TrackPointExtension></extensions></trkpt><trkpt lat="64.69221" lon="24.469342"><ele>2.0</ele><time>2026-01-02T07:57:59Z</time><extensions><gpxtpx:TrackPointExtension><gpxtpx:hr>112</gpxtpx:hr></gpxtpx:TrackPointExtension></extensions></trkpt><trkpt lat="64.69221" lon="24.469342"><ele>2.0</ele><time>2026-01-02T07:58:01Z</time><extensions><gpxtpx:TrackPointExtension><gpxtpx:hr>112</gpxtpx:hr></gpxtpx:TrackPointExtension></extensions></trkpt><trkpt lat="64.69221" lon="24.469342"><ele>2.0</ele><time>2026-01-02T07:58:05Z</time><extensions><gpxtpx:TrackPointExtension><gpxtpx:hr>113</gpxtpx:hr></gpxtpx:TrackPointExtension></extensions></trkpt><trkpt lat="64.69221" lon="24.469342"><ele>2.0</ele><time>2026-01-02T07:58:28Z</time><extensions><gpxtpx:TrackPointExtension><gpxtpx:hr>107</gpxtpx:hr></gpxtpx:TrackPointExtension></extensions></trkpt><trkpt lat="64.69221" lon="24.469342"><ele>2.0</ele><time>2026-01-02T07:58:33Z</time><extensions><gpxtpx:TrackPointExtension><gpxtpx:hr>104</gpxtpx:hr></gpxtpx:TrackPointExtension></extensions></trkpt><trkpt lat="64.69221" lon="24.469342"><ele>2.0</ele><time>2026-01-02T07:58:39Z</time><extensions><gpxtpx:TrackPointExtension><gpxtpx:hr>102</gpxtpx:hr></gpxtpx:TrackPointExtension></extensions></trkpt><trkpt lat="64.69221" lon="24.469342"><ele>2.0</ele><time>2026-01-02T07:58:44Z</time><extensions><gpxtpx:TrackPointExtension><gpxtpx:hr>99</gpxtpx:hr></gpxtpx:TrackPointExtension></extensions></trkpt><trkpt lat="64.69221" lon="24.469342"><ele>2.0</ele><time>2026-01-02T07:58:49Z</time><extensions><gpxtpx:TrackPointExtension><gpxtpx:hr>99</gpxtpx:hr></gpxtpx:TrackPointExtension></extensions></trkpt><trkpt lat="64.69221" lon="24.469342"><ele>2.0</ele><time>2026-01-02T07:58:50Z</time><extensions><gpxtpx:TrackPointExtension><gpxtpx:hr>99</gpxtpx:hr></gpxtpx:TrackPointExtension></extensions></trkpt><trkpt lat="64.69221" lon="24.469342"><ele>2.0</ele><time>2026-01-02T07:58:58Z</time><extensions><gpxtpx:TrackPointExtension><gpxtpx:hr>98</gpxtpx:hr></gpxtpx:TrackPointExtension></extensions></trkpt><trkpt lat="64.69221" lon="24.469342"><ele>2.0</ele><time>2026-01-02T07:59:02Z</time><extensions><gpxtpx:TrackPointExtension><gpxtpx:hr>100</gpxtpx:hr></gpxtpx:TrackPointExtension></extensions></trkpt><trkpt lat="64.69221" lon="24.469342"><ele>2.0</ele><time>2026-01-02T07:59:07Z</time><extensions><gpxtpx:TrackPointExtension><gpxtpx:hr>96</gpxtpx:hr></gpxtpx:TrackPointExtension></extensions></trkpt><trkpt lat="64.69221" lon="24.469342"><ele>2.0</ele><time>2026-01-02T07:59:12Z</time><extensions><gpxtpx:TrackPointExtension><gpxtpx:hr>97</gpxtpx:hr></gpxtpx:TrackPointExtension></extensions></trkpt><trkpt lat="64.69221" lon="24.469342"><ele>2.0</ele><time>2026-01-02T07:59:19Z</time><extensions><gpxtpx:TrackPointExtension><gpxtpx:hr>92</gpxtpx:hr></gpxtpx:TrackPointExtension></extensions></trkpt><trkpt lat="64.69221" lon="24.469342"><ele>2.0</ele><time>2026-01-02T07:59:24Z</time><extensions><gpxtpx:TrackPointExtension><gpxtpx:hr>89</gpxtpx:hr></gpxtpx:TrackPointExtension></extensions></trkpt><trkpt lat="64.69221" lon="24.469342"><ele>2.0</ele><time>2026-01-02T07:59:27Z</time><extensions><gpxtpx:TrackPointExtension><gpxtpx:hr>87</gpxtpx:hr></gpxtpx:TrackPointExtension></extensions></trkpt><trkpt lat="64.69221" lon="24.469342"><ele>2.0</ele><time>2026-01-02T07:59:30Z</time><extensions><gpxtpx:TrackPointExtension><gpxtpx:hr>87</gpxtpx:hr></gpxtpx:TrackPointExtension></extensions></trkpt><trkpt lat="64.69221" lon="24.469342"><ele>2.0</ele><time>2026-01-02T07:59:35Z</time><extensions><gpxtpx:TrackPointExtension><gpxtpx:hr>93</gpxtpx:hr></gpxtpx:TrackPointExtension></extensions></trkpt><trkpt lat="64.69221" lon="24.469342"><ele>2.0</ele><time>2026-01-02T07:59:40Z</time><extensions><gpxtpx:TrackPointExtension><gpxtpx:hr>104</gpxtpx:hr></gpxtpx:TrackPointExtension></extensions></trkpt><trkpt lat="64.69221" lon="24.469342"><ele>2.0</ele><time>2026-01-02T07:59:45Z</time><extensions><gpxtpx:TrackPointExtension><gpxtpx:hr>110</gpxtpx:hr></gpxtpx:TrackPointExtension></extensions></trkpt><trkpt lat="64.69221" lon="24.469342"><ele>2.0</ele><time>2026-01-02T07:59:54Z</time><extensions><gpxtpx:TrackPointExtension><gpxtpx:hr>108</gpxtpx:hr></gpxtpx:TrackPointExtension></extensions></trkpt><trkpt lat="64.69221" lon="24.469342"><ele>2.0</ele><time>2026-01-02T07:59:57Z</time><extensions><gpxtpx:TrackPointExtension><gpxtpx:hr>107</gpxtpx:hr></gpxtpx:TrackPointExtension></extensions></trkpt><trkpt lat="64.69221" lon="24.469342"><ele>2.0</ele><time>2026-01-02T08:00:00Z</time><extensions><gpxtpx:TrackPointExtension><gpxtpx:hr>108</gpxtpx:hr></gpxtpx:TrackPointExtension></extensions></trkpt><trkpt lat="64.69221" lon="24.469342"><ele>2.0</ele><time>2026-01-02T08:00:05Z</time><extensions><gpxtpx:TrackPointExtension><gpxtpx:hr>114</gpxtpx:hr></gpxtpx:TrackPointExtension></extensions></trkpt><trkpt lat="64.69221" lon="24.469342"><ele>2.0</ele><time>2026-01-02T08:00:14Z</time><extensions><gpxtpx:TrackPointExtension><gpxtpx:hr>107</gpxtpx:hr></gpxtpx:TrackPointExtension></extensions></trkpt><trkpt lat="64.69221" lon="24.469342"><ele>2.0</ele><time>2026-01-02T08:00:19Z</time><extensions><gpxtpx:TrackPointExtension><gpxtpx:hr>100</gpxtpx:hr></gpxtpx:TrackPointExtension></extensions></trkpt><trkpt lat="64.69221" lon="24.469342"><ele>2.0</ele><time>2026-01-02T08:00:24Z</time><extensions><gpxtpx:TrackPointExtension><gpxtpx:hr>97</gpxtpx:hr></gpxtpx:TrackPointExtension></extensions></trkpt><trkpt lat="64.69221" lon="24.469342"><ele>2.0</ele><time>2026-01-02T08:00:29Z</time><extensions><gpxtpx:TrackPointExtension><gpxtpx:hr>97</gpxtpx:hr></gpxtpx:TrackPointExtension></extensions></trkpt><trkpt lat="64.69221" lon="24.469342"><ele>2.0</ele><time>2026-01-02T08:00:34Z</time><extensions><gpxtpx:TrackPointExtension><gpxtpx:hr>92</gpxtpx:hr></gpxtpx:TrackPointExtension></extensions></trkpt><trkpt lat="64.69221" lon="24.469342"><ele>2.0</ele><time>2026-01-02T08:00:35Z</time><extensions><gpxtpx:TrackPointExtension><gpxtpx:hr>92</gpxtpx:hr></gpxtpx:TrackPointExtension></extensions></trkpt><trkpt lat="64.69221" lon="24.469342"><ele>2.0</ele><time>2026-01-02T08:00:42Z</time><extensions><gpxtpx:TrackPointExtension><gpxtpx:hr>93</gpxtpx:hr></gpxtpx:TrackPointExtension></extensions></trkpt><trkpt lat="64.69221" lon="24.469342"><ele>2.0</ele><time>2026-01-02T08:00:46Z</time><extensions><gpxtpx:TrackPointExtension><gpxtpx:hr>92</gpxtpx:hr></gpxtpx:TrackPointExtension></extensions></trkpt><trkpt lat="64.69221" lon="24.469342"><ele>2.0</ele><time>2026-01-02T08:00:50Z</time><extensions><gpxtpx:TrackPointExtension><gpxtpx:hr>92</gpxtpx:hr></gpxtpx:TrackPointExtension></extensions></trkpt><trkpt lat="64.69221" lon="24.469342"><ele>2.0</ele><time>2026-01-02T08:00:59Z</time><extensions><gpxtpx:TrackPointExtension><gpxtpx:hr>89</gpxtpx:hr></gpxtpx:TrackPointExtension></extensions></trkpt><trkpt lat="64.69221" lon="24.469342"><ele>2.0</ele><time>2026-01-02T08:01:04Z</time><extensions><gpxtpx:TrackPointExtension><gpxtpx:hr>87</gpxtpx:hr></gpxtpx:TrackPointExtension></extensions></trkpt><trkpt lat="64.69221" lon="24.469342"><ele>2.0</ele><time>2026-01-02T08:01:06Z</time><extensions><gpxtpx:TrackPointExtension><gpxtpx:hr>88</gpxtpx:hr></gpxtpx:TrackPointExtension></extensions></trkpt><trkpt lat="64.69221" lon="24.469342"><ele>2.0</ele><time>2026-01-02T08:01:10Z</time><extensions><gpxtpx:TrackPointExtension><gpxtpx:hr>89</gpxtpx:hr></gpxtpx:TrackPointExtension></extensions></trkpt><trkpt lat="64.69221" lon="24.469342"><ele>2.0</ele><time>2026-01-02T08:01:19Z</time><extensions><gpxtpx:TrackPointExtension><gpxtpx:hr>91</gpxtpx:hr></gpxtpx:TrackPointExtension></extensions></trkpt><trkpt lat="64.69221" lon="24.469342"><ele>2.0</ele><time>2026-01-02T08:01:20Z</time><extensions><gpxtpx:TrackPointExtension><gpxtpx:hr>91</gpxtpx:hr></gpxtpx:TrackPointExtension></extensions></trkpt><trkpt lat="64.69221" lon="24.469342"><ele>2.0</ele><time>2026-01-02T08:01:29Z</time><extensions><gpxtpx:TrackPointExtension><gpxtpx:hr>95</gpxtpx:hr></gpxtpx:TrackPointExtension></extensions></trkpt><trkpt lat="64.69221" lon="24.469342"><ele>2.0</ele><time>2026-01-02T08:01:31Z</time><extensions><gpxtpx:TrackPointExtension><gpxtpx:hr>95</gpxtpx:hr></gpxtpx:TrackPointExtension></extensions></trkpt><trkpt lat="64.69221" lon="24.469342"><ele>2.0</ele><time>2026-01-02T08:01:35Z</time><extensions><gpxtpx:TrackPointExtension><gpxtpx:hr>95</gpxtpx:hr></gpxtpx:TrackPointExtension></extensions></trkpt><trkpt lat="64.69221" lon="24.469342"><ele>2.0</ele><time>2026-01-02T08:01:44Z</time><extensions><gpxtpx:TrackPointExtension><gpxtpx:hr>92</gpxtpx:hr></gpxtpx:TrackPointExtension></extensions></trkpt><trkpt lat="64.69221" lon="24.469342"><ele>2.0</ele><time>2026-01-02T08:01:45Z</time><extensions><gpxtpx:TrackPointExtension><gpxtpx:hr>93</gpxtpx:hr></gpxtpx:TrackPointExtension></extensions></trkpt><trkpt lat="64.69221" lon="24.469342"><ele>2.0</ele><time>2026-01-02T08:01:50Z</time><extensions><gpxtpx:TrackPointExtension><gpxtpx:hr>96</gpxtpx:hr></gpxtpx:TrackPointExtension></extensions></trkpt><trkpt lat="64.69221" lon="24.469342"><ele>2.0</ele><time>2026-01-02T08:01:59Z</time><extensions><gpxtpx:TrackPointExtension><gpxtpx:hr>101</gpxtpx:hr></gpxtpx:TrackPointExtension></extensions></trkpt><trkpt lat="64.69221" lon="24.469342"><ele>2.0</ele><time>2026-01-02T08:02:03Z</time><extensions><gpxtpx:TrackPointExtension><gpxtpx:hr>100</gpxtpx:hr></gpxtpx:TrackPointExtension></extensions></trkpt><trkpt lat="64.69221" lon="24.469342"><ele>2.0</ele><time>2026-01-02T08:02:05Z</time><extensions><gpxtpx:TrackPointExtension><gpxtpx:hr>100</gpxtpx:hr></gpxtpx:TrackPointExtension></extensions></trkpt><trkpt lat="64.69221" lon="24.469342"><ele>2.0</ele><time>2026-01-02T08:02:14Z</time><extensions><gpxtpx:TrackPointExtension><gpxtpx:hr>99</gpxtpx:hr></gpxtpx:TrackPointExtension></extensions></trkpt><trkpt lat="64.69221" lon="24.469342"><ele>2.0</ele><time>2026-01-02T08:02:19Z</time><extensions><gpxtpx:TrackPointExtension><gpxtpx:hr>99</gpxtpx:hr></gpxtpx:TrackPointExtension></extensions></trkpt><trkpt lat="64.69221" lon="24.469342"><ele>2.0</ele><time>2026-01-02T08:02:20Z</time><extensions><gpxtpx:TrackPointExtension><gpxtpx:hr>99</gpxtpx:hr></gpxtpx:TrackPointExtension></extensions></trkpt><trkpt lat="64.69221" lon="24.469342"><ele>2.0</ele><time>2026-01-02T08:02:25Z</time><extensions><gpxtpx:TrackPointExtension><gpxtpx:hr>98</gpxtpx:hr></gpxtpx:TrackPointExtension></extensions></trkpt><trkpt lat="64.69221" lon="24.469342"><ele>2.0</ele><time>2026-01-02T08:02:34Z</time><extensions><gpxtpx:TrackPointExtension><gpxtpx:hr>97</gpxtpx:hr></gpxtpx:TrackPointExtension></extensions></trkpt><trkpt lat="64.69221" lon="24.469342"><ele>2.0</ele><time>2026-01-02T08:02:39Z</time><extensions><gpxtpx:TrackPointExtension><gpxtpx:hr>97</gpxtpx:hr></gpxtpx:TrackPointExtension></extensions></trkpt><trkpt lat="64.69221" lon="24.469342"><ele>2.0</ele><time>2026-01-02T08:02:44Z</time><extensions><gpxtpx:TrackPointExtension><gpxtpx:hr>98</gpxtpx:hr></gpxtpx:TrackPointExtension></extensions></trkpt><trkpt lat="64.69221" lon="24.469342"><ele>2.0</ele><time>2026-01-02T08:02:49Z</time><extensions><gpxtpx:TrackPointExtension><gpxtpx:hr>98</gpxtpx:hr></gpxtpx:TrackPointExtension></extensions></trkpt><trkpt lat="64.69221" lon="24.469342"><ele>2.0</ele><time>2026-01-02T08:02:51Z</time><extensions><gpxtpx:TrackPointExtension><gpxtpx:hr>98</gpxtpx:hr></gpxtpx:TrackPointExtension></extensions></trkpt><trkpt lat="64.69221" lon="24.469342"><ele>2.0</ele><time>2026-01-02T08:02:57Z</time><extensions><gpxtpx:TrackPointExtension><gpxtpx:hr>97</gpxtpx:hr></gpxtpx:TrackPointExtension></extensions></trkpt><trkpt lat="64.69221" lon="24.469342"><ele>2.0</ele><time>2026-01-02T08:03:00Z</time><extensions><gpxtpx:TrackPointExtension><gpxtpx:hr>96</gpxtpx:hr></gpxtpx:TrackPointExtension></extensions></trkpt><trkpt lat="64.69221" lon="24.469342"><ele>2.0</ele><time>2026-01-02T08:03:05Z</time><extensions><gpxtpx:TrackPointExtension><gpxtpx:hr>98</gpxtpx:hr></gpxtpx:TrackPointExtension></extensions></trkpt><trkpt lat="64.69221" lon="24.469342"><ele>2.0</ele><time>2026-01-02T08:03:14Z</time><extensions><gpxtpx:TrackPointExtension><gpxtpx:hr>99</gpxtpx:hr></gpxtpx:TrackPointExtension></extensions></trkpt><trkpt lat="64.69221" lon="24.469342"><ele>2.0</ele><time>2026-01-02T08:03:19Z</time><extensions><gpxtpx:TrackPointExtension><gpxtpx:hr>100</gpxtpx:hr></gpxtpx:TrackPointExtension></extensions></trkpt><trkpt lat="64.69221" lon="24.469342"><ele>2.0</ele><time>2026-01-02T08:03:20Z</time><extensions><gpxtpx:TrackPointExtension><gpxtpx:hr>100</gpxtpx:hr></gpxtpx:TrackPointExtension></extensions></trkpt><trkpt lat="64.69221" lon="24.469342"><ele>2.0</ele><time>2026-01-02T08:03:25Z</time><extensions><gpxtpx:TrackPointExtension><gpxtpx:hr>100</gpxtpx:hr></gpxtpx:TrackPointExtension></extensions></trkpt><trkpt lat="64.69221" lon="24.469342"><ele>2.0</ele><time>2026-01-02T08:03:34Z</time><extensions><gpxtpx:TrackPointExtension><gpxtpx:hr>101</gpxtpx:hr></gpxtpx:TrackPointExtension></extensions></trkpt><trkpt lat="64.69221" lon="24.469342"><ele>2.0</ele><time>2026-01-02T08:03:36Z</time><extensions><gpxtpx:TrackPointExtension><gpxtpx:hr>101</gpxtpx:hr></gpxtpx:TrackPointExtension></extensions></trkpt><trkpt lat="64.69221" lon="24.469342"><ele>2.0</ele><time>2026-01-02T08:03:40Z</time><extensions><gpxtpx:TrackPointExtension><gpxtpx:hr>99</gpxtpx:hr></gpxtpx:TrackPointExtension></extensions></trkpt><trkpt lat="64.69221" lon="24.469342"><ele>2.0</ele><time>2026-01-02T08:03:45Z</time><extensions><gpxtpx:TrackPointExtension><gpxtpx:hr>99</gpxtpx:hr></gpxtpx:TrackPointExtension></extensions></trkpt><trkpt lat="64.69221" lon="24.469342"><ele>2.0</ele><time>2026-01-02T08:03:50Z</time><extensions><gpxtpx:TrackPointExtension><gpxtpx:hr>98</gpxtpx:hr></gpxtpx:TrackPointExtension></extensions></trkpt><trkpt lat="64.69221" lon="24.469342"><ele>2.0</ele><time>2026-01-02T08:03:55Z</time><extensions><gpxtpx:TrackPointExtension><gpxtpx:hr>97</gpxtpx:hr></gpxtpx:TrackPointExtension></extensions></trkpt><trkpt lat="64.69221" lon="24.469342"><ele>2.0</ele><time>2026-01-02T08:04:03Z</time><extensions><gpxtpx:TrackPointExtension><gpxtpx:hr>98</gpxtpx:hr></gpxtpx:TrackPointExtension></extensions></trkpt><trkpt lat="64.69221" lon="24.469342"><ele>2.0</ele><time>2026-01-02T08:04:08Z</time><extensions><gpxtpx:TrackPointExtension><gpxtpx:hr>99</gpxtpx:hr></gpxtpx:TrackPointExtension></extensions></trkpt><trkpt lat="64.69221" lon="24.469342"><ele>2.0</ele><time>2026-01-02T08:04:10Z</time><extensions><gpxtpx:TrackPointExtension><gpxtpx:hr>99</gpxtpx:hr></gpxtpx:TrackPointExtension></extensions></trkpt><trkpt lat="64.69221" lon="24.469342"><ele>2.0</ele><time>2026-01-02T08:04:16Z</time><extensions><gpxtpx:TrackPointExtension><gpxtpx:hr>98</gpxtpx:hr></gpxtpx:TrackPointExtension></extensions></trkpt><trkpt lat="64.69221" lon="24.469342"><ele>2.0</ele><time>2026-01-02T08:04:23Z</time><extensions><gpxtpx:TrackPointExtension><gpxtpx:hr>99</gpxtpx:hr></gpxtpx:TrackPointExtension></extensions></trkpt><trkpt lat="64.69221" lon="24.469342"><ele>2.0</ele><time>2026-01-02T08:04:29Z</time><extensions><gpxtpx:TrackPointExtension><gpxtpx:hr>102</gpxtpx:hr></gpxtpx:TrackPointExtension></extensions></trkpt><trkpt lat="64.69221" lon="24.469342"><ele>2.0</ele><time>2026-01-02T08:04:33Z</time><extensions><gpxtpx:TrackPointExtension><gpxtpx:hr>101</gpxtpx:hr></gpxtpx:TrackPointExtension></extensions></trkpt><trkpt lat="64.69221" lon="24.469342"><ele>2.0</ele><time>2026-01-02T08:04:36Z</time><extensions><gpxtpx:TrackPointExtension><gpxtpx:hr>101</gpxtpx:hr></gpxtpx:TrackPointExtension></extensions></trkpt><trkpt lat="64.69221" lon="24.469342"><ele>2.0</ele><time>2026-01-02T08:04:40Z</time><extensions><gpxtpx:TrackPointExtension><gpxtpx:hr>100</gpxtpx:hr></gpxtpx:TrackPointExtension></extensions></trkpt><trkpt lat="64.69221" lon="24.469342"><ele>2.0</ele><time>2026-01-02T08:04:45Z</time><extensions><gpxtpx:TrackPointExtension><gpxtpx:hr>100</gpxtpx:hr></gpxtpx:TrackPointExtension></extensions></trkpt><trkpt lat="64.69221" lon="24.469342"><ele>2.0</ele><time>2026-01-02T08:04:54Z</time><extensions><gpxtpx:TrackPointExtension><gpxtpx:hr>99</gpxtpx:hr></gpxtpx:TrackPointExtension></extensions></trkpt><trkpt lat="64.69221" lon="24.469342"><ele>2.0</ele><time>2026-01-02T08:04:58Z</time><extensions><gpxtpx:TrackPointExtension><gpxtpx:hr>99</gpxtpx:hr></gpxtpx:TrackPointExtension></extensions></trkpt><trkpt lat="64.69221" lon="24.469342"><ele>2.0</ele><time>2026-01-02T08:05:00Z</time><extensions><gpxtpx:TrackPointExtension><gpxtpx:hr>99</gpxtpx:hr></gpxtpx:TrackPointExtension></extensions></trkpt><trkpt lat="64.69221" lon="24.469342"><ele>2.0</ele><time>2026-01-02T08:05:05Z</time><extensions><gpxtpx:TrackPointExtension><gpxtpx:hr>97</gpxtpx:hr></gpxtpx:TrackPointExtension></extensions></trkpt><trkpt lat="64.69221" lon="24.469342"><ele>2.0</ele><time>2026-01-02T08:05:10Z</time><extensions><gpxtpx:TrackPointExtension><gpxtpx:hr>96</gpxtpx:hr></gpxtpx:TrackPointExtension></extensions></trkpt><trkpt lat="64.69221" lon="24.469342"><ele>2.0</ele><time>2026-01-02T08:05:16Z</time><extensions><gpxtpx:TrackPointExtension><gpxtpx:hr>97</gpxtpx:hr></gpxtpx:TrackPointExtension></extensions></trkpt><trkpt lat="64.69221" lon="24.469342"><ele>2.0</ele><time>2026-01-02T08:05:20Z</time><extensions><gpxtpx:TrackPointExtension><gpxtpx:hr>96</gpxtpx:hr></gpxtpx:TrackPointExtension></extensions></trkpt><trkpt lat="64.69221" lon="24.469342"><ele>2.0</ele><time>2026-01-02T08:05:25Z</time><extensions><gpxtpx:TrackPointExtension><gpxtpx:hr>99</gpxtpx:hr></gpxtpx:TrackPointExtension></extensions></trkpt><trkpt lat="64.69221" lon="24.469342"><ele>2.0</ele><time>2026-01-02T08:05:34Z</time><extensions><gpxtpx:TrackPointExtension><gpxtpx:hr>99</gpxtpx:hr></gpxtpx:TrackPointExtension></extensions></trkpt><trkpt lat="64.69221" lon="24.469342"><ele>2.0</ele><time>2026-01-02T08:05:39Z</time><extensions><gpxtpx:TrackPointExtension><gpxtpx:hr>99</gpxtpx:hr></gpxtpx:TrackPointExtension></extensions></trkpt><trkpt lat="64.69221" lon="24.469342"><ele>2.0</ele><time>2026-01-02T08:05:43Z</time><extensions><gpxtpx:TrackPointExtension><gpxtpx:hr>101</gpxtpx:hr></gpxtpx:TrackPointExtension></extensions></trkpt><trkpt lat="64.69221" lon="24.469342"><ele>2.0</ele><time>2026-01-02T08:05:49Z</time><extensions><gpxtpx:TrackPointExtension><gpxtpx:hr>104</gpxtpx:hr></gpxtpx:TrackPointExtension></extensions></trkpt><trkpt lat="64.69221" lon="24.469342"><ele>2.0</ele><time>2026-01-02T08:05:53Z</time><extensions><gpxtpx:TrackPointExtension><gpxtpx:hr>101</gpxtpx:hr></gpxtpx:TrackPointExtension></extensions></trkpt><trkpt lat="64.69221" lon="24.469342"><ele>2.0</ele><time>2026-01-02T08:05:59Z</time><extensions><gpxtpx:TrackPointExtension><gpxtpx:hr>99</gpxtpx:hr></gpxtpx:TrackPointExtension></extensions></trkpt><trkpt lat="64.69221" lon="24.469342"><ele>2.0</ele><time>2026-01-02T08:06:00Z</time><extensions><gpxtpx:TrackPointExtension><gpxtpx:hr>100</gpxtpx:hr></gpxtpx:TrackPointExtension></extensions></trkpt><trkpt lat="64.69221" lon="24.469342"><ele>2.0</ele><time>2026-01-02T08:06:08Z</time><extensions><gpxtpx:TrackPointExtension><gpxtpx:hr>92</gpxtpx:hr></gpxtpx:TrackPointExtension></extensions></trkpt><trkpt lat="64.69221" lon="24.469342"><ele>2.0</ele><time>2026-01-02T08:06:13Z</time><extensions><gpxtpx:TrackPointExtension><gpxtpx:hr>90</gpxtpx:hr></gpxtpx:TrackPointExtension></extensions></trkpt><trkpt lat="64.69221" lon="24.469342"><ele>2.0</ele><time>2026-01-02T08:06:16Z</time><extensions><gpxtpx:TrackPointExtension><gpxtpx:hr>90</gpxtpx:hr></gpxtpx:TrackPointExtension></extensions></trkpt><trkpt lat="64.69221" lon="24.469342"><ele>2.0</ele><time>2026-01-02T08:06:20Z</time><extensions><gpxtpx:TrackPointExtension><gpxtpx:hr>91</gpxtpx:hr></gpxtpx:TrackPointExtension></extensions></trkpt><trkpt lat="64.69221" lon="24.469342"><ele>2.0</ele><time>2026-01-02T08:06:29Z</time><extensions><gpxtpx:TrackPointExtension><gpxtpx:hr>95</gpxtpx:hr></gpxtpx:TrackPointExtension></extensions></trkpt><trkpt lat="64.69221" lon="24.469342"><ele>2.0</ele><time>2026-01-02T08:06:32Z</time><extensions><gpxtpx:TrackPointExtension><gpxtpx:hr>96</gpxtpx:hr></gpxtpx:TrackPointExtension></extensions></trkpt><trkpt lat="64.69221" lon="24.469342"><ele>2.0</ele><time>2026-01-02T08:06:38Z</time><extensions><gpxtpx:TrackPointExtension><gpxtpx:hr>89</gpxtpx:hr></gpxtpx:TrackPointExtension></extensions></trkpt><trkpt lat="64.69221" lon="24.469342"><ele>2.0</ele><time>2026-01-02T08:06:42Z</time><extensions><gpxtpx:TrackPointExtension><gpxtpx:hr>89</gpxtpx:hr></gpxtpx:TrackPointExtension></extensions></trkpt><trkpt lat="64.69221" lon="24.469342"><ele>2.0</ele><time>2026-01-02T08:06:48Z</time><extensions><gpxtpx:TrackPointExtension><gpxtpx:hr>91</gpxtpx:hr></gpxtpx:TrackPointExtension></extensions></trkpt><trkpt lat="64.69221" lon="24.469342"><ele>2.0</ele><time>2026-01-02T08:06:50Z</time><extensions><gpxtpx:TrackPointExtension><gpxtpx:hr>91</gpxtpx:hr></gpxtpx:TrackPointExtension></extensions></trkpt><trkpt lat="64.69221" lon="24.469342"><ele>2.0</ele><time>2026-01-02T08:06:59Z</time><extensions><gpxtpx:TrackPointExtension><gpxtpx:hr>87</gpxtpx:hr></gpxtpx:TrackPointExtension></extensions></trkpt><trkpt lat="64.69221" lon="24.469342"><ele>2.0</ele><time>2026-01-02T08:07:04Z</time><extensions><gpxtpx:TrackPointExtension><gpxtpx:hr>87</gpxtpx:hr></gpxtpx:TrackPointExtension></extensions></trkpt><trkpt lat="64.69221" lon="24.469342"><ele>2.0</ele><time>2026-01-02T08:07:05Z</time><extensions><gpxtpx:TrackPointExtension><gpxtpx:hr>87</gpxtpx:hr></gpxtpx:TrackPointExtension></extensions></trkpt><trkpt lat="64.69221" lon="24.469342"><ele>2.0</ele><time>2026-01-02T08:07:10Z</time><extensions><gpxtpx:TrackPointExtension><gpxtpx:hr>84</gpxtpx:hr></gpxtpx:TrackPointExtension></extensions></trkpt></trkseg></trk></gpx>