<?xml version="1.0" encoding="UTF-8" standalone="no"?><gpx xmlns="http://www.topografix.com/GPX/1/1" xmlns:gpxtpx="http://www.garmin.com/xmlschemas/TrackPointExtension/v1" xmlns:xsi="http://www.w3.org/2001/XMLSchema-instance" creator="Sports Tracker" version="1.1" xsi:schemaLocation="http://www.topografix.com/GPX/1/1 http://www.topografix.com/GPX/1/1/gpx.xsd http://www.garmin.com/xmlschemas/TrackPointExtension/v1 http://www.garmin.com/xmlschemas/TrackPointExtensionv1.xsd"><metadata><name/><desc/><author><name>anttipehkonen240</name></author></metadata><trk><name/><trkseg><trkpt lat="60.233495" lon="24.96013"><ele>35.9</ele><time>2026-05-23T14:32:58Z</time><extensions><gpxtpx:TrackPointExtension><gpxtpx:hr>103</gpxtpx:hr></gpxtpx:TrackPointExtension></extensions></trkpt><trkpt lat="60.233495" lon="24.96013"><ele>35.9</ele><time>2026-05-23T14:33:02Z</time><extensions><gpxtpx:TrackPointExtension><gpxtpx:hr>91</gpxtpx:hr></gpxtpx:TrackPointExtension></extensions></trkpt><trkpt lat="60.233495" lon="24.96013"><ele>35.9</ele><time>2026-05-23T14:33:05Z</time><extensions><gpxtpx:TrackPointExtension><gpxtpx:hr>92</gpxtpx:hr></gpxtpx:TrackPointExtension></extensions></trkpt><trkpt lat="60.233495" lon="24.96013"><ele>35.9</ele><time>2026-05-23T14:33:12Z</time><extensions><gpxtpx:TrackPointExtension><gpxtpx:hr>90</gpxtpx:hr></gpxtpx:TrackPointExtension></extensions></trkpt><trkpt lat="60.233495" lon="24.96013"><ele>35.9</ele><time>2026-05-23T14:33:17Z</time><extensions><gpxtpx:TrackPointExtension><gpxtpx:hr>91</gpxtpx:hr></gpxtpx:TrackPointExtension></extensions></trkpt><trkpt lat="60.233495" lon="24.96013"><ele>35.9</ele><time>2026-05-23T14:33:23Z</time><extensions><gpxtpx:TrackPointExtension><gpxtpx:hr>92</gpxtpx:hr></gpxtpx:TrackPointExtension></extensions></trkpt><trkpt lat="60.233495" lon="24.96013"><ele>35.9</ele><time>2026-05-23T14:33:25Z</time><extensions><gpxtpx:TrackPointExtension><gpxtpx:hr>92</gpxtpx:hr></gpxtpx:TrackPointExtension></extensions></trkpt><trkpt lat="60.233495" lon="24.96013"><ele>35.9</ele><time>2026-05-23T14:33:33Z</time><extensions><gpxtpx:TrackPointExtension><gpxtpx:hr>98</gpxtpx:hr></gpxtpx:TrackPointExtension></extensions></trkpt><trkpt lat="60.233495" lon="24.96013"><ele>35.9</ele><time>2026-05-23T14:33:34Z</time><extensions><gpxtpx:TrackPointExtension><gpxtpx:hr>98</gpxtpx:hr></gpxtpx:TrackPointExtension></extensions></trkpt><trkpt lat="60.233495" lon="24.96013"><ele>35.9</ele><time>2026-05-23T14:33:39Z</time><extensions><gpxtpx:TrackPointExtension><gpxtpx:hr>101</gpxtpx:hr></gpxtpx:TrackPointExtension></extensions></trkpt><trkpt lat="60.233495" lon="24.96013"><ele>35.9</ele><time>2026-05-23T14:33:44Z</time><extensions><gpxtpx:TrackPointExtension><gpxtpx:hr>104</gpxtpx:hr></gpxtpx:TrackPointExtension></extensions></trkpt><trkpt lat="60.233495" lon="24.96013"><ele>35.9</ele><time>2026-05-23T14:33:49Z</time><extensions><gpxtpx:TrackPointExtension><gpxtpx:hr>106</gpxtpx:hr></gpxtpx:TrackPointExtension></extensions></trkpt><trkpt lat="60.233495" lon="24.96013"><ele>35.9</ele><time>2026-05-23T14:33:58Z</time><extensions><gpxtpx:TrackPointExtension><gpxtpx:hr>116</gpxtpx:hr></gpxtpx:TrackPointExtension></extensions></trkpt><trkpt lat="60.233495" lon="24.96013"><ele>35.9</ele><time>2026-05-23T14:34:03Z</time><extensions><gpxtpx:TrackPointExtension><gpxtpx:hr>120</gpxtpx:hr></gpxtpx:TrackPointExtension></extensions></trkpt><trkpt lat="60.233495" lon="24.96013"><ele>35.9</ele><time>2026-05-23T14:34:09Z</time><extensions><gpxtpx:TrackPointExtension><gpxtpx:hr>122</gpxtpx:hr></gpxtpx:TrackPointExtension></extensions></trkpt><trkpt lat="60.233495" lon="24.96013"><ele>35.9</ele><time>2026-05-23T14:34:13Z</time><extensions><gpxtpx:TrackPointExtension><gpxtpx:hr>120</gpxtpx:hr></gpxtpx:TrackPointExtension></extensions></trkpt><trkpt lat="60.233495" lon="24.96013"><ele>35.9</ele><time>2026-05-23T14:34:19Z</time><extensions><gpxtpx:TrackPointExtension><gpxtpx:hr>120</gpxtpx:hr></gpxtpx:TrackPointExtension></extensions></trkpt><trkpt lat="60.233495" lon="24.96013"><ele>35.9</ele><time>2026-05-23T14:34:21Z</time><extensions><gpxtpx:TrackPointExtension><gpxtpx:hr>121</gpxtpx:hr></gpxtpx:TrackPointExtension></extensions></trkpt><trkpt lat="60.233495" lon="24.96013"><ele>35.9</ele><time>2026-05-23T14:34:28Z</time><extensions><gpxtpx:TrackPointExtension><gpxtpx:hr>121</gpxtpx:hr></gpxtpx:TrackPointExtension></extensions></trkpt><trkpt lat="60.233495" lon="24.96013"><ele>35.9</ele><time>2026-05-23T14:34:31Z</time><extensions><gpxtpx:TrackPointExtension><gpxtpx:hr>118</gpxtpx:hr></gpxtpx:TrackPointExtension></extensions></trkpt><trkpt lat="60.233495" lon="24.96013"><ele>35.9</ele><time>2026-05-23T14:34:35Z</time><extensions><gpxtpx:TrackPointExtension><gpxtpx:hr>116</gpxtpx:hr></gpxtpx:TrackPointExtension></extensions></trkpt><trkpt lat="60.233495" lon="24.96013"><ele>35.9</ele><time>2026-05-23T14:34:44Z</time><extensions><gpxtpx:TrackPointExtension><gpxtpx:hr>107</gpxtpx:hr></gpxtpx:TrackPointExtension></extensions></trkpt><trkpt lat="60.233495" lon="24.96013"><ele>35.9</ele><time>2026-05-23T14:34:48Z</time><extensions><gpxtpx:TrackPointExtension><gpxtpx:hr>109</gpxtpx:hr></gpxtpx:TrackPointExtension></extensions></trkpt><trkpt lat="60.233495" lon="24.96013"><ele>35.9</ele><time>2026-05-23T14:34:52Z</time><extensions><gpxtpx:TrackPointExtension><gpxtpx:hr>109</gpxtpx:hr></gpxtpx:TrackPointExtension></extensions></trkpt><trkpt lat="60.233495" lon="24.96013"><ele>35.9</ele><time>2026-05-23T14:34:55Z</time><extensions><gpxtpx:TrackPointExtension><gpxtpx:hr>109</gpxtpx:hr></gpxtpx:TrackPointExtension></extensions></trkpt><trkpt lat="60.233495" lon="24.96013"><ele>35.9</ele><time>2026-05-23T14:35:03Z</time><extensions><gpxtpx:TrackPointExtension><gpxtpx:hr>98</gpxtpx:hr></gpxtpx:TrackPointExtension></extensions></trkpt><trkpt lat="60.233495" lon="24.96013"><ele>35.9</ele><time>2026-05-23T14:35:08Z</time><extensions><gpxtpx:TrackPointExtension><gpxtpx:hr>98</gpxtpx:hr></gpxtpx:TrackPointExtension></extensions></trkpt><trkpt lat="60.233495" lon="24.96013"><ele>35.9</ele><time>2026-05-23T14:35:13Z</time><extensions><gpxtpx:TrackPointExtension><gpxtpx:hr>95</gpxtpx:hr></gpxtpx:TrackPointExtension></extensions></trkpt><trkpt lat="60.233495" lon="24.96013"><ele>35.9</ele><time>2026-05-23T14:35:15Z</time><extensions><gpxtpx:TrackPointExtension><gpxtpx:hr>95</gpxtpx:hr></gpxtpx:TrackPointExtension></extensions></trkpt><trkpt lat="60.233495" lon="24.96013"><ele>35.9</ele><time>2026-05-23T14:35:24Z</time><extensions><gpxtpx:TrackPointExtension><gpxtpx:hr>95</gpxtpx:hr></gpxtpx:TrackPointExtension></extensions></trkpt><trkpt lat="60.233495" lon="24.96013"><ele>35.9</ele><time>2026-05-23T14:35:27Z</time><extensions><gpxtpx:TrackPointExtension><gpxtpx:hr>96</gpxtpx:hr></gpxtpx:TrackPointExtension></extensions></trkpt><trkpt lat="60.233495" lon="24.96013"><ele>35.9</ele><time>2026-05-23T14:35:30Z</time><extensions><gpxtpx:TrackPointExtension><gpxtpx:hr>96</gpxtpx:hr></gpxtpx:TrackPointExtension></extensions></trkpt><trkpt lat="60.233495" lon="24.96013"><ele>35.9</ele><time>2026-05-23T14:35:39Z</time><extensions><gpxtpx:TrackPointExtension><gpxtpx:hr>103</gpxtpx:hr></gpxtpx:TrackPointExtension></extensions></trkpt><trkpt lat="60.233495" lon="24.96013"><ele>35.9</ele><time>2026-05-23T14:35:42Z</time><extensions><gpxtpx:TrackPointExtension><gpxtpx:hr>105</gpxtpx:hr></gpxtpx:TrackPointExtension></extensions></trkpt><trkpt lat="60.233495" lon="24.96013"><ele>35.9</ele><time>2026-05-23T14:35:47Z</time><extensions><gpxtpx:TrackPointExtension><gpxtpx:hr>109</gpxtpx:hr></gpxtpx:TrackPointExtension></extensions></trkpt><trkpt lat="60.233495" lon="24.96013"><ele>35.9</ele><time>2026-05-23T14:35:57Z</time></trkpt><trkpt lat="60.233473" lon="24.960063"><ele>36.6</ele><time>2026-05-23T14:35:58Z</time></trkpt><trkpt lat="60.233453" lon="24.959998"><ele>37.3</ele><time>2026-05-23T14:35:59Z</time></trkpt><trkpt lat="60.233433" lon="24.959932"><ele>37.9</ele><time>2026-05-23T14:36:00Z</time></trkpt><trkpt lat="60.233415" lon="24.959862"><ele>38.5</ele><time>2026-05-23T14:36:01Z</time></trkpt><trkpt lat="60.233397" lon="24.959792"><ele>39.1</ele><time>2026-05-23T14:36:02Z</time><extensions><gpxtpx:TrackPointExtension><gpxtpx:hr>108</gpxtpx:hr></gpxtpx:TrackPointExtension></extensions></trkpt><trkpt lat="60.23338" lon="24.959722"><ele>39.6</ele><time>2026-05-23T14:36:03Z</time></trkpt><trkpt lat="60.233362" lon="24.959653"><ele>39.9</ele><time>2026-05-23T14:36:04Z</time></trkpt><trkpt lat="60.233343" lon="24.959583"><ele>40.2</ele><time>2026-05-23T14:36:05Z</time></trkpt><trkpt lat="60.233327" lon="24.959513"><ele>40.5</ele><time>2026-05-23T14:36:06Z</time></trkpt><trkpt lat="60.23331" lon="24.959445"><ele>40.6</ele><time>2026-05-23T14:36:07Z</time></trkpt><trkpt lat="60.233295" lon="24.959375"><ele>40.8</ele><time>2026-05-23T14:36:08Z</time><extensions><gpxtpx:TrackPointExtension><gpxtpx:hr>107</gpxtpx:hr></gpxtpx:TrackPointExtension></extensions></trkpt><trkpt lat="60.23328" lon="24.959308"><ele>40.9</ele><time>2026-05-23T14:36:09Z</time></trkpt><trkpt lat="60.233265" lon="24.95924"><ele>41.0</ele><time>2026-05-23T14:36:10Z</time></trkpt><trkpt lat="60.233252" lon="24.959175"><ele>41.1</ele><time>2026-05-23T14:36:11Z</time></trkpt><trkpt lat="60.233237" lon="24.959115"><ele>41.2</ele><time>2026-05-23T14:36:12Z</time></trkpt><trkpt lat="60.233218" lon="24.959057"><ele>41.3</ele><time>2026-05-23T14:36:13Z</time></trkpt><trkpt lat="60.233197" lon="24.959"><ele>41.3</ele><time>2026-05-23T14:36:14Z</time><extensions><gpxtpx:TrackPointExtension><gpxtpx:hr>109</gpxtpx:hr></gpxtpx:TrackPointExtension></extensions></trkpt><trkpt lat="60.233175" lon="24.958948"><ele>41.4</ele><time>2026-05-23T14:36:15Z</time></trkpt><trkpt lat="60.233148" lon="24.9589"><ele>41.5</ele><time>2026-05-23T14:36:16Z</time></trkpt><trkpt lat="60.233117" lon="24.95886"><ele>41.5</ele><time>2026-05-23T14:36:17Z</time></trkpt><trkpt lat="60.233082" lon="24.958832"><ele>41.5</ele><time>2026-05-23T14:36:18Z</time></trkpt><trkpt lat="60.233045" lon="24.958813"><ele>41.6</ele><time>2026-05-23T14:36:19Z</time><extensions><gpxtpx:TrackPointExtension><gpxtpx:hr>108</gpxtpx:hr></gpxtpx:TrackPointExtension></extensions></trkpt><trkpt lat="60.233007" lon="24.958802"><ele>41.5</ele><time>2026-05-23T14:36:20Z</time></trkpt><trkpt lat="60.232968" lon="24.958792"><ele>41.5</ele><time>2026-05-23T14:36:21Z</time></trkpt><trkpt lat="60.232932" lon="24.958782"><ele>41.5</ele><time>2026-05-23T14:36:22Z</time></trkpt><trkpt lat="60.232895" lon="24.958768"><ele>41.5</ele><time>2026-05-23T14:36:23Z</time><extensions><gpxtpx:TrackPointExtension><gpxtpx:hr>110</gpxtpx:hr></gpxtpx:TrackPointExtension></extensions></trkpt><trkpt lat="60.232862" lon="24.95875"><ele>41.4</ele><time>2026-05-23T14:36:24Z</time></trkpt><trkpt lat="60.232832" lon="24.958722"><ele>41.4</ele><time>2026-05-23T14:36:25Z</time></trkpt><trkpt lat="60.232803" lon="24.958683"><ele>41.4</ele><time>2026-05-23T14:36:26Z</time></trkpt><trkpt lat="60.232778" lon="24.958637"><ele>41.4</ele><time>2026-05-23T14:36:27Z</time></trkpt><trkpt lat="60.232755" lon="24.958582"><ele>41.3</ele><time>2026-05-23T14:36:28Z</time></trkpt><trkpt lat="60.232733" lon="24.958523"><ele>41.3</ele><time>2026-05-23T14:36:29Z</time></trkpt><trkpt lat="60.23271" lon="24.958465"><ele>41.3</ele><time>2026-05-23T14:36:30Z</time><extensions><gpxtpx:TrackPointExtension><gpxtpx:hr>109</gpxtpx:hr></gpxtpx:TrackPointExtension></extensions></trkpt><trkpt lat="60.232687" lon="24.958412"><ele>41.3</ele><time>2026-05-23T14:36:31Z</time><extensions><gpxtpx:TrackPointExtension><gpxtpx:hr>108</gpxtpx:hr></gpxtpx:TrackPointExtension></extensions></trkpt><trkpt lat="60.23266" lon="24.958363"><ele>41.3</ele><time>2026-05-23T14:36:32Z</time></trkpt><trkpt lat="60.232628" lon="24.958323"><ele>41.2</ele><time>2026-05-23T14:36:33Z</time></trkpt><trkpt lat="60.232598" lon="24.958287"><ele>41.2</ele><time>2026-05-23T14:36:34Z</time></trkpt><trkpt lat="60.232568" lon="24.958247"><ele>41.2</ele><time>2026-05-23T14:36:35Z</time></trkpt><trkpt lat="60.232543" lon="24.958198"><ele>41.2</ele><time>2026-05-23T14:36:36Z</time><extensions><gpxtpx:TrackPointExtension><gpxtpx:hr>106</gpxtpx:hr></gpxtpx:TrackPointExtension></extensions></trkpt><trkpt lat="60.23252" lon="24.95814"><ele>41.2</ele><time>2026-05-23T14:36:37Z</time></trkpt><trkpt lat="60.232502" lon="24.958075"><ele>41.2</ele><time>2026-05-23T14:36:38Z</time></trkpt><trkpt lat="60.232485" lon="24.958005"><ele>41.2</ele><time>2026-05-23T14:36:39Z</time></trkpt><trkpt lat="60.232468" lon="24.957935"><ele>41.2</ele><time>2026-05-23T14:36:40Z</time></trkpt><trkpt lat="60.232453" lon="24.957862"><ele>41.1</ele><time>2026-05-23T14:36:41Z</time></trkpt><trkpt lat="60.232438" lon="24.957788"><ele>41.1</ele><time>2026-05-23T14:36:42Z</time></trkpt><trkpt lat="60.232422" lon="24.957715"><ele>41.1</ele><time>2026-05-23T14:36:43Z</time></trkpt><trkpt lat="60.232407" lon="24.95764"><ele>41.1</ele><time>2026-05-23T14:36:44Z</time></trkpt><trkpt lat="60.232388" lon="24.957565"><ele>41.1</ele><time>2026-05-23T14:36:45Z</time><extensions><gpxtpx:TrackPointExtension><gpxtpx:hr>104</gpxtpx:hr></gpxtpx:TrackPointExtension></extensions></trkpt><trkpt lat="60.23237" lon="24.957492"><ele>41.1</ele><time>2026-05-23T14:36:46Z</time></trkpt><trkpt lat="60.232352" lon="24.95742"><ele>41.1</ele><time>2026-05-23T14:36:47Z</time></trkpt><trkpt lat="60.23233" lon="24.957348"><ele>41.1</ele><time>2026-05-23T14:36:48Z</time></trkpt><trkpt lat="60.232307" lon="24.957278"><ele>41.1</ele><time>2026-05-23T14:36:49Z</time></trkpt><trkpt lat="60.23228" lon="24.95721"><ele>41.1</ele><time>2026-05-23T14:36:50Z</time><extensions><gpxtpx:TrackPointExtension><gpxtpx:hr>103</gpxtpx:hr></gpxtpx:TrackPointExtension></extensions></trkpt><trkpt lat="60.232255" lon="24.95714"><ele>41.1</ele><time>2026-05-23T14:36:51Z</time></trkpt><trkpt lat="60.232228" lon="24.957068"><ele>41.1</ele><time>2026-05-23T14:36:52Z</time><extensions><gpxtpx:TrackPointExtension><gpxtpx:hr>103</gpxtpx:hr></gpxtpx:TrackPointExtension></extensions></trkpt><trkpt lat="60.232203" lon="24.956995"><ele>41.1</ele><time>2026-05-23T14:36:53Z</time></trkpt><trkpt lat="60.232182" lon="24.956917"><ele>41.0</ele><time>2026-05-23T14:36:54Z</time></trkpt><trkpt lat="60.23216" lon="24.956838"><ele>41.0</ele><time>2026-05-23T14:36:55Z</time></trkpt><trkpt lat="60.23214" lon="24.956758"><ele>41.0</ele><time>2026-05-23T14:36:56Z</time></trkpt><trkpt lat="60.232122" lon="24.956678"><ele>41.0</ele><time>2026-05-23T14:36:57Z</time><extensions><gpxtpx:TrackPointExtension><gpxtpx:hr>99</gpxtpx:hr></gpxtpx:TrackPointExtension></extensions></trkpt><trkpt lat="60.232105" lon="24.956598"><ele>41.0</ele><time>2026-05-23T14:36:58Z</time></trkpt><trkpt lat="60.232087" lon="24.956518"><ele>41.0</ele><time>2026-05-23T14:36:59Z</time></trkpt><trkpt lat="60.23207" lon="24.95644"><ele>40.9</ele><time>2026-05-23T14:37:00Z</time></trkpt><trkpt lat="60.232053" lon="24.956363"><ele>40.9</ele><time>2026-05-23T14:37:01Z</time></trkpt><trkpt lat="60.232038" lon="24.956287"><ele>40.9</ele><time>2026-05-23T14:37:02Z</time></trkpt><trkpt lat="60.232022" lon="24.956212"><ele>40.9</ele><time>2026-05-23T14:37:03Z</time></trkpt><trkpt lat="60.232007" lon="24.95614"><ele>41.0</ele><time>2026-05-23T14:37:04Z</time><extensions><gpxtpx:TrackPointExtension><gpxtpx:hr>101</gpxtpx:hr></gpxtpx:TrackPointExtension></extensions></trkpt><trkpt lat="60.23199" lon="24.95607"><ele>41.0</ele><time>2026-05-23T14:37:05Z</time></trkpt><trkpt lat="60.231972" lon="24.956"><ele>41.0</ele><time>2026-05-23T14:37:06Z</time></trkpt><trkpt lat="60.231953" lon="24.95593"><ele>41.0</ele><time>2026-05-23T14:37:07Z</time><extensions><gpxtpx:TrackPointExtension><gpxtpx:hr>102</gpxtpx:hr></gpxtpx:TrackPointExtension></extensions></trkpt><trkpt lat="60.231935" lon="24.955862"><ele>41.1</ele><time>2026-05-23T14:37:08Z</time></trkpt><trkpt lat="60.231917" lon="24.955795"><ele>41.1</ele><time>2026-05-23T14:37:09Z</time></trkpt><trkpt lat="60.231898" lon="24.955725"><ele>41.2</ele><time>2026-05-23T14:37:10Z</time></trkpt><trkpt lat="60.231883" lon="24.955657"><ele>41.3</ele><time>2026-05-23T14:37:11Z</time></trkpt><trkpt lat="60.231868" lon="24.955588"><ele>41.4</ele><time>2026-05-23T14:37:12Z</time></trkpt><trkpt lat="60.231853" lon="24.95552"><ele>41.5</ele><time>2026-05-23T14:37:13Z</time></trkpt><trkpt lat="60.231838" lon="24.955452"><ele>41.6</ele><time>2026-05-23T14:37:14Z</time><extensions><gpxtpx:TrackPointExtension><gpxtpx:hr>106</gpxtpx:hr></gpxtpx:TrackPointExtension></extensions></trkpt><trkpt lat="60.231822" lon="24.955383"><ele>41.7</ele><time>2026-05-23T14:37:15Z</time></trkpt><trkpt lat="60.231807" lon="24.955317"><ele>41.8</ele><time>2026-05-23T14:37:16Z</time></trkpt><trkpt lat="60.231792" lon="24.95525"><ele>41.9</ele><time>2026-05-23T14:37:17Z</time><extensions><gpxtpx:TrackPointExtension><gpxtpx:hr>107</gpxtpx:hr></gpxtpx:TrackPointExtension></extensions></trkpt><trkpt lat="60.231777" lon="24.955185"><ele>42.0</ele><time>2026-05-23T14:37:18Z</time></trkpt><trkpt lat="60.231762" lon="24.955118"><ele>42.2</ele><time>2026-05-23T14:37:19Z</time></trkpt><trkpt lat="60.231688" lon="24.954815"><ele>43.3</ele><time>2026-05-23T14:37:23Z</time><extensions><gpxtpx:TrackPointExtension><gpxtpx:hr>110</gpxtpx:hr></gpxtpx:TrackPointExtension></extensions></trkpt><trkpt lat="60.23167" lon="24.95475"><ele>43.5</ele><time>2026-05-23T14:37:24Z</time></trkpt><trkpt lat="60.231652" lon="24.954682"><ele>43.7</ele><time>2026-05-23T14:37:25Z</time><extensions><gpxtpx:TrackPointExtension><gpxtpx:hr>113</gpxtpx:hr></gpxtpx:TrackPointExtension></extensions></trkpt><trkpt lat="60.231635" lon="24.954615"><ele>43.8</ele><time>2026-05-23T14:37:26Z</time></trkpt><trkpt lat="60.231612" lon="24.954523"><ele>43.9</ele><time>2026-05-23T14:37:28Z</time></trkpt><trkpt lat="60.231597" lon="24.954457"><ele>43.9</ele><time>2026-05-23T14:37:29Z</time></trkpt><trkpt lat="60.23158" lon="24.954387"><ele>44.0</ele><time>2026-05-23T14:37:30Z</time></trkpt><trkpt lat="60.231565" lon="24.954318"><ele>44.0</ele><time>2026-05-23T14:37:31Z</time></trkpt><trkpt lat="60.23155" lon="24.954248"><ele>44.0</ele><time>2026-05-23T14:37:32Z</time><extensions><gpxtpx:TrackPointExtension><gpxtpx:hr>113</gpxtpx:hr></gpxtpx:TrackPointExtension></extensions></trkpt><trkpt lat="60.231535" lon="24.95418"><ele>44.1</ele><time>2026-05-23T14:37:33Z</time></trkpt><trkpt lat="60.231518" lon="24.954108"><ele>44.1</ele><time>2026-05-23T14:37:34Z</time></trkpt><trkpt lat="60.231503" lon="24.954037"><ele>44.1</ele><time>2026-05-23T14:37:35Z</time></trkpt><trkpt lat="60.231488" lon="24.953963"><ele>44.2</ele><time>2026-05-23T14:37:36Z</time></trkpt><trkpt lat="60.231472" lon="24.95389"><ele>44.3</ele><time>2026-05-23T14:37:37Z</time></trkpt><trkpt lat="60.231457" lon="24.953818"><ele>44.3</ele><time>2026-05-23T14:37:38Z</time><extensions><gpxtpx:TrackPointExtension><gpxtpx:hr>111</gpxtpx:hr></gpxtpx:TrackPointExtension></extensions></trkpt><trkpt lat="60.23144" lon="24.953745"><ele>44.4</ele><time>2026-05-23T14:37:39Z</time></trkpt><trkpt lat="60.231423" lon="24.953673"><ele>44.4</ele><time>2026-05-23T14:37:40Z</time></trkpt><trkpt lat="60.231405" lon="24.9536"><ele>44.4</ele><time>2026-05-23T14:37:41Z</time><extensions><gpxtpx:TrackPointExtension><gpxtpx:hr>111</gpxtpx:hr></gpxtpx:TrackPointExtension></extensions></trkpt><trkpt lat="60.231388" lon="24.953525"><ele>44.5</ele><time>2026-05-23T14:37:42Z</time></trkpt><trkpt lat="60.231372" lon="24.95345"><ele>44.5</ele><time>2026-05-23T14:37:43Z</time></trkpt><trkpt lat="60.231357" lon="24.953372"><ele>44.4</ele><time>2026-05-23T14:37:44Z</time></trkpt><trkpt lat="60.23134" lon="24.953295"><ele>44.4</ele><time>2026-05-23T14:37:45Z</time></trkpt><trkpt lat="60.231325" lon="24.953217"><ele>44.4</ele><time>2026-05-23T14:37:46Z</time></trkpt><trkpt lat="60.23131" lon="24.95314"><ele>44.4</ele><time>2026-05-23T14:37:47Z</time></trkpt><trkpt lat="60.231295" lon="24.953065"><ele>44.4</ele><time>2026-05-23T14:37:48Z</time></trkpt><trkpt lat="60.231278" lon="24.952992"><ele>44.3</ele><time>2026-05-23T14:37:49Z</time></trkpt><trkpt lat="60.231263" lon="24.95292"><ele>44.3</ele><time>2026-05-23T14:37:50Z</time><extensions><gpxtpx:TrackPointExtension><gpxtpx:hr>113</gpxtpx:hr></gpxtpx:TrackPointExtension></extensions></trkpt><trkpt lat="60.23125" lon="24.952847"><ele>44.3</ele><time>2026-05-23T14:37:51Z</time></trkpt><trkpt lat="60.231237" lon="24.952775"><ele>44.2</ele><time>2026-05-23T14:37:52Z</time></trkpt><trkpt lat="60.231225" lon="24.952703"><ele>44.2</ele><time>2026-05-23T14:37:53Z</time></trkpt><trkpt lat="60.231217" lon="24.952627"><ele>44.2</ele><time>2026-05-23T14:37:54Z</time><extensions><gpxtpx:TrackPointExtension><gpxtpx:hr>112</gpxtpx:hr></gpxtpx:TrackPointExtension></extensions></trkpt><trkpt lat="60.231208" lon="24.952547"><ele>44.1</ele><time>2026-05-23T14:37:55Z</time></trkpt><trkpt lat="60.231198" lon="24.952468"><ele>44.1</ele><time>2026-05-23T14:37:56Z</time><extensions><gpxtpx:TrackPointExtension><gpxtpx:hr>111</gpxtpx:hr></gpxtpx:TrackPointExtension></extensions></trkpt><trkpt lat="60.231187" lon="24.952392"><ele>44.0</ele><time>2026-05-23T14:37:57Z</time></trkpt><trkpt lat="60.231172" lon="24.952318"><ele>44.0</ele><time>2026-05-23T14:37:58Z</time></trkpt><trkpt lat="60.231157" lon="24.952248"><ele>44.0</ele><time>2026-05-23T14:37:59Z</time></trkpt><trkpt lat="60.231142" lon="24.95218"><ele>43.9</ele><time>2026-05-23T14:38:00Z</time></trkpt><trkpt lat="60.231127" lon="24.952115"><ele>43.9</ele><time>2026-05-23T14:38:01Z</time></trkpt><trkpt lat="60.231113" lon="24.952055"><ele>43.9</ele><time>2026-05-23T14:38:02Z</time><extensions><gpxtpx:TrackPointExtension><gpxtpx:hr>107</gpxtpx:hr></gpxtpx:TrackPointExtension></extensions></trkpt><trkpt lat="60.2311" lon="24.951998"><ele>43.8</ele><time>2026-05-23T14:38:03Z</time></trkpt><trkpt lat="60.231085" lon="24.951945"><ele>43.8</ele><time>2026-05-23T14:38:04Z</time></trkpt><trkpt lat="60.23107" lon="24.951897"><ele>43.8</ele><time>2026-05-23T14:38:05Z</time></trkpt><trkpt lat="60.231055" lon="24.951852"><ele>43.7</ele><time>2026-05-23T14:38:06Z</time></trkpt><trkpt lat="60.231038" lon="24.951808"><ele>43.7</ele><time>2026-05-23T14:38:07Z</time></trkpt><trkpt lat="60.231022" lon="24.951767"><ele>43.7</ele><time>2026-05-23T14:38:08Z</time><extensions><gpxtpx:TrackPointExtension><gpxtpx:hr>105</gpxtpx:hr></gpxtpx:TrackPointExtension></extensions></trkpt><trkpt lat="60.231007" lon="24.951727"><ele>43.6</ele><time>2026-05-23T14:38:09Z</time></trkpt><trkpt lat="60.230997" lon="24.951693"><ele>43.6</ele><time>2026-05-23T14:38:10Z</time></trkpt><trkpt lat="60.23099" lon="24.951667"><ele>43.5</ele><time>2026-05-23T14:38:11Z</time><extensions><gpxtpx:TrackPointExtension><gpxtpx:hr>103</gpxtpx:hr></gpxtpx:TrackPointExtension></extensions></trkpt><trkpt lat="60.230987" lon="24.951647"><ele>43.5</ele><time>2026-05-23T14:38:12Z</time></trkpt><trkpt lat="60.230983" lon="24.951632"><ele>43.5</ele><time>2026-05-23T14:38:13Z</time></trkpt><trkpt lat="60.23098" lon="24.951623"><ele>43.5</ele><time>2026-05-23T14:38:14Z</time></trkpt><trkpt lat="60.230972" lon="24.951622"><ele>43.5</ele><time>2026-05-23T14:38:15Z</time></trkpt><trkpt lat="60.23096" lon="24.951625"><ele>43.4</ele><time>2026-05-23T14:38:16Z</time></trkpt><trkpt lat="60.230942" lon="24.951635"><ele>43.5</ele><time>2026-05-23T14:38:17Z</time></trkpt><trkpt lat="60.23092" lon="24.951655"><ele>43.5</ele><time>2026-05-23T14:38:18Z</time></trkpt><trkpt lat="60.230897" lon="24.951683"><ele>43.5</ele><time>2026-05-23T14:38:19Z</time></trkpt><trkpt lat="60.23087" lon="24.951717"><ele>43.5</ele><time>2026-05-23T14:38:20Z</time></trkpt><trkpt lat="60.230843" lon="24.95175"><ele>43.5</ele><time>2026-05-23T14:38:21Z</time></trkpt><trkpt lat="60.230817" lon="24.951787"><ele>43.6</ele><time>2026-05-23T14:38:22Z</time></trkpt><trkpt lat="60.230793" lon="24.951828"><ele>43.6</ele><time>2026-05-23T14:38:23Z</time><extensions><gpxtpx:TrackPointExtension><gpxtpx:hr>103</gpxtpx:hr></gpxtpx:TrackPointExtension></extensions></trkpt><trkpt lat="60.230777" lon="24.95188"><ele>43.6</ele><time>2026-05-23T14:38:24Z</time></trkpt><trkpt lat="60.230768" lon="24.951942"><ele>43.6</ele><time>2026-05-23T14:38:25Z</time></trkpt><trkpt lat="60.230772" lon="24.952008"><ele>43.7</ele><time>2026-05-23T14:38:26Z</time></trkpt><trkpt lat="60.230782" lon="24.952077"><ele>43.7</ele><time>2026-05-23T14:38:27Z</time></trkpt><trkpt lat="60.230793" lon="24.952147"><ele>43.7</ele><time>2026-05-23T14:38:28Z</time></trkpt><trkpt lat="60.230807" lon="24.95222"><ele>43.8</ele><time>2026-05-23T14:38:29Z</time></trkpt><trkpt lat="60.23082" lon="24.952293"><ele>43.8</ele><time>2026-05-23T14:38:30Z</time><extensions><gpxtpx:TrackPointExtension><gpxtpx:hr>104</gpxtpx:hr></gpxtpx:TrackPointExtension></extensions></trkpt><trkpt lat="60.230835" lon="24.952368"><ele>43.9</ele><time>2026-05-23T14:38:31Z</time></trkpt><trkpt lat="60.230848" lon="24.952442"><ele>43.9</ele><time>2026-05-23T14:38:32Z</time></trkpt><trkpt lat="60.230862" lon="24.952513"><ele>43.9</ele><time>2026-05-23T14:38:33Z</time></trkpt><trkpt lat="60.230875" lon="24.952583"><ele>44.0</ele><time>2026-05-23T14:38:34Z</time></trkpt><trkpt lat="60.230888" lon="24.952653"><ele>44.0</ele><time>2026-05-23T14:38:35Z</time><extensions><gpxtpx:TrackPointExtension><gpxtpx:hr>104</gpxtpx:hr></gpxtpx:TrackPointExtension></extensions></trkpt><trkpt lat="60.2309" lon="24.95272"><ele>44.0</ele><time>2026-05-23T14:38:36Z</time></trkpt><trkpt lat="60.230912" lon="24.952785"><ele>44.1</ele><time>2026-05-23T14:38:37Z</time></trkpt><trkpt lat="60.230922" lon="24.952847"><ele>44.1</ele><time>2026-05-23T14:38:38Z</time></trkpt><trkpt lat="60.23093" lon="24.952908"><ele>44.1</ele><time>2026-05-23T14:38:39Z</time></trkpt><trkpt lat="60.230935" lon="24.952968"><ele>44.1</ele><time>2026-05-23T14:38:40Z</time><extensions><gpxtpx:TrackPointExtension><gpxtpx:hr>102</gpxtpx:hr></gpxtpx:TrackPointExtension></extensions></trkpt><trkpt lat="60.230935" lon="24.953027"><ele>44.1</ele><time>2026-05-23T14:38:41Z</time><extensions><gpxtpx:TrackPointExtension><gpxtpx:hr>101</gpxtpx:hr></gpxtpx:TrackPointExtension></extensions></trkpt><trkpt lat="60.230927" lon="24.95308"><ele>44.1</ele><time>2026-05-23T14:38:42Z</time></trkpt><trkpt lat="60.230908" lon="24.953127"><ele>44.1</ele><time>2026-05-23T14:38:43Z</time></trkpt><trkpt lat="60.23088" lon="24.953165"><ele>44.1</ele><time>2026-05-23T14:38:44Z</time></trkpt><trkpt lat="60.230847" lon="24.953198"><ele>44.1</ele><time>2026-05-23T14:38:45Z</time></trkpt><trkpt lat="60.23081" lon="24.953228"><ele>44.0</ele><time>2026-05-23T14:38:46Z</time></trkpt><trkpt lat="60.230768" lon="24.953255"><ele>43.9</ele><time>2026-05-23T14:38:47Z</time></trkpt><trkpt lat="60.230727" lon="24.95328"><ele>43.8</ele><time>2026-05-23T14:38:48Z</time></trkpt><trkpt lat="60.230683" lon="24.953305"><ele>43.7</ele><time>2026-05-23T14:38:49Z</time></trkpt><trkpt lat="60.23064" lon="24.95333"><ele>43.5</ele><time>2026-05-23T14:38:50Z</time><extensions><gpxtpx:TrackPointExtension><gpxtpx:hr>95</gpxtpx:hr></gpxtpx:TrackPointExtension></extensions></trkpt><trkpt lat="60.230597" lon="24.953355"><ele>43.4</ele><time>2026-05-23T14:38:51Z</time><extensions><gpxtpx:TrackPointExtension><gpxtpx:hr>95</gpxtpx:hr></gpxtpx:TrackPointExtension></extensions></trkpt><trkpt lat="60.230553" lon="24.95338"><ele>43.2</ele><time>2026-05-23T14:38:52Z</time></trkpt><trkpt lat="60.23051" lon="24.953403"><ele>43.0</ele><time>2026-05-23T14:38:53Z</time></trkpt><trkpt lat="60.230467" lon="24.953422"><ele>42.9</ele><time>2026-05-23T14:38:54Z</time></trkpt><trkpt lat="60.230423" lon="24.953435"><ele>42.7</ele><time>2026-05-23T14:38:55Z</time></trkpt><trkpt lat="60.230382" lon="24.953447"><ele>42.6</ele><time>2026-05-23T14:38:56Z</time><extensions><gpxtpx:TrackPointExtension><gpxtpx:hr>97</gpxtpx:hr></gpxtpx:TrackPointExtension></extensions></trkpt><trkpt lat="60.23034" lon="24.953465"><ele>42.5</ele><time>2026-05-23T14:38:57Z</time></trkpt><trkpt lat="60.2303" lon="24.953485"><ele>42.4</ele><time>2026-05-23T14:38:58Z</time></trkpt><trkpt lat="60.230262" lon="24.953502"><ele>42.3</ele><time>2026-05-23T14:38:59Z</time></trkpt><trkpt lat="60.230225" lon="24.953508"><ele>42.3</ele><time>2026-05-23T14:39:00Z</time></trkpt><trkpt lat="60.230188" lon="24.953502"><ele>42.3</ele><time>2026-05-23T14:39:01Z</time></trkpt><trkpt lat="60.230153" lon="24.95348"><ele>42.3</ele><time>2026-05-23T14:39:02Z</time><extensions><gpxtpx:TrackPointExtension><gpxtpx:hr>94</gpxtpx:hr></gpxtpx:TrackPointExtension></extensions></trkpt><trkpt lat="60.23012" lon="24.953437"><ele>42.3</ele><time>2026-05-23T14:39:03Z</time></trkpt><trkpt lat="60.230092" lon="24.953377"><ele>42.3</ele><time>2026-05-23T14:39:04Z</time></trkpt><trkpt lat="60.230067" lon="24.953305"><ele>42.3</ele><time>2026-05-23T14:39:05Z</time></trkpt><trkpt lat="60.230042" lon="24.953227"><ele>42.3</ele><time>2026-05-23T14:39:06Z</time></trkpt><trkpt lat="60.230018" lon="24.953145"><ele>42.3</ele><time>2026-05-23T14:39:07Z</time><extensions><gpxtpx:TrackPointExtension><gpxtpx:hr>93</gpxtpx:hr></gpxtpx:TrackPointExtension></extensions></trkpt><trkpt lat="60.229997" lon="24.953063"><ele>42.3</ele><time>2026-05-23T14:39:08Z</time></trkpt><trkpt lat="60.229973" lon="24.95298"><ele>42.3</ele><time>2026-05-23T14:39:09Z</time></trkpt><trkpt lat="60.22995" lon="24.952898"><ele>42.2</ele><time>2026-05-23T14:39:10Z</time></trkpt><trkpt lat="60.229925" lon="24.952818"><ele>42.1</ele><time>2026-05-23T14:39:11Z</time><extensions><gpxtpx:TrackPointExtension><gpxtpx:hr>93</gpxtpx:hr></gpxtpx:TrackPointExtension></extensions></trkpt><trkpt lat="60.229902" lon="24.952738"><ele>42.1</ele><time>2026-05-23T14:39:12Z</time></trkpt><trkpt lat="60.229877" lon="24.952658"><ele>42.0</ele><time>2026-05-23T14:39:13Z</time></trkpt><trkpt lat="60.229852" lon="24.952578"><ele>41.9</ele><time>2026-05-23T14:39:14Z</time></trkpt><trkpt lat="60.229827" lon="24.9525"><ele>41.8</ele><time>2026-05-23T14:39:15Z</time></trkpt><trkpt lat="60.229802" lon="24.952422"><ele>41.6</ele><time>2026-05-23T14:39:16Z</time></trkpt><trkpt lat="60.229775" lon="24.952343"><ele>41.5</ele><time>2026-05-23T14:39:17Z</time></trkpt><trkpt lat="60.22975" lon="24.952265"><ele>41.4</ele><time>2026-05-23T14:39:18Z</time></trkpt><trkpt lat="60.229723" lon="24.952187"><ele>41.3</ele><time>2026-05-23T14:39:19Z</time></trkpt><trkpt lat="60.229697" lon="24.952108"><ele>41.2</ele><time>2026-05-23T14:39:20Z</time><extensions><gpxtpx:TrackPointExtension><gpxtpx:hr>96</gpxtpx:hr></gpxtpx:TrackPointExtension></extensions></trkpt><trkpt lat="60.229672" lon="24.952032"><ele>41.1</ele><time>2026-05-23T14:39:21Z</time></trkpt><trkpt lat="60.229645" lon="24.951955"><ele>41.0</ele><time>2026-05-23T14:39:22Z</time><extensions><gpxtpx:TrackPointExtension><gpxtpx:hr>98</gpxtpx:hr></gpxtpx:TrackPointExtension></extensions></trkpt><trkpt lat="60.22962" lon="24.951878"><ele>40.9</ele><time>2026-05-23T14:39:23Z</time></trkpt><trkpt lat="60.229595" lon="24.9518"><ele>40.9</ele><time>2026-05-23T14:39:24Z</time></trkpt><trkpt lat="60.22957" lon="24.951718"><ele>40.9</ele><time>2026-05-23T14:39:25Z</time></trkpt><trkpt lat="60.229547" lon="24.951638"><ele>40.9</ele><time>2026-05-23T14:39:26Z</time></trkpt><trkpt lat="60.229523" lon="24.951557"><ele>40.9</ele><time>2026-05-23T14:39:27Z</time></trkpt><trkpt lat="60.229498" lon="24.951472"><ele>41.0</ele><time>2026-05-23T14:39:28Z</time><extensions><gpxtpx:TrackPointExtension><gpxtpx:hr>97</gpxtpx:hr></gpxtpx:TrackPointExtension></extensions></trkpt><trkpt lat="60.229473" lon="24.951388"><ele>41.0</ele><time>2026-05-23T14:39:29Z</time></trkpt><trkpt lat="60.229448" lon="24.951307"><ele>41.0</ele><time>2026-05-23T14:39:30Z</time></trkpt><trkpt lat="60.229422" lon="24.951227"><ele>41.1</ele><time>2026-05-23T14:39:31Z</time><extensions><gpxtpx:TrackPointExtension><gpxtpx:hr>98</gpxtpx:hr></gpxtpx:TrackPointExtension></extensions></trkpt><trkpt lat="60.229397" lon="24.951147"><ele>41.1</ele><time>2026-05-23T14:39:32Z</time></trkpt><trkpt lat="60.22937" lon="24.951067"><ele>41.1</ele><time>2026-05-23T14:39:33Z</time></trkpt><trkpt lat="60.229343" lon="24.95099"><ele>41.0</ele><time>2026-05-23T14:39:34Z</time></trkpt><trkpt lat="60.229317" lon="24.950915"><ele>41.0</ele><time>2026-05-23T14:39:35Z</time></trkpt><trkpt lat="60.229288" lon="24.950842"><ele>40.9</ele><time>2026-05-23T14:39:36Z</time></trkpt><trkpt lat="60.229258" lon="24.950772"><ele>40.9</ele><time>2026-05-23T14:39:37Z</time></trkpt><trkpt lat="60.229227" lon="24.950708"><ele>40.8</ele><time>2026-05-23T14:39:38Z</time></trkpt><trkpt lat="60.229192" lon="24.950648"><ele>40.8</ele><time>2026-05-23T14:39:39Z</time></trkpt><trkpt lat="60.229155" lon="24.950595"><ele>40.7</ele><time>2026-05-23T14:39:40Z</time><extensions><gpxtpx:TrackPointExtension><gpxtpx:hr>96</gpxtpx:hr></gpxtpx:TrackPointExtension></extensions></trkpt><trkpt lat="60.229117" lon="24.950545"><ele>40.7</ele><time>2026-05-23T14:39:41Z</time><extensions><gpxtpx:TrackPointExtension><gpxtpx:hr>96</gpxtpx:hr></gpxtpx:TrackPointExtension></extensions></trkpt><trkpt lat="60.229077" lon="24.9505"><ele>40.7</ele><time>2026-05-23T14:39:42Z</time></trkpt><trkpt lat="60.229035" lon="24.950462"><ele>40.7</ele><time>2026-05-23T14:39:43Z</time></trkpt><trkpt lat="60.228992" lon="24.950428"><ele>40.7</ele><time>2026-05-23T14:39:44Z</time></trkpt><trkpt lat="60.228948" lon="24.950402"><ele>40.7</ele><time>2026-05-23T14:39:45Z</time></trkpt><trkpt lat="60.228903" lon="24.950383"><ele>40.7</ele><time>2026-05-23T14:39:46Z</time><extensions><gpxtpx:TrackPointExtension><gpxtpx:hr>100</gpxtpx:hr></gpxtpx:TrackPointExtension></extensions></trkpt><trkpt lat="60.228858" lon="24.950372"><ele>40.7</ele><time>2026-05-23T14:39:47Z</time></trkpt><trkpt lat="60.228813" lon="24.950363"><ele>40.7</ele><time>2026-05-23T14:39:48Z</time></trkpt><trkpt lat="60.228768" lon="24.95036"><ele>40.7</ele><time>2026-05-23T14:39:49Z</time></trkpt><trkpt lat="60.228723" lon="24.950357"><ele>40.7</ele><time>2026-05-23T14:39:50Z</time></trkpt><trkpt lat="60.228677" lon="24.950355"><ele>40.7</ele><time>2026-05-23T14:39:51Z</time></trkpt><trkpt lat="60.228632" lon="24.950352"><ele>40.8</ele><time>2026-05-23T14:39:52Z</time></trkpt><trkpt lat="60.228583" lon="24.950347"><ele>40.8</ele><time>2026-05-23T14:39:53Z</time></trkpt><trkpt lat="60.228538" lon="24.950343"><ele>40.9</ele><time>2026-05-23T14:39:54Z</time></trkpt><trkpt lat="60.228492" lon="24.950338"><ele>41.0</ele><time>2026-05-23T14:39:55Z</time><extensions><gpxtpx:TrackPointExtension><gpxtpx:hr>104</gpxtpx:hr></gpxtpx:TrackPointExtension></extensions></trkpt><trkpt lat="60.228445" lon="24.950335"><ele>41.2</ele><time>2026-05-23T14:39:56Z</time></trkpt><trkpt lat="60.228398" lon="24.950333"><ele>41.3</ele><time>2026-05-23T14:39:57Z</time></trkpt><trkpt lat="60.228352" lon="24.95033"><ele>41.4</ele><time>2026-05-23T14:39:58Z</time></trkpt><trkpt lat="60.228307" lon="24.950328"><ele>41.5</ele><time>2026-05-23T14:39:59Z</time><extensions><gpxtpx:TrackPointExtension><gpxtpx:hr>106</gpxtpx:hr></gpxtpx:TrackPointExtension></extensions></trkpt><trkpt lat="60.22826" lon="24.950327"><ele>41.6</ele><time>2026-05-23T14:40:00Z</time></trkpt><trkpt lat="60.228215" lon="24.950322"><ele>41.7</ele><time>2026-05-23T14:40:01Z</time></trkpt><trkpt lat="60.22817" lon="24.950318"><ele>41.8</ele><time>2026-05-23T14:40:02Z</time></trkpt><trkpt lat="60.228125" lon="24.950317"><ele>41.8</ele><time>2026-05-23T14:40:03Z</time></trkpt><trkpt lat="60.228082" lon="24.950315"><ele>41.9</ele><time>2026-05-23T14:40:04Z</time></trkpt><trkpt lat="60.228037" lon="24.950315"><ele>41.9</ele><time>2026-05-23T14:40:05Z</time><extensions><gpxtpx:TrackPointExtension><gpxtpx:hr>106</gpxtpx:hr></gpxtpx:TrackPointExtension></extensions></trkpt><trkpt lat="60.227993" lon="24.950317"><ele>41.9</ele><time>2026-05-23T14:40:06Z</time></trkpt><trkpt lat="60.227948" lon="24.950317"><ele>41.9</ele><time>2026-05-23T14:40:07Z</time></trkpt><trkpt lat="60.227905" lon="24.950317"><ele>41.9</ele><time>2026-05-23T14:40:08Z</time></trkpt><trkpt lat="60.22786" lon="24.950315"><ele>41.9</ele><time>2026-05-23T14:40:09Z</time></trkpt><trkpt lat="60.227815" lon="24.950313"><ele>41.9</ele><time>2026-05-23T14:40:10Z</time><extensions><gpxtpx:TrackPointExtension><gpxtpx:hr>107</gpxtpx:hr></gpxtpx:TrackPointExtension></extensions></trkpt><trkpt lat="60.22777" lon="24.950313"><ele>41.8</ele><time>2026-05-23T14:40:11Z</time><extensions><gpxtpx:TrackPointExtension><gpxtpx:hr>108</gpxtpx:hr></gpxtpx:TrackPointExtension></extensions></trkpt><trkpt lat="60.227725" lon="24.950312"><ele>41.8</ele><time>2026-05-23T14:40:12Z</time></trkpt><trkpt lat="60.227678" lon="24.95031"><ele>41.7</ele><time>2026-05-23T14:40:13Z</time></trkpt><trkpt lat="60.227632" lon="24.950307"><ele>41.6</ele><time>2026-05-23T14:40:14Z</time></trkpt><trkpt lat="60.227583" lon="24.950303"><ele>41.5</ele><time>2026-05-23T14:40:15Z</time></trkpt><trkpt lat="60.227535" lon="24.950302"><ele>41.4</ele><time>2026-05-23T14:40:16Z</time></trkpt><trkpt lat="60.227488" lon="24.950298"><ele>41.3</ele><time>2026-05-23T14:40:17Z</time></trkpt><trkpt lat="60.22744" lon="24.950295"><ele>41.1</ele><time>2026-05-23T14:40:18Z</time><extensions><gpxtpx:TrackPointExtension><gpxtpx:hr>108</gpxtpx:hr></gpxtpx:TrackPointExtension></extensions></trkpt><trkpt lat="60.227392" lon="24.950292"><ele>41.0</ele><time>2026-05-23T14:40:19Z</time></trkpt><trkpt lat="60.227343" lon="24.95029"><ele>40.9</ele><time>2026-05-23T14:40:20Z</time></trkpt><trkpt lat="60.227295" lon="24.950288"><ele>40.7</ele><time>2026-05-23T14:40:21Z</time><extensions><gpxtpx:TrackPointExtension><gpxtpx:hr>107</gpxtpx:hr></gpxtpx:TrackPointExtension></extensions></trkpt><trkpt lat="60.227247" lon="24.950288"><ele>40.5</ele><time>2026-05-23T14:40:22Z</time></trkpt><trkpt lat="60.227197" lon="24.950287"><ele>40.4</ele><time>2026-05-23T14:40:23Z</time></trkpt><trkpt lat="60.227148" lon="24.950285"><ele>40.2</ele><time>2026-05-23T14:40:24Z</time></trkpt><trkpt lat="60.2271" lon="24.950283"><ele>40.0</ele><time>2026-05-23T14:40:25Z</time></trkpt><trkpt lat="60.227052" lon="24.950282"><ele>39.9</ele><time>2026-05-23T14:40:26Z</time></trkpt><trkpt lat="60.227003" lon="24.950278"><ele>39.7</ele><time>2026-05-23T14:40:27Z</time><extensions><gpxtpx:TrackPointExtension><gpxtpx:hr>102</gpxtpx:hr></gpxtpx:TrackPointExtension></extensions></trkpt><trkpt lat="60.226957" lon="24.950275"><ele>39.5</ele><time>2026-05-23T14:40:28Z</time></trkpt><trkpt lat="60.226908" lon="24.950273"><ele>39.4</ele><time>2026-05-23T14:40:29Z</time></trkpt><trkpt lat="60.226858" lon="24.950273"><ele>39.2</ele><time>2026-05-23T14:40:30Z</time></trkpt><trkpt lat="60.226808" lon="24.950273"><ele>39.1</ele><time>2026-05-23T14:40:31Z</time><extensions><gpxtpx:TrackPointExtension><gpxtpx:hr>99</gpxtpx:hr></gpxtpx:TrackPointExtension></extensions></trkpt><trkpt lat="60.226758" lon="24.950275"><ele>38.9</ele><time>2026-05-23T14:40:32Z</time></trkpt><trkpt lat="60.226708" lon="24.950277"><ele>38.8</ele><time>2026-05-23T14:40:33Z</time></trkpt><trkpt lat="60.226658" lon="24.95028"><ele>38.6</ele><time>2026-05-23T14:40:34Z</time></trkpt><trkpt lat="60.226607" lon="24.950285"><ele>38.5</ele><time>2026-05-23T14:40:35Z</time></trkpt><trkpt lat="60.226557" lon="24.950297"><ele>38.3</ele><time>2026-05-23T14:40:36Z</time></trkpt><trkpt lat="60.226503" lon="24.950315"><ele>38.2</ele><time>2026-05-23T14:40:37Z</time></trkpt><trkpt lat="60.226452" lon="24.95034"><ele>38.0</ele><time>2026-05-23T14:40:38Z</time></trkpt><trkpt lat="60.2264" lon="24.950372"><ele>37.8</ele><time>2026-05-23T14:40:39Z</time></trkpt><trkpt lat="60.226347" lon="24.95041"><ele>37.6</ele><time>2026-05-23T14:40:40Z</time><extensions><gpxtpx:TrackPointExtension><gpxtpx:hr>90</gpxtpx:hr></gpxtpx:TrackPointExtension></extensions></trkpt><trkpt lat="60.226295" lon="24.950455"><ele>37.4</ele><time>2026-05-23T14:40:41Z</time></trkpt><trkpt lat="60.226243" lon="24.950507"><ele>37.2</ele><time>2026-05-23T14:40:42Z</time></trkpt><trkpt lat="60.226192" lon="24.950567"><ele>37.0</ele><time>2026-05-23T14:40:43Z</time><extensions><gpxtpx:TrackPointExtension><gpxtpx:hr>89</gpxtpx:hr></gpxtpx:TrackPointExtension></extensions></trkpt><trkpt lat="60.22614" lon="24.950633"><ele>36.8</ele><time>2026-05-23T14:40:44Z</time></trkpt><trkpt lat="60.22609" lon="24.950707"><ele>36.6</ele><time>2026-05-23T14:40:45Z</time></trkpt><trkpt lat="60.226042" lon="24.950788"><ele>36.4</ele><time>2026-05-23T14:40:46Z</time></trkpt><trkpt lat="60.225993" lon="24.950877"><ele>36.1</ele><time>2026-05-23T14:40:47Z</time><extensions><gpxtpx:TrackPointExtension><gpxtpx:hr>88</gpxtpx:hr></gpxtpx:TrackPointExtension></extensions></trkpt><trkpt lat="60.225945" lon="24.950968"><ele>35.9</ele><time>2026-05-23T14:40:48Z</time></trkpt><trkpt lat="60.225895" lon="24.95106"><ele>35.7</ele><time>2026-05-23T14:40:49Z</time></trkpt><trkpt lat="60.225842" lon="24.951152"><ele>35.5</ele><time>2026-05-23T14:40:50Z</time></trkpt><trkpt lat="60.225788" lon="24.951243"><ele>35.3</ele><time>2026-05-23T14:40:51Z</time><extensions><gpxtpx:TrackPointExtension><gpxtpx:hr>87</gpxtpx:hr></gpxtpx:TrackPointExtension></extensions></trkpt><trkpt lat="60.225737" lon="24.951335"><ele>35.2</ele><time>2026-05-23T14:40:52Z</time></trkpt><trkpt lat="60.225685" lon="24.951423"><ele>35.0</ele><time>2026-05-23T14:40:53Z</time></trkpt><trkpt lat="60.225633" lon="24.951507"><ele>34.8</ele><time>2026-05-23T14:40:54Z</time></trkpt><trkpt lat="60.225585" lon="24.95159"><ele>34.5</ele><time>2026-05-23T14:40:55Z</time></trkpt><trkpt lat="60.22554" lon="24.95168"><ele>34.3</ele><time>2026-05-23T14:40:56Z</time></trkpt><trkpt lat="60.225497" lon="24.951765"><ele>34.0</ele><time>2026-05-23T14:40:57Z</time></trkpt><trkpt lat="60.225453" lon="24.951847"><ele>33.7</ele><time>2026-05-23T14:40:58Z</time></trkpt><trkpt lat="60.225413" lon="24.951925"><ele>33.4</ele><time>2026-05-23T14:40:59Z</time></trkpt><trkpt lat="60.225373" lon="24.952002"><ele>33.1</ele><time>2026-05-23T14:41:00Z</time><extensions><gpxtpx:TrackPointExtension><gpxtpx:hr>87</gpxtpx:hr></gpxtpx:TrackPointExtension></extensions></trkpt><trkpt lat="60.225335" lon="24.952073"><ele>32.8</ele><time>2026-05-23T14:41:01Z</time></trkpt><trkpt lat="60.225297" lon="24.952142"><ele>32.5</ele><time>2026-05-23T14:41:02Z</time></trkpt><trkpt lat="60.225262" lon="24.952207"><ele>32.2</ele><time>2026-05-23T14:41:03Z</time></trkpt><trkpt lat="60.225228" lon="24.952268"><ele>31.9</ele><time>2026-05-23T14:41:04Z</time><extensions><gpxtpx:TrackPointExtension><gpxtpx:hr>87</gpxtpx:hr></gpxtpx:TrackPointExtension></extensions></trkpt><trkpt lat="60.225198" lon="24.952328"><ele>31.6</ele><time>2026-05-23T14:41:05Z</time></trkpt><trkpt lat="60.225172" lon="24.952387"><ele>31.3</ele><time>2026-05-23T14:41:06Z</time><extensions><gpxtpx:TrackPointExtension><gpxtpx:hr>86</gpxtpx:hr></gpxtpx:TrackPointExtension></extensions></trkpt><trkpt lat="60.22515" lon="24.95244"><ele>31.0</ele><time>2026-05-23T14:41:07Z</time></trkpt><trkpt lat="60.225128" lon="24.952483"><ele>30.7</ele><time>2026-05-23T14:41:08Z</time></trkpt><trkpt lat="60.225103" lon="24.952512"><ele>30.4</ele><time>2026-05-23T14:41:09Z</time></trkpt><trkpt lat="60.225077" lon="24.952517"><ele>30.1</ele><time>2026-05-23T14:41:10Z</time></trkpt><trkpt lat="60.225047" lon="24.952497"><ele>29.9</ele><time>2026-05-23T14:41:11Z</time><extensions><gpxtpx:TrackPointExtension><gpxtpx:hr>83</gpxtpx:hr></gpxtpx:TrackPointExtension></extensions></trkpt><trkpt lat="60.22502" lon="24.952457"><ele>29.6</ele><time>2026-05-23T14:41:12Z</time></trkpt><trkpt lat="60.224995" lon="24.952408"><ele>29.5</ele><time>2026-05-23T14:41:13Z</time></trkpt><trkpt lat="60.224972" lon="24.952357"><ele>29.3</ele><time>2026-05-23T14:41:14Z</time></trkpt><trkpt lat="60.224948" lon="24.952305"><ele>29.2</ele><time>2026-05-23T14:41:15Z</time></trkpt><trkpt lat="60.224925" lon="24.952253"><ele>29.1</ele><time>2026-05-23T14:41:16Z</time><extensions><gpxtpx:TrackPointExtension><gpxtpx:hr>84</gpxtpx:hr></gpxtpx:TrackPointExtension></extensions></trkpt><trkpt lat="60.2249" lon="24.952203"><ele>29.1</ele><time>2026-05-23T14:41:17Z</time></trkpt><trkpt lat="60.224873" lon="24.952153"><ele>29.1</ele><time>2026-05-23T14:41:18Z</time></trkpt><trkpt lat="60.224847" lon="24.952103"><ele>29.2</ele><time>2026-05-23T14:41:19Z</time></trkpt><trkpt lat="60.224718" lon="24.95185"><ele>29.8</ele><time>2026-05-23T14:41:23Z</time></trkpt><trkpt lat="60.224688" lon="24.95179"><ele>29.9</ele><time>2026-05-23T14:41:24Z</time><extensions><gpxtpx:TrackPointExtension><gpxtpx:hr>92</gpxtpx:hr></gpxtpx:TrackPointExtension></extensions></trkpt><trkpt lat="60.224655" lon="24.951733"><ele>29.9</ele><time>2026-05-23T14:41:25Z</time></trkpt><trkpt lat="60.224622" lon="24.95168"><ele>29.9</ele><time>2026-05-23T14:41:26Z</time></trkpt><trkpt lat="60.224582" lon="24.951612"><ele>29.9</ele><time>2026-05-23T14:41:28Z</time></trkpt><trkpt lat="60.224552" lon="24.95156"><ele>29.9</ele><time>2026-05-23T14:41:29Z</time><extensions><gpxtpx:TrackPointExtension><gpxtpx:hr>92</gpxtpx:hr></gpxtpx:TrackPointExtension></extensions></trkpt><trkpt lat="60.224523" lon="24.951512"><ele>29.8</ele><time>2026-05-23T14:41:30Z</time></trkpt><trkpt lat="60.224493" lon="24.951465"><ele>29.8</ele><time>2026-05-23T14:41:31Z</time></trkpt><trkpt lat="60.224467" lon="24.951422"><ele>29.8</ele><time>2026-05-23T14:41:32Z</time><extensions><gpxtpx:TrackPointExtension><gpxtpx:hr>94</gpxtpx:hr></gpxtpx:TrackPointExtension></extensions></trkpt><trkpt lat="60.22444" lon="24.951377"><ele>29.9</ele><time>2026-05-23T14:41:33Z</time></trkpt><trkpt lat="60.224415" lon="24.95133"><ele>29.9</ele><time>2026-05-23T14:41:34Z</time></trkpt><trkpt lat="60.224393" lon="24.951282"><ele>29.9</ele><time>2026-05-23T14:41:35Z</time></trkpt><trkpt lat="60.224372" lon="24.95123"><ele>30.0</ele><time>2026-05-23T14:41:36Z</time></trkpt><trkpt lat="60.224348" lon="24.951183"><ele>30.0</ele><time>2026-05-23T14:41:37Z</time></trkpt><trkpt lat="60.224328" lon="24.951143"><ele>30.0</ele><time>2026-05-23T14:41:38Z</time></trkpt><trkpt lat="60.22431" lon="24.951108"><ele>30.0</ele><time>2026-05-23T14:41:39Z</time><extensions><gpxtpx:TrackPointExtension><gpxtpx:hr>98</gpxtpx:hr></gpxtpx:TrackPointExtension></extensions></trkpt><trkpt lat="60.22429" lon="24.951068"><ele>29.9</ele><time>2026-05-23T14:41:40Z</time></trkpt><trkpt lat="60.22427" lon="24.951025"><ele>29.9</ele><time>2026-05-23T14:41:41Z</time><extensions><gpxtpx:TrackPointExtension><gpxtpx:hr>100</gpxtpx:hr></gpxtpx:TrackPointExtension></extensions></trkpt><trkpt lat="60.22425" lon="24.95098"><ele>29.8</ele><time>2026-05-23T14:41:42Z</time></trkpt><trkpt lat="60.224228" lon="24.950935"><ele>29.7</ele><time>2026-05-23T14:41:43Z</time></trkpt><trkpt lat="60.224208" lon="24.950892"><ele>29.7</ele><time>2026-05-23T14:41:44Z</time></trkpt><trkpt lat="60.224187" lon="24.950848"><ele>29.7</ele><time>2026-05-23T14:41:45Z</time></trkpt><trkpt lat="60.224167" lon="24.950802"><ele>29.8</ele><time>2026-05-23T14:41:46Z</time></trkpt><trkpt lat="60.224147" lon="24.950755"><ele>29.9</ele><time>2026-05-23T14:41:47Z</time></trkpt><trkpt lat="60.224127" lon="24.950707"><ele>30.1</ele><time>2026-05-23T14:41:48Z</time></trkpt><trkpt lat="60.224105" lon="24.95066"><ele>30.2</ele><time>2026-05-23T14:41:49Z</time><extensions><gpxtpx:TrackPointExtension><gpxtpx:hr>105</gpxtpx:hr></gpxtpx:TrackPointExtension></extensions></trkpt><trkpt lat="60.224083" lon="24.950617"><ele>30.4</ele><time>2026-05-23T14:41:50Z</time></trkpt><trkpt lat="60.224065" lon="24.950575"><ele>30.5</ele><time>2026-05-23T14:41:51Z</time><extensions><gpxtpx:TrackPointExtension><gpxtpx:hr>105</gpxtpx:hr></gpxtpx:TrackPointExtension></extensions></trkpt><trkpt lat="60.224048" lon="24.950535"><ele>30.7</ele><time>2026-05-23T14:41:52Z</time></trkpt><trkpt lat="60.224037" lon="24.9505"><ele>30.8</ele><time>2026-05-23T14:41:53Z</time></trkpt><trkpt lat="60.224027" lon="24.950467"><ele>30.9</ele><time>2026-05-23T14:41:54Z</time></trkpt><trkpt lat="60.224018" lon="24.95044"><ele>30.9</ele><time>2026-05-23T14:41:55Z</time></trkpt><trkpt lat="60.22401" lon="24.950427"><ele>30.9</ele><time>2026-05-23T14:41:56Z</time></trkpt><trkpt lat="60.224003" lon="24.950435"><ele>31.0</ele><time>2026-05-23T14:41:57Z</time></trkpt><trkpt lat="60.223998" lon="24.950453"><ele>31.0</ele><time>2026-05-23T14:41:58Z</time></trkpt><trkpt lat="60.223998" lon="24.950478"><ele>31.0</ele><time>2026-05-23T14:41:59Z</time></trkpt><trkpt lat="60.223997" lon="24.950508"><ele>31.0</ele><time>2026-05-23T14:42:00Z</time></trkpt><trkpt lat="60.223993" lon="24.950542"><ele>31.0</ele><time>2026-05-23T14:42:01Z</time></trkpt><trkpt lat="60.223988" lon="24.950583"><ele>31.0</ele><time>2026-05-23T14:42:02Z</time></trkpt><trkpt lat="60.22398" lon="24.950635"><ele>31.0</ele><time>2026-05-23T14:42:03Z</time></trkpt><trkpt lat="60.223975" lon="24.950692"><ele>31.0</ele><time>2026-05-23T14:42:04Z</time></trkpt><trkpt lat="60.223977" lon="24.95075"><ele>31.0</ele><time>2026-05-23T14:42:05Z</time></trkpt><trkpt lat="60.223987" lon="24.950807"><ele>31.0</ele><time>2026-05-23T14:42:06Z</time><extensions><gpxtpx:TrackPointExtension><gpxtpx:hr>104</gpxtpx:hr></gpxtpx:TrackPointExtension></extensions></trkpt><trkpt lat="60.224007" lon="24.950865"><ele>30.9</ele><time>2026-05-23T14:42:07Z</time></trkpt><trkpt lat="60.224033" lon="24.950927"><ele>30.8</ele><time>2026-05-23T14:42:08Z</time></trkpt><trkpt lat="60.224063" lon="24.950992"><ele>30.7</ele><time>2026-05-23T14:42:09Z</time></trkpt><trkpt lat="60.224097" lon="24.951058"><ele>30.6</ele><time>2026-05-23T14:42:10Z</time></trkpt><trkpt lat="60.224128" lon="24.951125"><ele>30.5</ele><time>2026-05-23T14:42:11Z</time></trkpt><trkpt lat="60.224162" lon="24.951193"><ele>30.4</ele><time>2026-05-23T14:42:12Z</time></trkpt><trkpt lat="60.224197" lon="24.951262"><ele>30.2</ele><time>2026-05-23T14:42:13Z</time></trkpt><trkpt lat="60.224232" lon="24.951332"><ele>30.1</ele><time>2026-05-23T14:42:14Z</time></trkpt><trkpt lat="60.224267" lon="24.951403"><ele>30.0</ele><time>2026-05-23T14:42:15Z</time><extensions><gpxtpx:TrackPointExtension><gpxtpx:hr>106</gpxtpx:hr></gpxtpx:TrackPointExtension></extensions></trkpt><trkpt lat="60.224302" lon="24.951475"><ele>29.9</ele><time>2026-05-23T14:42:16Z</time></trkpt><trkpt lat="60.22434" lon="24.951547"><ele>29.8</ele><time>2026-05-23T14:42:17Z</time></trkpt><trkpt lat="60.224378" lon="24.951618"><ele>29.7</ele><time>2026-05-23T14:42:18Z</time><extensions><gpxtpx:TrackPointExtension><gpxtpx:hr>107</gpxtpx:hr></gpxtpx:TrackPointExtension></extensions></trkpt><trkpt lat="60.224418" lon="24.95169"><ele>29.7</ele><time>2026-05-23T14:42:19Z</time></trkpt><trkpt lat="60.224643" lon="24.952015"><ele>29.8</ele><time>2026-05-23T14:42:23Z</time></trkpt><trkpt lat="60.224693" lon="24.952082"><ele>29.8</ele><time>2026-05-23T14:42:24Z</time><extensions><gpxtpx:TrackPointExtension><gpxtpx:hr>101</gpxtpx:hr></gpxtpx:TrackPointExtension></extensions></trkpt><trkpt lat="60.224738" lon="24.952148"><ele>29.7</ele><time>2026-05-23T14:42:25Z</time></trkpt><trkpt lat="60.224782" lon="24.952217"><ele>29.7</ele><time>2026-05-23T14:42:26Z</time><extensions><gpxtpx:TrackPointExtension><gpxtpx:hr>101</gpxtpx:hr></gpxtpx:TrackPointExtension></extensions></trkpt><trkpt lat="60.224822" lon="24.952285"><ele>29.6</ele><time>2026-05-23T14:42:27Z</time></trkpt><trkpt lat="60.22486" lon="24.952357"><ele>29.4</ele><time>2026-05-23T14:42:28Z</time></trkpt><trkpt lat="60.224898" lon="24.952428"><ele>29.3</ele><time>2026-05-23T14:42:29Z</time></trkpt><trkpt lat="60.22491" lon="24.952457"><ele>29.3</ele><time>2026-05-23T14:42:30Z</time></trkpt><trkpt lat="60.224922" lon="24.95252"><ele>29.2</ele><time>2026-05-23T14:42:31Z</time><extensions><gpxtpx:TrackPointExtension><gpxtpx:hr>101</gpxtpx:hr></gpxtpx:TrackPointExtension></extensions></trkpt><trkpt lat="60.224943" lon="24.952593"><ele>29.1</ele><time>2026-05-23T14:42:32Z</time></trkpt><trkpt lat="60.224975" lon="24.952668"><ele>29.1</ele><time>2026-05-23T14:42:33Z</time></trkpt><trkpt lat="60.225015" lon="24.952738"><ele>29.0</ele><time>2026-05-23T14:42:34Z</time></trkpt><trkpt lat="60.225052" lon="24.952793"><ele>29.0</ele><time>2026-05-23T14:42:35Z</time></trkpt><trkpt lat="60.225098" lon="24.952857"><ele>28.9</ele><time>2026-05-23T14:42:36Z</time></trkpt><trkpt lat="60.225148" lon="24.952918"><ele>28.9</ele><time>2026-05-23T14:42:37Z</time></trkpt><trkpt lat="60.225197" lon="24.952982"><ele>28.8</ele><time>2026-05-23T14:42:38Z</time></trkpt><trkpt lat="60.225243" lon="24.953052"><ele>28.7</ele><time>2026-05-23T14:42:39Z</time></trkpt><trkpt lat="60.22529" lon="24.953127"><ele>28.6</ele><time>2026-05-23T14:42:40Z</time><extensions><gpxtpx:TrackPointExtension><gpxtpx:hr>98</gpxtpx:hr></gpxtpx:TrackPointExtension></extensions></trkpt><trkpt lat="60.225337" lon="24.953207"><ele>28.5</ele><time>2026-05-23T14:42:41Z</time></trkpt><trkpt lat="60.225382" lon="24.953285"><ele>28.4</ele><time>2026-05-23T14:42:42Z</time></trkpt><trkpt lat="60.225428" lon="24.953365"><ele>28.3</ele><time>2026-05-23T14:42:43Z</time></trkpt><trkpt lat="60.225473" lon="24.953443"><ele>28.2</ele><time>2026-05-23T14:42:44Z</time></trkpt><trkpt lat="60.225518" lon="24.953523"><ele>28.1</ele><time>2026-05-23T14:42:45Z</time><extensions><gpxtpx:TrackPointExtension><gpxtpx:hr>101</gpxtpx:hr></gpxtpx:TrackPointExtension></extensions></trkpt><trkpt lat="60.225563" lon="24.953607"><ele>28.1</ele><time>2026-05-23T14:42:46Z</time></trkpt><trkpt lat="60.225608" lon="24.953692"><ele>28.0</ele><time>2026-05-23T14:42:47Z</time></trkpt><trkpt lat="60.225652" lon="24.953778"><ele>28.0</ele><time>2026-05-23T14:42:48Z</time><extensions><gpxtpx:TrackPointExtension><gpxtpx:hr>102</gpxtpx:hr></gpxtpx:TrackPointExtension></extensions></trkpt><trkpt lat="60.225697" lon="24.953863"><ele>28.0</ele><time>2026-05-23T14:42:49Z</time></trkpt><trkpt lat="60.225742" lon="24.953952"><ele>28.1</ele><time>2026-05-23T14:42:50Z</time></trkpt><trkpt lat="60.225785" lon="24.954038"><ele>28.1</ele><time>2026-05-23T14:42:51Z</time><extensions><gpxtpx:TrackPointExtension><gpxtpx:hr>101</gpxtpx:hr></gpxtpx:TrackPointExtension></extensions></trkpt><trkpt lat="60.225828" lon="24.954127"><ele>28.2</ele><time>2026-05-23T14:42:52Z</time></trkpt><trkpt lat="60.225873" lon="24.95421"><ele>28.2</ele><time>2026-05-23T14:42:53Z</time></trkpt><trkpt lat="60.225917" lon="24.954292"><ele>28.3</ele><time>2026-05-23T14:42:54Z</time></trkpt><trkpt lat="60.225962" lon="24.954372"><ele>28.3</ele><time>2026-05-23T14:42:55Z</time></trkpt><trkpt lat="60.226005" lon="24.954452"><ele>28.4</ele><time>2026-05-23T14:42:56Z</time></trkpt><trkpt lat="60.22605" lon="24.954532"><ele>28.4</ele><time>2026-05-23T14:42:57Z</time></trkpt><trkpt lat="60.226095" lon="24.95461"><ele>28.4</ele><time>2026-05-23T14:42:58Z</time></trkpt><trkpt lat="60.226138" lon="24.954687"><ele>28.4</ele><time>2026-05-23T14:42:59Z</time></trkpt><trkpt lat="60.226183" lon="24.95476"><ele>28.3</ele><time>2026-05-23T14:43:00Z</time><extensions><gpxtpx:TrackPointExtension><gpxtpx:hr>96</gpxtpx:hr></gpxtpx:TrackPointExtension></extensions></trkpt><trkpt lat="60.226225" lon="24.954828"><ele>28.3</ele><time>2026-05-23T14:43:01Z</time></trkpt><trkpt lat="60.226265" lon="24.954893"><ele>28.2</ele><time>2026-05-23T14:43:02Z</time></trkpt><trkpt lat="60.226302" lon="24.954955"><ele>28.1</ele><time>2026-05-23T14:43:03Z</time></trkpt><trkpt lat="60.226337" lon="24.955012"><ele>28.1</ele><time>2026-05-23T14:43:04Z</time></trkpt><trkpt lat="60.226372" lon="24.955068"><ele>28.0</ele><time>2026-05-23T14:43:05Z</time><extensions><gpxtpx:TrackPointExtension><gpxtpx:hr>96</gpxtpx:hr></gpxtpx:TrackPointExtension></extensions></trkpt><trkpt lat="60.226405" lon="24.955127"><ele>28.0</ele><time>2026-05-23T14:43:06Z</time></trkpt><trkpt lat="60.226437" lon="24.955188"><ele>28.0</ele><time>2026-05-23T14:43:07Z</time><extensions><gpxtpx:TrackPointExtension><gpxtpx:hr>96</gpxtpx:hr></gpxtpx:TrackPointExtension></extensions></trkpt><trkpt lat="60.22647" lon="24.955252"><ele>28.0</ele><time>2026-05-23T14:43:08Z</time></trkpt><trkpt lat="60.226502" lon="24.955315"><ele>28.0</ele><time>2026-05-23T14:43:09Z</time></trkpt><trkpt lat="60.226535" lon="24.955382"><ele>28.1</ele><time>2026-05-23T14:43:10Z</time></trkpt><trkpt lat="60.226567" lon="24.955448"><ele>28.2</ele><time>2026-05-23T14:43:11Z</time><extensions><gpxtpx:TrackPointExtension><gpxtpx:hr>98</gpxtpx:hr></gpxtpx:TrackPointExtension></extensions></trkpt><trkpt lat="60.226598" lon="24.955515"><ele>28.4</ele><time>2026-05-23T14:43:12Z</time></trkpt><trkpt lat="60.226628" lon="24.95558"><ele>28.5</ele><time>2026-05-23T14:43:13Z</time></trkpt><trkpt lat="60.22666" lon="24.955642"><ele>28.7</ele><time>2026-05-23T14:43:14Z</time></trkpt><trkpt lat="60.226692" lon="24.955702"><ele>28.9</ele><time>2026-05-23T14:43:15Z</time></trkpt><trkpt lat="60.226723" lon="24.955762"><ele>29.0</ele><time>2026-05-23T14:43:16Z</time><extensions><gpxtpx:TrackPointExtension><gpxtpx:hr>97</gpxtpx:hr></gpxtpx:TrackPointExtension></extensions></trkpt><trkpt lat="60.226753" lon="24.95582"><ele>29.2</ele><time>2026-05-23T14:43:17Z</time></trkpt><trkpt lat="60.226785" lon="24.955878"><ele>29.4</ele><time>2026-05-23T14:43:18Z</time></trkpt><trkpt lat="60.226817" lon="24.955937"><ele>29.6</ele><time>2026-05-23T14:43:19Z</time></trkpt><trkpt lat="60.226848" lon="24.955997"><ele>29.7</ele><time>2026-05-23T14:43:20Z</time></trkpt><trkpt lat="60.22688" lon="24.95606"><ele>29.9</ele><time>2026-05-23T14:43:21Z</time></trkpt><trkpt lat="60.226913" lon="24.956122"><ele>30.0</ele><time>2026-05-23T14:43:22Z</time></trkpt><trkpt lat="60.226947" lon="24.956185"><ele>30.1</ele><time>2026-05-23T14:43:23Z</time></trkpt><trkpt lat="60.226978" lon="24.956247"><ele>30.3</ele><time>2026-05-23T14:43:24Z</time></trkpt><trkpt lat="60.227013" lon="24.95631"><ele>30.4</ele><time>2026-05-23T14:43:25Z</time><extensions><gpxtpx:TrackPointExtension><gpxtpx:hr>99</gpxtpx:hr></gpxtpx:TrackPointExtension></extensions></trkpt><trkpt lat="60.227047" lon="24.956373"><ele>30.5</ele><time>2026-05-23T14:43:26Z</time></trkpt><trkpt lat="60.227082" lon="24.956437"><ele>30.6</ele><time>2026-05-23T14:43:27Z</time></trkpt><trkpt lat="60.227117" lon="24.9565"><ele>30.7</ele><time>2026-05-23T14:43:28Z</time><extensions><gpxtpx:TrackPointExtension><gpxtpx:hr>101</gpxtpx:hr></gpxtpx:TrackPointExtension></extensions></trkpt><trkpt lat="60.227153" lon="24.956567"><ele>30.8</ele><time>2026-05-23T14:43:29Z</time></trkpt><trkpt lat="60.227192" lon="24.956635"><ele>30.9</ele><time>2026-05-23T14:43:30Z</time></trkpt><trkpt lat="60.227228" lon="24.956705"><ele>30.9</ele><time>2026-05-23T14:43:31Z</time></trkpt><trkpt lat="60.227265" lon="24.956777"><ele>31.0</ele><time>2026-05-23T14:43:32Z</time></trkpt><trkpt lat="60.227303" lon="24.95685"><ele>31.0</ele><time>2026-05-23T14:43:33Z</time></trkpt><trkpt lat="60.22734" lon="24.956923"><ele>31.0</ele><time>2026-05-23T14:43:34Z</time></trkpt><trkpt lat="60.227375" lon="24.956997"><ele>31.0</ele><time>2026-05-23T14:43:35Z</time><extensions><gpxtpx:TrackPointExtension><gpxtpx:hr>104</gpxtpx:hr></gpxtpx:TrackPointExtension></extensions></trkpt><trkpt lat="60.227412" lon="24.957072"><ele>30.9</ele><time>2026-05-23T14:43:36Z</time><extensions><gpxtpx:TrackPointExtension><gpxtpx:hr>105</gpxtpx:hr></gpxtpx:TrackPointExtension></extensions></trkpt><trkpt lat="60.227448" lon="24.957145"><ele>30.9</ele><time>2026-05-23T14:43:37Z</time></trkpt><trkpt lat="60.227485" lon="24.957218"><ele>30.9</ele><time>2026-05-23T14:43:38Z</time></trkpt><trkpt lat="60.227523" lon="24.957293"><ele>30.8</ele><time>2026-05-23T14:43:39Z</time></trkpt><trkpt lat="60.227563" lon="24.957368"><ele>30.8</ele><time>2026-05-23T14:43:40Z</time></trkpt><trkpt lat="60.227607" lon="24.957447"><ele>30.7</ele><time>2026-05-23T14:43:41Z</time><extensions><gpxtpx:TrackPointExtension><gpxtpx:hr>107</gpxtpx:hr></gpxtpx:TrackPointExtension></extensions></trkpt><trkpt lat="60.227648" lon="24.957525"><ele>30.6</ele><time>2026-05-23T14:43:42Z</time></trkpt><trkpt lat="60.227693" lon="24.957607"><ele>30.4</ele><time>2026-05-23T14:43:43Z</time></trkpt><trkpt lat="60.22774" lon="24.957692"><ele>30.3</ele><time>2026-05-23T14:43:44Z</time></trkpt><trkpt lat="60.227787" lon="24.957782"><ele>30.2</ele><time>2026-05-23T14:43:45Z</time></trkpt><trkpt lat="60.227832" lon="24.957875"><ele>30.0</ele><time>2026-05-23T14:43:46Z</time><extensions><gpxtpx:TrackPointExtension><gpxtpx:hr>106</gpxtpx:hr></gpxtpx:TrackPointExtension></extensions></trkpt><trkpt lat="60.227877" lon="24.957973"><ele>29.8</ele><time>2026-05-23T14:43:47Z</time></trkpt><trkpt lat="60.227923" lon="24.958077"><ele>29.6</ele><time>2026-05-23T14:43:48Z</time></trkpt><trkpt lat="60.227968" lon="24.958187"><ele>29.5</ele><time>2026-05-23T14:43:49Z</time></trkpt><trkpt lat="60.228012" lon="24.958302"><ele>29.3</ele><time>2026-05-23T14:43:50Z</time></trkpt><trkpt lat="60.228055" lon="24.958418"><ele>29.0</ele><time>2026-05-23T14:43:51Z</time></trkpt><trkpt lat="60.228097" lon="24.958537"><ele>28.8</ele><time>2026-05-23T14:43:52Z</time></trkpt><trkpt lat="60.228135" lon="24.95866"><ele>28.6</ele><time>2026-05-23T14:43:53Z</time></trkpt><trkpt lat="60.22817" lon="24.958787"><ele>28.4</ele><time>2026-05-23T14:43:54Z</time></trkpt><trkpt lat="60.228202" lon="24.958918"><ele>28.2</ele><time>2026-05-23T14:43:55Z</time><extensions><gpxtpx:TrackPointExtension><gpxtpx:hr>100</gpxtpx:hr></gpxtpx:TrackPointExtension></extensions></trkpt><trkpt lat="60.22823" lon="24.959048"><ele>28.1</ele><time>2026-05-23T14:43:56Z</time></trkpt><trkpt lat="60.228255" lon="24.959177"><ele>27.9</ele><time>2026-05-23T14:43:57Z</time><extensions><gpxtpx:TrackPointExtension><gpxtpx:hr>100</gpxtpx:hr></gpxtpx:TrackPointExtension></extensions></trkpt><trkpt lat="60.228275" lon="24.959303"><ele>27.8</ele><time>2026-05-23T14:43:58Z</time></trkpt><trkpt lat="60.228293" lon="24.95943"><ele>27.6</ele><time>2026-05-23T14:43:59Z</time></trkpt><trkpt lat="60.228312" lon="24.959553"><ele>27.5</ele><time>2026-05-23T14:44:00Z</time></trkpt><trkpt lat="60.22833" lon="24.959677"><ele>27.5</ele><time>2026-05-23T14:44:01Z</time></trkpt><trkpt lat="60.228348" lon="24.959802"><ele>27.4</ele><time>2026-05-23T14:44:02Z</time></trkpt><trkpt lat="60.228367" lon="24.959923"><ele>27.4</ele><time>2026-05-23T14:44:03Z</time><extensions><gpxtpx:TrackPointExtension><gpxtpx:hr>100</gpxtpx:hr></gpxtpx:TrackPointExtension></extensions></trkpt><trkpt lat="60.228383" lon="24.96004"><ele>27.3</ele><time>2026-05-23T14:44:04Z</time></trkpt><trkpt lat="60.228402" lon="24.960157"><ele>27.3</ele><time>2026-05-23T14:44:05Z</time></trkpt><trkpt lat="60.228418" lon="24.96027"><ele>27.3</ele><time>2026-05-23T14:44:06Z</time></trkpt><trkpt lat="60.228433" lon="24.96038"><ele>27.3</ele><time>2026-05-23T14:44:07Z</time></trkpt><trkpt lat="60.228448" lon="24.960488"><ele>27.3</ele><time>2026-05-23T14:44:08Z</time></trkpt><trkpt lat="60.228465" lon="24.960593"><ele>27.3</ele><time>2026-05-23T14:44:09Z</time><extensions><gpxtpx:TrackPointExtension><gpxtpx:hr>93</gpxtpx:hr></gpxtpx:TrackPointExtension></extensions></trkpt><trkpt lat="60.22848" lon="24.960697"><ele>27.3</ele><time>2026-05-23T14:44:10Z</time></trkpt><trkpt lat="60.228495" lon="24.960797"><ele>27.3</ele><time>2026-05-23T14:44:11Z</time></trkpt><trkpt lat="60.22851" lon="24.960895"><ele>27.4</ele><time>2026-05-23T14:44:12Z</time></trkpt><trkpt lat="60.228525" lon="24.960992"><ele>27.4</ele><time>2026-05-23T14:44:13Z</time></trkpt><trkpt lat="60.22854" lon="24.961087"><ele>27.5</ele><time>2026-05-23T14:44:14Z</time><extensions><gpxtpx:TrackPointExtension><gpxtpx:hr>91</gpxtpx:hr></gpxtpx:TrackPointExtension></extensions></trkpt><trkpt lat="60.228555" lon="24.961178"><ele>27.5</ele><time>2026-05-23T14:44:15Z</time></trkpt><trkpt lat="60.22857" lon="24.961268"><ele>27.5</ele><time>2026-05-23T14:44:16Z</time></trkpt><trkpt lat="60.228583" lon="24.961357"><ele>27.6</ele><time>2026-05-23T14:44:17Z</time></trkpt><trkpt lat="60.228597" lon="24.961443"><ele>27.6</ele><time>2026-05-23T14:44:18Z</time><extensions><gpxtpx:TrackPointExtension><gpxtpx:hr>90</gpxtpx:hr></gpxtpx:TrackPointExtension></extensions></trkpt><trkpt lat="60.22861" lon="24.96153"><ele>27.6</ele><time>2026-05-23T14:44:19Z</time></trkpt><trkpt lat="60.228622" lon="24.961617"><ele>27.6</ele><time>2026-05-23T14:44:20Z</time></trkpt><trkpt lat="60.228635" lon="24.961708"><ele>27.6</ele><time>2026-05-23T14:44:21Z</time></trkpt><trkpt lat="60.228648" lon="24.961805"><ele>27.6</ele><time>2026-05-23T14:44:22Z</time><extensions><gpxtpx:TrackPointExtension><gpxtpx:hr>89</gpxtpx:hr></gpxtpx:TrackPointExtension></extensions></trkpt><trkpt lat="60.22866" lon="24.961908"><ele>27.5</ele><time>2026-05-23T14:44:23Z</time></trkpt><trkpt lat="60.228673" lon="24.962017"><ele>27.4</ele><time>2026-05-23T14:44:24Z</time></trkpt><trkpt lat="60.228673" lon="24.962017"><ele>27.4</ele><time>2026-05-23T14:44:24Z</time></trkpt><trkpt lat="60.228685" lon="24.962133"><ele>27.2</ele><time>2026-05-23T14:44:25Z</time></trkpt><trkpt lat="60.228693" lon="24.962257"><ele>27.1</ele><time>2026-05-23T14:44:26Z</time><extensions><gpxtpx:TrackPointExtension><gpxtpx:hr>90</gpxtpx:hr></gpxtpx:TrackPointExtension></extensions></trkpt><trkpt lat="60.2287" lon="24.962382"><ele>27.0</ele><time>2026-05-23T14:44:27Z</time></trkpt><trkpt lat="60.228713" lon="24.962503"><ele>27.0</ele><time>2026-05-23T14:44:28Z</time></trkpt><trkpt lat="60.228728" lon="24.962615"><ele>26.9</ele><time>2026-05-23T14:44:29Z</time></trkpt><trkpt lat="60.228745" lon="24.962722"><ele>26.9</ele><time>2026-05-23T14:44:30Z</time></trkpt><trkpt lat="60.228762" lon="24.962827"><ele>26.9</ele><time>2026-05-23T14:44:31Z</time></trkpt><trkpt lat="60.228778" lon="24.96293"><ele>26.9</ele><time>2026-05-23T14:44:32Z</time></trkpt><trkpt lat="60.228795" lon="24.963032"><ele>26.9</ele><time>2026-05-23T14:44:33Z</time></trkpt><trkpt lat="60.228812" lon="24.963133"><ele>26.9</ele><time>2026-05-23T14:44:34Z</time></trkpt><trkpt lat="60.228827" lon="24.963232"><ele>26.8</ele><time>2026-05-23T14:44:35Z</time><extensions><gpxtpx:TrackPointExtension><gpxtpx:hr>98</gpxtpx:hr></gpxtpx:TrackPointExtension></extensions></trkpt><trkpt lat="60.228842" lon="24.963322"><ele>26.8</ele><time>2026-05-23T14:44:36Z</time></trkpt><trkpt lat="60.228853" lon="24.963402"><ele>26.8</ele><time>2026-05-23T14:44:37Z</time><extensions><gpxtpx:TrackPointExtension><gpxtpx:hr>99</gpxtpx:hr></gpxtpx:TrackPointExtension></extensions></trkpt><trkpt lat="60.228862" lon="24.963472"><ele>26.7</ele><time>2026-05-23T14:44:38Z</time></trkpt><trkpt lat="60.228868" lon="24.963537"><ele>26.7</ele><time>2026-05-23T14:44:39Z</time></trkpt><trkpt lat="60.22887" lon="24.963597"><ele>26.6</ele><time>2026-05-23T14:44:40Z</time></trkpt><trkpt lat="60.22887" lon="24.963653"><ele>26.6</ele><time>2026-05-23T14:44:41Z</time><extensions><gpxtpx:TrackPointExtension><gpxtpx:hr>96</gpxtpx:hr></gpxtpx:TrackPointExtension></extensions></trkpt><trkpt lat="60.228868" lon="24.963705"><ele>26.5</ele><time>2026-05-23T14:44:42Z</time></trkpt><trkpt lat="60.22887" lon="24.963752"><ele>26.5</ele><time>2026-05-23T14:44:43Z</time></trkpt><trkpt lat="60.228873" lon="24.963793"><ele>26.4</ele><time>2026-05-23T14:44:44Z</time></trkpt><trkpt lat="60.228878" lon="24.96383"><ele>26.4</ele><time>2026-05-23T14:44:45Z</time></trkpt><trkpt lat="60.228885" lon="24.963858"><ele>26.4</ele><time>2026-05-23T14:44:46Z</time></trkpt><trkpt lat="60.228892" lon="24.96388"><ele>26.3</ele><time>2026-05-23T14:44:47Z</time></trkpt><trkpt lat="60.228898" lon="24.963898"><ele>26.3</ele><time>2026-05-23T14:44:48Z</time></trkpt><trkpt lat="60.228908" lon="24.963917"><ele>26.2</ele><time>2026-05-23T14:44:49Z</time><extensions><gpxtpx:TrackPointExtension><gpxtpx:hr>94</gpxtpx:hr></gpxtpx:TrackPointExtension></extensions></trkpt><trkpt lat="60.22892" lon="24.963937"><ele>26.2</ele><time>2026-05-23T14:44:50Z</time></trkpt><trkpt lat="60.228938" lon="24.963962"><ele>26.2</ele><time>2026-05-23T14:44:51Z</time></trkpt><trkpt lat="60.228963" lon="24.963988"><ele>26.1</ele><time>2026-05-23T14:44:52Z</time></trkpt><trkpt lat="60.228993" lon="24.96402"><ele>26.1</ele><time>2026-05-23T14:44:53Z</time></trkpt><trkpt lat="60.229028" lon="24.964048"><ele>26.1</ele><time>2026-05-23T14:44:54Z</time></trkpt><trkpt lat="60.229068" lon="24.964077"><ele>26.1</ele><time>2026-05-23T14:44:55Z</time></trkpt><trkpt lat="60.229108" lon="24.964102"><ele>26.1</ele><time>2026-05-23T14:44:56Z</time></trkpt><trkpt lat="60.229152" lon="24.964127"><ele>26.1</ele><time>2026-05-23T14:44:57Z</time></trkpt><trkpt lat="60.229195" lon="24.964157"><ele>26.1</ele><time>2026-05-23T14:44:58Z</time><extensions><gpxtpx:TrackPointExtension><gpxtpx:hr>99</gpxtpx:hr></gpxtpx:TrackPointExtension></extensions></trkpt><trkpt lat="60.229238" lon="24.96419"><ele>26.1</ele><time>2026-05-23T14:44:59Z</time></trkpt><trkpt lat="60.229282" lon="24.964232"><ele>26.1</ele><time>2026-05-23T14:45:00Z</time></trkpt><trkpt lat="60.229323" lon="24.964282"><ele>26.1</ele><time>2026-05-23T14:45:01Z</time></trkpt><trkpt lat="60.229365" lon="24.964337"><ele>26.0</ele><time>2026-05-23T14:45:02Z</time></trkpt><trkpt lat="60.229405" lon="24.964398"><ele>26.0</ele><time>2026-05-23T14:45:03Z</time></trkpt><trkpt lat="60.229443" lon="24.964463"><ele>25.9</ele><time>2026-05-23T14:45:04Z</time></trkpt><trkpt lat="60.229483" lon="24.964528"><ele>25.7</ele><time>2026-05-23T14:45:05Z</time><extensions><gpxtpx:TrackPointExtension><gpxtpx:hr>109</gpxtpx:hr></gpxtpx:TrackPointExtension></extensions></trkpt><trkpt lat="60.229522" lon="24.964592"><ele>25.6</ele><time>2026-05-23T14:45:06Z</time></trkpt><trkpt lat="60.22956" lon="24.964653"><ele>25.4</ele><time>2026-05-23T14:45:07Z</time></trkpt><trkpt lat="60.229597" lon="24.964717"><ele>25.2</ele><time>2026-05-23T14:45:08Z</time></trkpt><trkpt lat="60.229632" lon="24.964777"><ele>25.0</ele><time>2026-05-23T14:45:09Z</time></trkpt><trkpt lat="60.229665" lon="24.964838"><ele>24.8</ele><time>2026-05-23T14:45:10Z</time><extensions><gpxtpx:TrackPointExtension><gpxtpx:hr>110</gpxtpx:hr></gpxtpx:TrackPointExtension></extensions></trkpt><trkpt lat="60.229697" lon="24.964898"><ele>24.6</ele><time>2026-05-23T14:45:11Z</time></trkpt><trkpt lat="60.229728" lon="24.964962"><ele>24.4</ele><time>2026-05-23T14:45:12Z</time></trkpt><trkpt lat="60.229762" lon="24.965027"><ele>24.2</ele><time>2026-05-23T14:45:13Z</time><extensions><gpxtpx:TrackPointExtension><gpxtpx:hr>108</gpxtpx:hr></gpxtpx:TrackPointExtension></extensions></trkpt><trkpt lat="60.229793" lon="24.965092"><ele>24.0</ele><time>2026-05-23T14:45:14Z</time></trkpt><trkpt lat="60.229825" lon="24.965155"><ele>23.8</ele><time>2026-05-23T14:45:15Z</time></trkpt><trkpt lat="60.229857" lon="24.965215"><ele>23.7</ele><time>2026-05-23T14:45:16Z</time></trkpt><trkpt lat="60.229885" lon="24.965275"><ele>23.5</ele><time>2026-05-23T14:45:17Z</time></trkpt><trkpt lat="60.229912" lon="24.965333"><ele>23.4</ele><time>2026-05-23T14:45:18Z</time></trkpt><trkpt lat="60.229933" lon="24.965393"><ele>23.2</ele><time>2026-05-23T14:45:19Z</time></trkpt><trkpt lat="60.22995" lon="24.965455"><ele>23.1</ele><time>2026-05-23T14:45:20Z</time><extensions><gpxtpx:TrackPointExtension><gpxtpx:hr>106</gpxtpx:hr></gpxtpx:TrackPointExtension></extensions></trkpt><trkpt lat="60.229957" lon="24.965518"><ele>22.9</ele><time>2026-05-23T14:45:21Z</time><extensions><gpxtpx:TrackPointExtension><gpxtpx:hr>106</gpxtpx:hr></gpxtpx:TrackPointExtension></extensions></trkpt><trkpt lat="60.229953" lon="24.965585"><ele>22.8</ele><time>2026-05-23T14:45:22Z</time></trkpt><trkpt lat="60.229943" lon="24.965648"><ele>22.6</ele><time>2026-05-23T14:45:23Z</time></trkpt><trkpt lat="60.22993" lon="24.965703"><ele>22.5</ele><time>2026-05-23T14:45:24Z</time></trkpt><trkpt lat="60.229917" lon="24.965752"><ele>22.4</ele><time>2026-05-23T14:45:25Z</time></trkpt><trkpt lat="60.229908" lon="24.965795"><ele>22.3</ele><time>2026-05-23T14:45:26Z</time></trkpt><trkpt lat="60.229905" lon="24.96583"><ele>22.2</ele><time>2026-05-23T14:45:27Z</time><extensions><gpxtpx:TrackPointExtension><gpxtpx:hr>109</gpxtpx:hr></gpxtpx:TrackPointExtension></extensions></trkpt><trkpt lat="60.229907" lon="24.965853"><ele>22.1</ele><time>2026-05-23T14:45:28Z</time></trkpt><trkpt lat="60.229908" lon="24.96587"><ele>22.0</ele><time>2026-05-23T14:45:29Z</time></trkpt><trkpt lat="60.229912" lon="24.965883"><ele>21.9</ele><time>2026-05-23T14:45:30Z</time></trkpt><trkpt lat="60.229915" lon="24.965897"><ele>21.8</ele><time>2026-05-23T14:45:31Z</time></trkpt><trkpt lat="60.22992" lon="24.965912"><ele>21.7</ele><time>2026-05-23T14:45:32Z</time></trkpt><trkpt lat="60.229927" lon="24.965927"><ele>21.6</ele><time>2026-05-23T14:45:33Z</time></trkpt><trkpt lat="60.229933" lon="24.96594"><ele>21.5</ele><time>2026-05-23T14:45:34Z</time></trkpt><trkpt lat="60.22994" lon="24.965952"><ele>21.4</ele><time>2026-05-23T14:45:35Z</time></trkpt><trkpt lat="60.229948" lon="24.965967"><ele>21.3</ele><time>2026-05-23T14:45:36Z</time></trkpt><trkpt lat="60.229957" lon="24.965988"><ele>21.3</ele><time>2026-05-23T14:45:37Z</time></trkpt><trkpt lat="60.22997" lon="24.966028"><ele>21.2</ele><time>2026-05-23T14:45:38Z</time></trkpt><trkpt lat="60.229987" lon="24.966077"><ele>21.2</ele><time>2026-05-23T14:45:39Z</time></trkpt><trkpt lat="60.230005" lon="24.966122"><ele>21.1</ele><time>2026-05-23T14:45:40Z</time></trkpt><trkpt lat="60.230023" lon="24.966158"><ele>21.0</ele><time>2026-05-23T14:45:41Z</time><extensions><gpxtpx:TrackPointExtension><gpxtpx:hr>110</gpxtpx:hr></gpxtpx:TrackPointExtension></extensions></trkpt><trkpt lat="60.230042" lon="24.96618"><ele>21.0</ele><time>2026-05-23T14:45:42Z</time></trkpt><trkpt lat="60.230058" lon="24.966185"><ele>20.9</ele><time>2026-05-23T14:45:43Z</time></trkpt><trkpt lat="60.230068" lon="24.966173"><ele>20.8</ele><time>2026-05-23T14:45:44Z</time></trkpt><trkpt lat="60.230068" lon="24.966155"><ele>20.7</ele><time>2026-05-23T14:45:45Z</time></trkpt><trkpt lat="60.230062" lon="24.966138"><ele>20.6</ele><time>2026-05-23T14:45:46Z</time></trkpt><trkpt lat="60.230055" lon="24.966127"><ele>20.5</ele><time>2026-05-23T14:45:47Z</time></trkpt><trkpt lat="60.230052" lon="24.966125"><ele>20.4</ele><time>2026-05-23T14:45:48Z</time></trkpt><trkpt lat="60.230052" lon="24.966137"><ele>20.3</ele><time>2026-05-23T14:45:49Z</time></trkpt><trkpt lat="60.230055" lon="24.966158"><ele>20.1</ele><time>2026-05-23T14:45:50Z</time><extensions><gpxtpx:TrackPointExtension><gpxtpx:hr>107</gpxtpx:hr></gpxtpx:TrackPointExtension></extensions></trkpt><trkpt lat="60.230062" lon="24.966178"><ele>20.0</ele><time>2026-05-23T14:45:51Z</time><extensions><gpxtpx:TrackPointExtension><gpxtpx:hr>106</gpxtpx:hr></gpxtpx:TrackPointExtension></extensions></trkpt><trkpt lat="60.23007" lon="24.96619"><ele>19.8</ele><time>2026-05-23T14:45:52Z</time></trkpt><trkpt lat="60.230078" lon="24.966197"><ele>19.5</ele><time>2026-05-23T14:45:53Z</time></trkpt><trkpt lat="60.230087" lon="24.9662"><ele>19.3</ele><time>2026-05-23T14:45:54Z</time></trkpt><trkpt lat="60.230092" lon="24.966202"><ele>19.0</ele><time>2026-05-23T14:45:55Z</time></trkpt><trkpt lat="60.230095" lon="24.966205"><ele>18.7</ele><time>2026-05-23T14:45:56Z</time><extensions><gpxtpx:TrackPointExtension><gpxtpx:hr>103</gpxtpx:hr></gpxtpx:TrackPointExtension></extensions></trkpt><trkpt lat="60.230097" lon="24.966208"><ele>18.3</ele><time>2026-05-23T14:45:57Z</time></trkpt><trkpt lat="60.230098" lon="24.966212"><ele>17.9</ele><time>2026-05-23T14:45:58Z</time></trkpt><trkpt lat="60.2301" lon="24.966215"><ele>17.5</ele><time>2026-05-23T14:45:59Z</time></trkpt><trkpt lat="60.230102" lon="24.966218"><ele>17.0</ele><time>2026-05-23T14:46:00Z</time></trkpt><trkpt lat="60.230102" lon="24.96622"><ele>16.4</ele><time>2026-05-23T14:46:01Z</time><extensions><gpxtpx:TrackPointExtension><gpxtpx:hr>100</gpxtpx:hr></gpxtpx:TrackPointExtension></extensions></trkpt><trkpt lat="60.230102" lon="24.966223"><ele>15.9</ele><time>2026-05-23T14:46:02Z</time></trkpt><trkpt lat="60.230103" lon="24.966225"><ele>15.2</ele><time>2026-05-23T14:46:03Z</time></trkpt><trkpt lat="60.230103" lon="24.966225"><ele>14.6</ele><time>2026-05-23T14:46:04Z</time></trkpt><trkpt lat="60.230105" lon="24.966225"><ele>13.9</ele><time>2026-05-23T14:46:05Z</time></trkpt><trkpt lat="60.230105" lon="24.966227"><ele>13.1</ele><time>2026-05-23T14:46:06Z</time><extensions><gpxtpx:TrackPointExtension><gpxtpx:hr>103</gpxtpx:hr></gpxtpx:TrackPointExtension></extensions></trkpt><trkpt lat="60.230105" lon="24.966227"><ele>12.3</ele><time>2026-05-23T14:46:07Z</time></trkpt></trkseg></trk></gpx>