<?xml version="1.0" encoding="UTF-8" standalone="no"?><gpx xmlns="http://www.topografix.com/GPX/1/1" xmlns:gpxtpx="http://www.garmin.com/xmlschemas/TrackPointExtension/v1" xmlns:xsi="http://www.w3.org/2001/XMLSchema-instance" creator="Sports Tracker" version="1.1" xsi:schemaLocation="http://www.topografix.com/GPX/1/1 http://www.topografix.com/GPX/1/1/gpx.xsd http://www.garmin.com/xmlschemas/TrackPointExtension/v1 http://www.garmin.com/xmlschemas/TrackPointExtensionv1.xsd"><metadata><name/><desc/><author><name>anttipehkonen240</name></author></metadata><trk><name/><trkseg><trkpt lat="60.263332" lon="24.913485"><ele>28.9</ele><time>2026-01-29T09:15:30Z</time><extensions><gpxtpx:TrackPointExtension><gpxtpx:hr>158</gpxtpx:hr></gpxtpx:TrackPointExtension></extensions></trkpt><trkpt lat="60.263348" lon="24.91365"><ele>32.9</ele><time>2026-01-29T09:15:30Z</time></trkpt><trkpt lat="60.263345" lon="24.913705"><ele>33.1</ele><time>2026-01-29T09:15:31Z</time></trkpt><trkpt lat="60.263365" lon="24.91374"><ele>32.2</ele><time>2026-01-29T09:15:32Z</time></trkpt><trkpt lat="60.263377" lon="24.913808"><ele>32.1</ele><time>2026-01-29T09:15:33Z</time></trkpt><trkpt lat="60.263402" lon="24.913837"><ele>30.4</ele><time>2026-01-29T09:15:35Z</time></trkpt><trkpt lat="60.263377" lon="24.913808"><ele>32.1</ele><time>2026-01-29T09:15:35Z</time></trkpt><trkpt lat="60.263447" lon="24.914073"><ele>30.7</ele><time>2026-01-29T09:15:37Z</time></trkpt><trkpt lat="60.263487" lon="24.914167"><ele>30.3</ele><time>2026-01-29T09:15:38Z</time><extensions><gpxtpx:TrackPointExtension><gpxtpx:hr>157</gpxtpx:hr></gpxtpx:TrackPointExtension></extensions></trkpt><trkpt lat="60.263513" lon="24.914202"><ele>29.2</ele><time>2026-01-29T09:15:39Z</time><extensions><gpxtpx:TrackPointExtension><gpxtpx:hr>156</gpxtpx:hr></gpxtpx:TrackPointExtension></extensions></trkpt><trkpt lat="60.263547" lon="24.914238"><ele>30.7</ele><time>2026-01-29T09:15:40Z</time></trkpt><trkpt lat="60.263588" lon="24.914258"><ele>30.7</ele><time>2026-01-29T09:15:41Z</time></trkpt><trkpt lat="60.263623" lon="24.914262"><ele>31.3</ele><time>2026-01-29T09:15:42Z</time></trkpt><trkpt lat="60.26365" lon="24.914258"><ele>29.0</ele><time>2026-01-29T09:15:43Z</time></trkpt><trkpt lat="60.263673" lon="24.914253"><ele>28.5</ele><time>2026-01-29T09:15:44Z</time></trkpt><trkpt lat="60.263697" lon="24.914242"><ele>27.1</ele><time>2026-01-29T09:15:45Z</time></trkpt><trkpt lat="60.263725" lon="24.914215"><ele>26.8</ele><time>2026-01-29T09:15:46Z</time></trkpt><trkpt lat="60.263757" lon="24.914177"><ele>26.0</ele><time>2026-01-29T09:15:47Z</time></trkpt><trkpt lat="60.263782" lon="24.914135"><ele>25.6</ele><time>2026-01-29T09:15:48Z</time><extensions><gpxtpx:TrackPointExtension><gpxtpx:hr>151</gpxtpx:hr></gpxtpx:TrackPointExtension></extensions></trkpt><trkpt lat="60.263807" lon="24.914103"><ele>25.9</ele><time>2026-01-29T09:15:49Z</time></trkpt><trkpt lat="60.263823" lon="24.914063"><ele>25.8</ele><time>2026-01-29T09:15:50Z</time></trkpt><trkpt lat="60.26384" lon="24.914008"><ele>25.3</ele><time>2026-01-29T09:15:51Z</time></trkpt><trkpt lat="60.263858" lon="24.913942"><ele>25.6</ele><time>2026-01-29T09:15:52Z</time><extensions><gpxtpx:TrackPointExtension><gpxtpx:hr>149</gpxtpx:hr></gpxtpx:TrackPointExtension></extensions></trkpt><trkpt lat="60.263875" lon="24.913898"><ele>25.8</ele><time>2026-01-29T09:15:53Z</time></trkpt><trkpt lat="60.263882" lon="24.913853"><ele>26.5</ele><time>2026-01-29T09:15:54Z</time></trkpt><trkpt lat="60.263897" lon="24.913808"><ele>27.6</ele><time>2026-01-29T09:15:55Z</time></trkpt><trkpt lat="60.263917" lon="24.913738"><ele>28.2</ele><time>2026-01-29T09:15:56Z</time><extensions><gpxtpx:TrackPointExtension><gpxtpx:hr>149</gpxtpx:hr></gpxtpx:TrackPointExtension></extensions></trkpt><trkpt lat="60.263923" lon="24.913677"><ele>29.2</ele><time>2026-01-29T09:15:57Z</time></trkpt><trkpt lat="60.26394" lon="24.913622"><ele>30.6</ele><time>2026-01-29T09:15:58Z</time></trkpt><trkpt lat="60.263948" lon="24.913588"><ele>30.7</ele><time>2026-01-29T09:15:59Z</time></trkpt><trkpt lat="60.263958" lon="24.913523"><ele>30.3</ele><time>2026-01-29T09:16:00Z</time></trkpt><trkpt lat="60.263975" lon="24.913465"><ele>31.8</ele><time>2026-01-29T09:16:01Z</time></trkpt><trkpt lat="60.263997" lon="24.913373"><ele>32.6</ele><time>2026-01-29T09:16:02Z</time></trkpt><trkpt lat="60.264005" lon="24.913328"><ele>31.9</ele><time>2026-01-29T09:16:03Z</time><extensions><gpxtpx:TrackPointExtension><gpxtpx:hr>150</gpxtpx:hr></gpxtpx:TrackPointExtension></extensions></trkpt><trkpt lat="60.264018" lon="24.913293"><ele>31.7</ele><time>2026-01-29T09:16:04Z</time></trkpt><trkpt lat="60.264083" lon="24.913195"><ele>34.7</ele><time>2026-01-29T09:16:08Z</time><extensions><gpxtpx:TrackPointExtension><gpxtpx:hr>149</gpxtpx:hr></gpxtpx:TrackPointExtension></extensions></trkpt><trkpt lat="60.264092" lon="24.913173"><ele>34.8</ele><time>2026-01-29T09:16:08Z</time></trkpt><trkpt lat="60.26411" lon="24.913138"><ele>33.9</ele><time>2026-01-29T09:16:09Z</time></trkpt><trkpt lat="60.264137" lon="24.913097"><ele>33.7</ele><time>2026-01-29T09:16:10Z</time><extensions><gpxtpx:TrackPointExtension><gpxtpx:hr>152</gpxtpx:hr></gpxtpx:TrackPointExtension></extensions></trkpt><trkpt lat="60.264163" lon="24.913062"><ele>34.8</ele><time>2026-01-29T09:16:11Z</time></trkpt><trkpt lat="60.264192" lon="24.913027"><ele>34.5</ele><time>2026-01-29T09:16:12Z</time></trkpt><trkpt lat="60.264218" lon="24.912993"><ele>35.2</ele><time>2026-01-29T09:16:13Z</time></trkpt><trkpt lat="60.264243" lon="24.912963"><ele>35.7</ele><time>2026-01-29T09:16:14Z</time></trkpt><trkpt lat="60.264268" lon="24.91293"><ele>34.5</ele><time>2026-01-29T09:16:15Z</time></trkpt><trkpt lat="60.26429" lon="24.912907"><ele>34.3</ele><time>2026-01-29T09:16:16Z</time></trkpt><trkpt lat="60.264315" lon="24.912885"><ele>33.8</ele><time>2026-01-29T09:16:17Z</time></trkpt><trkpt lat="60.264345" lon="24.912868"><ele>34.1</ele><time>2026-01-29T09:16:18Z</time><extensions><gpxtpx:TrackPointExtension><gpxtpx:hr>156</gpxtpx:hr></gpxtpx:TrackPointExtension></extensions></trkpt><trkpt lat="60.264373" lon="24.912853"><ele>35.6</ele><time>2026-01-29T09:16:19Z</time></trkpt><trkpt lat="60.2644" lon="24.91284"><ele>35.9</ele><time>2026-01-29T09:16:20Z</time></trkpt><trkpt lat="60.264432" lon="24.912827"><ele>37.5</ele><time>2026-01-29T09:16:21Z</time></trkpt><trkpt lat="60.264467" lon="24.91281"><ele>37.0</ele><time>2026-01-29T09:16:22Z</time><extensions><gpxtpx:TrackPointExtension><gpxtpx:hr>158</gpxtpx:hr></gpxtpx:TrackPointExtension></extensions></trkpt><trkpt lat="60.264493" lon="24.912795"><ele>36.1</ele><time>2026-01-29T09:16:23Z</time></trkpt><trkpt lat="60.264513" lon="24.912777"><ele>35.1</ele><time>2026-01-29T09:16:24Z</time></trkpt><trkpt lat="60.264542" lon="24.912755"><ele>34.6</ele><time>2026-01-29T09:16:25Z</time></trkpt><trkpt lat="60.264567" lon="24.912737"><ele>34.9</ele><time>2026-01-29T09:16:26Z</time></trkpt><trkpt lat="60.26458" lon="24.912725"><ele>33.9</ele><time>2026-01-29T09:16:27Z</time><extensions><gpxtpx:TrackPointExtension><gpxtpx:hr>158</gpxtpx:hr></gpxtpx:TrackPointExtension></extensions></trkpt><trkpt lat="60.264592" lon="24.91271"><ele>33.2</ele><time>2026-01-29T09:16:28Z</time></trkpt><trkpt lat="60.264605" lon="24.91269"><ele>33.4</ele><time>2026-01-29T09:16:29Z</time><extensions><gpxtpx:TrackPointExtension><gpxtpx:hr>158</gpxtpx:hr></gpxtpx:TrackPointExtension></extensions></trkpt><trkpt lat="60.264625" lon="24.91266"><ele>33.7</ele><time>2026-01-29T09:16:30Z</time></trkpt><trkpt lat="60.264643" lon="24.912627"><ele>34.5</ele><time>2026-01-29T09:16:31Z</time></trkpt><trkpt lat="60.264663" lon="24.912587"><ele>35.5</ele><time>2026-01-29T09:16:32Z</time></trkpt><trkpt lat="60.264683" lon="24.91255"><ele>34.9</ele><time>2026-01-29T09:16:33Z</time></trkpt><trkpt lat="60.264698" lon="24.912522"><ele>35.3</ele><time>2026-01-29T09:16:34Z</time></trkpt><trkpt lat="60.264778" lon="24.912363"><ele>41.6</ele><time>2026-01-29T09:16:40Z</time><extensions><gpxtpx:TrackPointExtension><gpxtpx:hr>159</gpxtpx:hr></gpxtpx:TrackPointExtension></extensions></trkpt><trkpt lat="60.264707" lon="24.912495"><ele>34.7</ele><time>2026-01-29T09:16:40Z</time></trkpt><trkpt lat="60.264772" lon="24.912342"><ele>35.0</ele><time>2026-01-29T09:16:41Z</time></trkpt><trkpt lat="60.264783" lon="24.912318"><ele>35.2</ele><time>2026-01-29T09:16:41Z</time></trkpt><trkpt lat="60.264807" lon="24.912287"><ele>34.3</ele><time>2026-01-29T09:16:42Z</time><extensions><gpxtpx:TrackPointExtension><gpxtpx:hr>161</gpxtpx:hr></gpxtpx:TrackPointExtension></extensions></trkpt><trkpt lat="60.26483" lon="24.912253"><ele>33.8</ele><time>2026-01-29T09:16:43Z</time></trkpt><trkpt lat="60.264848" lon="24.91222"><ele>33.2</ele><time>2026-01-29T09:16:44Z</time></trkpt><trkpt lat="60.264868" lon="24.912177"><ele>33.3</ele><time>2026-01-29T09:16:45Z</time></trkpt><trkpt lat="60.26489" lon="24.91213"><ele>34.5</ele><time>2026-01-29T09:16:46Z</time></trkpt><trkpt lat="60.264912" lon="24.91208"><ele>35.4</ele><time>2026-01-29T09:16:47Z</time><extensions><gpxtpx:TrackPointExtension><gpxtpx:hr>160</gpxtpx:hr></gpxtpx:TrackPointExtension></extensions></trkpt><trkpt lat="60.26493" lon="24.912037"><ele>37.7</ele><time>2026-01-29T09:16:48Z</time></trkpt><trkpt lat="60.264952" lon="24.911998"><ele>39.6</ele><time>2026-01-29T09:16:49Z</time><extensions><gpxtpx:TrackPointExtension><gpxtpx:hr>160</gpxtpx:hr></gpxtpx:TrackPointExtension></extensions></trkpt><trkpt lat="60.264975" lon="24.911962"><ele>38.9</ele><time>2026-01-29T09:16:50Z</time></trkpt><trkpt lat="60.264998" lon="24.911923"><ele>39.2</ele><time>2026-01-29T09:16:51Z</time></trkpt><trkpt lat="60.265023" lon="24.91189"><ele>38.9</ele><time>2026-01-29T09:16:52Z</time></trkpt><trkpt lat="60.265043" lon="24.911857"><ele>39.3</ele><time>2026-01-29T09:16:53Z</time></trkpt><trkpt lat="60.265067" lon="24.911815"><ele>39.6</ele><time>2026-01-29T09:16:54Z</time><extensions><gpxtpx:TrackPointExtension><gpxtpx:hr>159</gpxtpx:hr></gpxtpx:TrackPointExtension></extensions></trkpt><trkpt lat="60.265088" lon="24.911782"><ele>39.8</ele><time>2026-01-29T09:16:55Z</time></trkpt><trkpt lat="60.265107" lon="24.91175"><ele>40.2</ele><time>2026-01-29T09:16:56Z</time></trkpt><trkpt lat="60.265127" lon="24.911715"><ele>40.6</ele><time>2026-01-29T09:16:57Z</time></trkpt><trkpt lat="60.265145" lon="24.911667"><ele>42.2</ele><time>2026-01-29T09:16:58Z</time></trkpt><trkpt lat="60.26516" lon="24.911617"><ele>41.6</ele><time>2026-01-29T09:16:59Z</time><extensions><gpxtpx:TrackPointExtension><gpxtpx:hr>159</gpxtpx:hr></gpxtpx:TrackPointExtension></extensions></trkpt><trkpt lat="60.265177" lon="24.911563"><ele>41.3</ele><time>2026-01-29T09:17:00Z</time></trkpt><trkpt lat="60.265187" lon="24.911512"><ele>41.5</ele><time>2026-01-29T09:17:01Z</time></trkpt><trkpt lat="60.265195" lon="24.911462"><ele>41.5</ele><time>2026-01-29T09:17:02Z</time></trkpt><trkpt lat="60.2652" lon="24.911417"><ele>42.2</ele><time>2026-01-29T09:17:03Z</time></trkpt><trkpt lat="60.265205" lon="24.91135"><ele>40.9</ele><time>2026-01-29T09:17:04Z</time><extensions><gpxtpx:TrackPointExtension><gpxtpx:hr>160</gpxtpx:hr></gpxtpx:TrackPointExtension></extensions></trkpt><trkpt lat="60.265207" lon="24.91128"><ele>41.1</ele><time>2026-01-29T09:17:05Z</time></trkpt><trkpt lat="60.265207" lon="24.91122"><ele>40.7</ele><time>2026-01-29T09:17:06Z</time></trkpt><trkpt lat="60.265205" lon="24.911163"><ele>40.0</ele><time>2026-01-29T09:17:07Z</time></trkpt><trkpt lat="60.265205" lon="24.911098"><ele>41.2</ele><time>2026-01-29T09:17:08Z</time></trkpt><trkpt lat="60.265202" lon="24.911012"><ele>42.6</ele><time>2026-01-29T09:17:09Z</time></trkpt><trkpt lat="60.265195" lon="24.910945"><ele>42.6</ele><time>2026-01-29T09:17:10Z</time></trkpt><trkpt lat="60.265185" lon="24.910895"><ele>44.1</ele><time>2026-01-29T09:17:11Z</time></trkpt><trkpt lat="60.26517" lon="24.910835"><ele>43.6</ele><time>2026-01-29T09:17:12Z</time></trkpt><trkpt lat="60.265138" lon="24.910738"><ele>39.1</ele><time>2026-01-29T09:17:13Z</time><extensions><gpxtpx:TrackPointExtension><gpxtpx:hr>160</gpxtpx:hr></gpxtpx:TrackPointExtension></extensions></trkpt><trkpt lat="60.265108" lon="24.910667"><ele>41.2</ele><time>2026-01-29T09:17:14Z</time></trkpt><trkpt lat="60.265098" lon="24.910625"><ele>41.2</ele><time>2026-01-29T09:17:15Z</time></trkpt><trkpt lat="60.265088" lon="24.910603"><ele>39.0</ele><time>2026-01-29T09:17:16Z</time></trkpt><trkpt lat="60.265072" lon="24.910533"><ele>39.6</ele><time>2026-01-29T09:17:17Z</time></trkpt><trkpt lat="60.265058" lon="24.910495"><ele>39.7</ele><time>2026-01-29T09:17:18Z</time><extensions><gpxtpx:TrackPointExtension><gpxtpx:hr>161</gpxtpx:hr></gpxtpx:TrackPointExtension></extensions></trkpt><trkpt lat="60.265038" lon="24.910438"><ele>39.8</ele><time>2026-01-29T09:17:19Z</time></trkpt><trkpt lat="60.265013" lon="24.910358"><ele>40.9</ele><time>2026-01-29T09:17:20Z</time><extensions><gpxtpx:TrackPointExtension><gpxtpx:hr>161</gpxtpx:hr></gpxtpx:TrackPointExtension></extensions></trkpt><trkpt lat="60.264987" lon="24.910305"><ele>41.1</ele><time>2026-01-29T09:17:21Z</time></trkpt><trkpt lat="60.26496" lon="24.910248"><ele>41.0</ele><time>2026-01-29T09:17:22Z</time></trkpt><trkpt lat="60.264947" lon="24.910212"><ele>40.5</ele><time>2026-01-29T09:17:23Z</time></trkpt><trkpt lat="60.264925" lon="24.910162"><ele>41.3</ele><time>2026-01-29T09:17:24Z</time></trkpt><trkpt lat="60.264917" lon="24.91014"><ele>41.7</ele><time>2026-01-29T09:17:25Z</time><extensions><gpxtpx:TrackPointExtension><gpxtpx:hr>160</gpxtpx:hr></gpxtpx:TrackPointExtension></extensions></trkpt><trkpt lat="60.264902" lon="24.910107"><ele>42.4</ele><time>2026-01-29T09:17:26Z</time></trkpt><trkpt lat="60.264882" lon="24.910048"><ele>42.5</ele><time>2026-01-29T09:17:27Z</time></trkpt><trkpt lat="60.264868" lon="24.910012"><ele>42.7</ele><time>2026-01-29T09:17:28Z</time></trkpt><trkpt lat="60.26485" lon="24.909985"><ele>42.5</ele><time>2026-01-29T09:17:29Z</time></trkpt><trkpt lat="60.264835" lon="24.909945"><ele>41.5</ele><time>2026-01-29T09:17:30Z</time><extensions><gpxtpx:TrackPointExtension><gpxtpx:hr>159</gpxtpx:hr></gpxtpx:TrackPointExtension></extensions></trkpt><trkpt lat="60.264817" lon="24.909913"><ele>42.1</ele><time>2026-01-29T09:17:31Z</time></trkpt><trkpt lat="60.264812" lon="24.909887"><ele>41.9</ele><time>2026-01-29T09:17:32Z</time></trkpt><trkpt lat="60.264783" lon="24.90985"><ele>41.5</ele><time>2026-01-29T09:17:33Z</time></trkpt><trkpt lat="60.264752" lon="24.909803"><ele>41.6</ele><time>2026-01-29T09:17:34Z</time><extensions><gpxtpx:TrackPointExtension><gpxtpx:hr>159</gpxtpx:hr></gpxtpx:TrackPointExtension></extensions></trkpt><trkpt lat="60.264757" lon="24.909743"><ele>41.6</ele><time>2026-01-29T09:17:38Z</time></trkpt><trkpt lat="60.264643" lon="24.90966"><ele>38.5</ele><time>2026-01-29T09:17:39Z</time><extensions><gpxtpx:TrackPointExtension><gpxtpx:hr>159</gpxtpx:hr></gpxtpx:TrackPointExtension></extensions></trkpt><trkpt lat="60.264628" lon="24.909645"><ele>40.0</ele><time>2026-01-29T09:17:39Z</time></trkpt><trkpt lat="60.264605" lon="24.909617"><ele>39.0</ele><time>2026-01-29T09:17:40Z</time></trkpt><trkpt lat="60.264582" lon="24.90958"><ele>38.6</ele><time>2026-01-29T09:17:41Z</time></trkpt><trkpt lat="60.264555" lon="24.909543"><ele>38.3</ele><time>2026-01-29T09:17:42Z</time></trkpt><trkpt lat="60.264528" lon="24.90951"><ele>39.0</ele><time>2026-01-29T09:17:43Z</time></trkpt><trkpt lat="60.264505" lon="24.909488"><ele>39.5</ele><time>2026-01-29T09:17:44Z</time></trkpt><trkpt lat="60.264483" lon="24.909472"><ele>39.8</ele><time>2026-01-29T09:17:45Z</time></trkpt><trkpt lat="60.264463" lon="24.909457"><ele>39.1</ele><time>2026-01-29T09:17:46Z</time></trkpt><trkpt lat="60.264437" lon="24.909435"><ele>38.5</ele><time>2026-01-29T09:17:47Z</time><extensions><gpxtpx:TrackPointExtension><gpxtpx:hr>158</gpxtpx:hr></gpxtpx:TrackPointExtension></extensions></trkpt><trkpt lat="60.264405" lon="24.909408"><ele>38.2</ele><time>2026-01-29T09:17:48Z</time></trkpt><trkpt lat="60.26437" lon="24.90938"><ele>39.2</ele><time>2026-01-29T09:17:49Z</time></trkpt><trkpt lat="60.26433" lon="24.909348"><ele>39.2</ele><time>2026-01-29T09:17:50Z</time></trkpt><trkpt lat="60.264298" lon="24.90932"><ele>39.6</ele><time>2026-01-29T09:17:51Z</time></trkpt><trkpt lat="60.26427" lon="24.909293"><ele>40.1</ele><time>2026-01-29T09:17:52Z</time></trkpt><trkpt lat="60.264225" lon="24.909253"><ele>39.2</ele><time>2026-01-29T09:17:53Z</time><extensions><gpxtpx:TrackPointExtension><gpxtpx:hr>156</gpxtpx:hr></gpxtpx:TrackPointExtension></extensions></trkpt><trkpt lat="60.264197" lon="24.909238"><ele>39.0</ele><time>2026-01-29T09:17:54Z</time></trkpt><trkpt lat="60.264188" lon="24.909192"><ele>39.5</ele><time>2026-01-29T09:17:55Z</time><extensions><gpxtpx:TrackPointExtension><gpxtpx:hr>155</gpxtpx:hr></gpxtpx:TrackPointExtension></extensions></trkpt><trkpt lat="60.26417" lon="24.909165"><ele>41.0</ele><time>2026-01-29T09:17:56Z</time></trkpt><trkpt lat="60.26414" lon="24.909107"><ele>41.1</ele><time>2026-01-29T09:17:57Z</time></trkpt><trkpt lat="60.264128" lon="24.90906"><ele>41.9</ele><time>2026-01-29T09:17:58Z</time></trkpt><trkpt lat="60.264108" lon="24.908997"><ele>41.8</ele><time>2026-01-29T09:17:59Z</time></trkpt><trkpt lat="60.264093" lon="24.908935"><ele>41.8</ele><time>2026-01-29T09:18:00Z</time><extensions><gpxtpx:TrackPointExtension><gpxtpx:hr>155</gpxtpx:hr></gpxtpx:TrackPointExtension></extensions></trkpt><trkpt lat="60.264078" lon="24.908883"><ele>42.6</ele><time>2026-01-29T09:18:01Z</time></trkpt><trkpt lat="60.264087" lon="24.908847"><ele>42.1</ele><time>2026-01-29T09:18:02Z</time></trkpt><trkpt lat="60.264077" lon="24.908787"><ele>42.1</ele><time>2026-01-29T09:18:03Z</time></trkpt><trkpt lat="60.264075" lon="24.908725"><ele>41.7</ele><time>2026-01-29T09:18:04Z</time><extensions><gpxtpx:TrackPointExtension><gpxtpx:hr>155</gpxtpx:hr></gpxtpx:TrackPointExtension></extensions></trkpt><trkpt lat="60.264065" lon="24.908367"><ele>48.4</ele><time>2026-01-29T09:18:10Z</time></trkpt><trkpt lat="60.264068" lon="24.908313"><ele>48.8</ele><time>2026-01-29T09:18:11Z</time></trkpt><trkpt lat="60.26407" lon="24.908258"><ele>49.1</ele><time>2026-01-29T09:18:12Z</time></trkpt><trkpt lat="60.26407" lon="24.908202"><ele>49.2</ele><time>2026-01-29T09:18:13Z</time><extensions><gpxtpx:TrackPointExtension><gpxtpx:hr>158</gpxtpx:hr></gpxtpx:TrackPointExtension></extensions></trkpt><trkpt lat="60.264072" lon="24.908162"><ele>49.4</ele><time>2026-01-29T09:18:14Z</time><extensions><gpxtpx:TrackPointExtension><gpxtpx:hr>159</gpxtpx:hr></gpxtpx:TrackPointExtension></extensions></trkpt><trkpt lat="60.264073" lon="24.908122"><ele>49.2</ele><time>2026-01-29T09:18:15Z</time></trkpt><trkpt lat="60.264073" lon="24.908082"><ele>48.7</ele><time>2026-01-29T09:18:16Z</time></trkpt><trkpt lat="60.264042" lon="24.908135"><ele>48.7</ele><time>2026-01-29T09:18:17Z</time></trkpt><trkpt lat="60.264047" lon="24.908005"><ele>48.8</ele><time>2026-01-29T09:18:18Z</time></trkpt><trkpt lat="60.264002" lon="24.908025"><ele>48.4</ele><time>2026-01-29T09:18:19Z</time></trkpt><trkpt lat="60.263998" lon="24.907952"><ele>48.1</ele><time>2026-01-29T09:18:20Z</time></trkpt><trkpt lat="60.26395" lon="24.908008"><ele>48.0</ele><time>2026-01-29T09:18:21Z</time><extensions><gpxtpx:TrackPointExtension><gpxtpx:hr>160</gpxtpx:hr></gpxtpx:TrackPointExtension></extensions></trkpt><trkpt lat="60.263955" lon="24.907932"><ele>47.8</ele><time>2026-01-29T09:18:22Z</time></trkpt><trkpt lat="60.263902" lon="24.908005"><ele>45.9</ele><time>2026-01-29T09:18:23Z</time></trkpt><trkpt lat="60.263883" lon="24.907995"><ele>45.9</ele><time>2026-01-29T09:18:24Z</time></trkpt><trkpt lat="60.263855" lon="24.908038"><ele>45.2</ele><time>2026-01-29T09:18:25Z</time></trkpt><trkpt lat="60.26382" lon="24.908063"><ele>45.5</ele><time>2026-01-29T09:18:26Z</time></trkpt><trkpt lat="60.26379" lon="24.908068"><ele>45.7</ele><time>2026-01-29T09:18:27Z</time><extensions><gpxtpx:TrackPointExtension><gpxtpx:hr>160</gpxtpx:hr></gpxtpx:TrackPointExtension></extensions></trkpt><trkpt lat="60.263767" lon="24.90808"><ele>44.1</ele><time>2026-01-29T09:18:28Z</time></trkpt><trkpt lat="60.263735" lon="24.908105"><ele>43.6</ele><time>2026-01-29T09:18:29Z</time></trkpt><trkpt lat="60.263707" lon="24.908132"><ele>43.4</ele><time>2026-01-29T09:18:30Z</time></trkpt><trkpt lat="60.263672" lon="24.908155"><ele>43.1</ele><time>2026-01-29T09:18:31Z</time></trkpt><trkpt lat="60.263638" lon="24.908183"><ele>42.6</ele><time>2026-01-29T09:18:32Z</time></trkpt><trkpt lat="60.263598" lon="24.908197"><ele>42.0</ele><time>2026-01-29T09:18:33Z</time><extensions><gpxtpx:TrackPointExtension><gpxtpx:hr>163</gpxtpx:hr></gpxtpx:TrackPointExtension></extensions></trkpt><trkpt lat="60.263557" lon="24.908233"><ele>41.6</ele><time>2026-01-29T09:18:34Z</time><extensions><gpxtpx:TrackPointExtension><gpxtpx:hr>163</gpxtpx:hr></gpxtpx:TrackPointExtension></extensions></trkpt><trkpt lat="60.263503" lon="24.908295"><ele>40.2</ele><time>2026-01-29T09:18:35Z</time></trkpt><trkpt lat="60.263448" lon="24.908348"><ele>39.2</ele><time>2026-01-29T09:18:36Z</time></trkpt><trkpt lat="60.263372" lon="24.908387"><ele>37.1</ele><time>2026-01-29T09:18:37Z</time></trkpt><trkpt lat="60.263298" lon="24.908398"><ele>35.5</ele><time>2026-01-29T09:18:38Z</time></trkpt><trkpt lat="60.263232" lon="24.908402"><ele>34.9</ele><time>2026-01-29T09:18:39Z</time></trkpt><trkpt lat="60.263162" lon="24.908418"><ele>33.9</ele><time>2026-01-29T09:18:40Z</time></trkpt><trkpt lat="60.263087" lon="24.908425"><ele>32.1</ele><time>2026-01-29T09:18:41Z</time></trkpt><trkpt lat="60.26301" lon="24.908442"><ele>32.0</ele><time>2026-01-29T09:18:42Z</time><extensions><gpxtpx:TrackPointExtension><gpxtpx:hr>158</gpxtpx:hr></gpxtpx:TrackPointExtension></extensions></trkpt><trkpt lat="60.262935" lon="24.90844"><ele>31.0</ele><time>2026-01-29T09:18:43Z</time></trkpt><trkpt lat="60.262867" lon="24.908437"><ele>30.8</ele><time>2026-01-29T09:18:44Z</time></trkpt><trkpt lat="60.262795" lon="24.908443"><ele>30.9</ele><time>2026-01-29T09:18:45Z</time></trkpt><trkpt lat="60.262723" lon="24.908438"><ele>30.4</ele><time>2026-01-29T09:18:46Z</time></trkpt><trkpt lat="60.262653" lon="24.90842"><ele>30.3</ele><time>2026-01-29T09:18:47Z</time><extensions><gpxtpx:TrackPointExtension><gpxtpx:hr>155</gpxtpx:hr></gpxtpx:TrackPointExtension></extensions></trkpt><trkpt lat="60.262582" lon="24.908418"><ele>31.4</ele><time>2026-01-29T09:18:48Z</time></trkpt><trkpt lat="60.262518" lon="24.908425"><ele>32.2</ele><time>2026-01-29T09:18:49Z</time></trkpt><trkpt lat="60.26246" lon="24.908428"><ele>32.0</ele><time>2026-01-29T09:18:50Z</time></trkpt><trkpt lat="60.262405" lon="24.908432"><ele>32.6</ele><time>2026-01-29T09:18:51Z</time><extensions><gpxtpx:TrackPointExtension><gpxtpx:hr>152</gpxtpx:hr></gpxtpx:TrackPointExtension></extensions></trkpt><trkpt lat="60.262355" lon="24.90844"><ele>32.7</ele><time>2026-01-29T09:18:52Z</time></trkpt><trkpt lat="60.262307" lon="24.908467"><ele>33.3</ele><time>2026-01-29T09:18:53Z</time></trkpt><trkpt lat="60.262265" lon="24.908493"><ele>33.5</ele><time>2026-01-29T09:18:54Z</time><extensions><gpxtpx:TrackPointExtension><gpxtpx:hr>152</gpxtpx:hr></gpxtpx:TrackPointExtension></extensions></trkpt><trkpt lat="60.262215" lon="24.90852"><ele>33.7</ele><time>2026-01-29T09:18:55Z</time></trkpt><trkpt lat="60.26217" lon="24.908565"><ele>34.0</ele><time>2026-01-29T09:18:56Z</time></trkpt><trkpt lat="60.262137" lon="24.908588"><ele>34.5</ele><time>2026-01-29T09:18:57Z</time></trkpt><trkpt lat="60.262097" lon="24.908635"><ele>34.2</ele><time>2026-01-29T09:18:58Z</time></trkpt><trkpt lat="60.262057" lon="24.908692"><ele>33.9</ele><time>2026-01-29T09:18:59Z</time></trkpt><trkpt lat="60.262022" lon="24.908747"><ele>34.0</ele><time>2026-01-29T09:19:00Z</time></trkpt><trkpt lat="60.261992" lon="24.908795"><ele>33.8</ele><time>2026-01-29T09:19:01Z</time><extensions><gpxtpx:TrackPointExtension><gpxtpx:hr>151</gpxtpx:hr></gpxtpx:TrackPointExtension></extensions></trkpt><trkpt lat="60.261967" lon="24.908842"><ele>34.2</ele><time>2026-01-29T09:19:02Z</time></trkpt><trkpt lat="60.261938" lon="24.9089"><ele>34.3</ele><time>2026-01-29T09:19:03Z</time></trkpt><trkpt lat="60.26191" lon="24.90896"><ele>34.7</ele><time>2026-01-29T09:19:04Z</time><extensions><gpxtpx:TrackPointExtension><gpxtpx:hr>149</gpxtpx:hr></gpxtpx:TrackPointExtension></extensions></trkpt><trkpt lat="60.261873" lon="24.90902"><ele>34.7</ele><time>2026-01-29T09:19:05Z</time></trkpt><trkpt lat="60.26182" lon="24.909038"><ele>34.2</ele><time>2026-01-29T09:19:06Z</time></trkpt><trkpt lat="60.261837" lon="24.90912"><ele>33.1</ele><time>2026-01-29T09:19:07Z</time></trkpt><trkpt lat="60.261808" lon="24.90921"><ele>33.5</ele><time>2026-01-29T09:19:08Z</time></trkpt><trkpt lat="60.261778" lon="24.909293"><ele>33.5</ele><time>2026-01-29T09:19:09Z</time></trkpt><trkpt lat="60.261747" lon="24.90936"><ele>33.4</ele><time>2026-01-29T09:19:10Z</time></trkpt><trkpt lat="60.261713" lon="24.909432"><ele>33.2</ele><time>2026-01-29T09:19:11Z</time></trkpt><trkpt lat="60.26168" lon="24.909502"><ele>32.7</ele><time>2026-01-29T09:19:12Z</time></trkpt><trkpt lat="60.261655" lon="24.909578"><ele>32.6</ele><time>2026-01-29T09:19:13Z</time><extensions><gpxtpx:TrackPointExtension><gpxtpx:hr>147</gpxtpx:hr></gpxtpx:TrackPointExtension></extensions></trkpt><trkpt lat="60.261627" lon="24.909652"><ele>32.0</ele><time>2026-01-29T09:19:14Z</time></trkpt><trkpt lat="60.2616" lon="24.909718"><ele>31.4</ele><time>2026-01-29T09:19:15Z</time></trkpt><trkpt lat="60.261558" lon="24.909797"><ele>31.6</ele><time>2026-01-29T09:19:16Z</time></trkpt><trkpt lat="60.261525" lon="24.909865"><ele>32.0</ele><time>2026-01-29T09:19:17Z</time></trkpt><trkpt lat="60.261483" lon="24.909897"><ele>32.9</ele><time>2026-01-29T09:19:18Z</time><extensions><gpxtpx:TrackPointExtension><gpxtpx:hr>145</gpxtpx:hr></gpxtpx:TrackPointExtension></extensions></trkpt><trkpt lat="60.261458" lon="24.909962"><ele>33.1</ele><time>2026-01-29T09:19:19Z</time><extensions><gpxtpx:TrackPointExtension><gpxtpx:hr>144</gpxtpx:hr></gpxtpx:TrackPointExtension></extensions></trkpt><trkpt lat="60.261427" lon="24.910057"><ele>30.3</ele><time>2026-01-29T09:19:20Z</time></trkpt><trkpt lat="60.261423" lon="24.910152"><ele>29.8</ele><time>2026-01-29T09:19:21Z</time></trkpt><trkpt lat="60.261403" lon="24.91024"><ele>29.8</ele><time>2026-01-29T09:19:22Z</time></trkpt><trkpt lat="60.261382" lon="24.910318"><ele>29.5</ele><time>2026-01-29T09:19:23Z</time></trkpt><trkpt lat="60.261362" lon="24.910405"><ele>29.5</ele><time>2026-01-29T09:19:24Z</time></trkpt><trkpt lat="60.261347" lon="24.910485"><ele>28.6</ele><time>2026-01-29T09:19:25Z</time></trkpt><trkpt lat="60.261333" lon="24.910582"><ele>28.6</ele><time>2026-01-29T09:19:26Z</time></trkpt><trkpt lat="60.261315" lon="24.910685"><ele>28.6</ele><time>2026-01-29T09:19:27Z</time></trkpt><trkpt lat="60.261288" lon="24.910807"><ele>28.0</ele><time>2026-01-29T09:19:28Z</time><extensions><gpxtpx:TrackPointExtension><gpxtpx:hr>137</gpxtpx:hr></gpxtpx:TrackPointExtension></extensions></trkpt><trkpt lat="60.261263" lon="24.910927"><ele>27.9</ele><time>2026-01-29T09:19:29Z</time></trkpt><trkpt lat="60.261243" lon="24.911032"><ele>27.8</ele><time>2026-01-29T09:19:30Z</time></trkpt><trkpt lat="60.261227" lon="24.911138"><ele>27.1</ele><time>2026-01-29T09:19:31Z</time></trkpt><trkpt lat="60.261205" lon="24.911245"><ele>27.1</ele><time>2026-01-29T09:19:32Z</time></trkpt><trkpt lat="60.26118" lon="24.91134"><ele>26.8</ele><time>2026-01-29T09:19:33Z</time><extensions><gpxtpx:TrackPointExtension><gpxtpx:hr>136</gpxtpx:hr></gpxtpx:TrackPointExtension></extensions></trkpt><trkpt lat="60.261155" lon="24.911427"><ele>26.5</ele><time>2026-01-29T09:19:34Z</time></trkpt><trkpt lat="60.26113" lon="24.911528"><ele>26.1</ele><time>2026-01-29T09:19:35Z</time></trkpt><trkpt lat="60.261107" lon="24.911623"><ele>26.0</ele><time>2026-01-29T09:19:36Z</time><extensions><gpxtpx:TrackPointExtension><gpxtpx:hr>135</gpxtpx:hr></gpxtpx:TrackPointExtension></extensions></trkpt><trkpt lat="60.261087" lon="24.911708"><ele>26.9</ele><time>2026-01-29T09:19:37Z</time></trkpt><trkpt lat="60.26106" lon="24.911785"><ele>26.7</ele><time>2026-01-29T09:19:38Z</time></trkpt><trkpt lat="60.261033" lon="24.911865"><ele>27.8</ele><time>2026-01-29T09:19:39Z</time></trkpt><trkpt lat="60.261007" lon="24.911938"><ele>28.2</ele><time>2026-01-29T09:19:40Z</time></trkpt><trkpt lat="60.260982" lon="24.911997"><ele>28.6</ele><time>2026-01-29T09:19:41Z</time><extensions><gpxtpx:TrackPointExtension><gpxtpx:hr>132</gpxtpx:hr></gpxtpx:TrackPointExtension></extensions></trkpt><trkpt lat="60.260948" lon="24.91206"><ele>28.6</ele><time>2026-01-29T09:19:42Z</time></trkpt><trkpt lat="60.260925" lon="24.912095"><ele>28.7</ele><time>2026-01-29T09:19:43Z</time></trkpt><trkpt lat="60.260883" lon="24.912142"><ele>28.9</ele><time>2026-01-29T09:19:44Z</time><extensions><gpxtpx:TrackPointExtension><gpxtpx:hr>131</gpxtpx:hr></gpxtpx:TrackPointExtension></extensions></trkpt><trkpt lat="60.260822" lon="24.912268"><ele>28.0</ele><time>2026-01-29T09:19:44Z</time></trkpt><trkpt lat="60.260787" lon="24.912312"><ele>29.5</ele><time>2026-01-29T09:19:45Z</time></trkpt><trkpt lat="60.260742" lon="24.912365"><ele>29.6</ele><time>2026-01-29T09:19:46Z</time></trkpt><trkpt lat="60.260712" lon="24.912402"><ele>28.3</ele><time>2026-01-29T09:19:47Z</time></trkpt><trkpt lat="60.260672" lon="24.91244"><ele>28.1</ele><time>2026-01-29T09:19:48Z</time></trkpt><trkpt lat="60.260638" lon="24.91247"><ele>28.4</ele><time>2026-01-29T09:19:49Z</time></trkpt><trkpt lat="60.260602" lon="24.912535"><ele>28.4</ele><time>2026-01-29T09:19:50Z</time></trkpt><trkpt lat="60.260565" lon="24.912535"><ele>27.8</ele><time>2026-01-29T09:19:51Z</time></trkpt><trkpt lat="60.260512" lon="24.912573"><ele>28.4</ele><time>2026-01-29T09:19:52Z</time><extensions><gpxtpx:TrackPointExtension><gpxtpx:hr>130</gpxtpx:hr></gpxtpx:TrackPointExtension></extensions></trkpt><trkpt lat="60.260478" lon="24.912628"><ele>28.1</ele><time>2026-01-29T09:19:53Z</time></trkpt><trkpt lat="60.260445" lon="24.91261"><ele>28.1</ele><time>2026-01-29T09:19:54Z</time><extensions><gpxtpx:TrackPointExtension><gpxtpx:hr>130</gpxtpx:hr></gpxtpx:TrackPointExtension></extensions></trkpt><trkpt lat="60.26043" lon="24.912635"><ele>27.4</ele><time>2026-01-29T09:19:55Z</time></trkpt><trkpt lat="60.260398" lon="24.91262"><ele>27.4</ele><time>2026-01-29T09:19:56Z</time></trkpt><trkpt lat="60.26034" lon="24.912612"><ele>26.9</ele><time>2026-01-29T09:19:57Z</time></trkpt><trkpt lat="60.260302" lon="24.91263"><ele>27.4</ele><time>2026-01-29T09:19:58Z</time></trkpt><trkpt lat="60.260263" lon="24.912643"><ele>27.1</ele><time>2026-01-29T09:19:59Z</time><extensions><gpxtpx:TrackPointExtension><gpxtpx:hr>132</gpxtpx:hr></gpxtpx:TrackPointExtension></extensions></trkpt><trkpt lat="60.260218" lon="24.912662"><ele>26.9</ele><time>2026-01-29T09:20:00Z</time></trkpt><trkpt lat="60.260177" lon="24.912658"><ele>27.1</ele><time>2026-01-29T09:20:01Z</time></trkpt><trkpt lat="60.26014" lon="24.912637"><ele>27.0</ele><time>2026-01-29T09:20:02Z</time></trkpt><trkpt lat="60.260095" lon="24.912638"><ele>26.7</ele><time>2026-01-29T09:20:03Z</time></trkpt><trkpt lat="60.260045" lon="24.912633"><ele>27.3</ele><time>2026-01-29T09:20:04Z</time><extensions><gpxtpx:TrackPointExtension><gpxtpx:hr>132</gpxtpx:hr></gpxtpx:TrackPointExtension></extensions></trkpt><trkpt lat="60.25988" lon="24.912607"><ele>27.2</ele><time>2026-01-29T09:20:08Z</time></trkpt><trkpt lat="60.259838" lon="24.912592"><ele>25.7</ele><time>2026-01-29T09:20:09Z</time><extensions><gpxtpx:TrackPointExtension><gpxtpx:hr>134</gpxtpx:hr></gpxtpx:TrackPointExtension></extensions></trkpt><trkpt lat="60.2598" lon="24.912572"><ele>24.6</ele><time>2026-01-29T09:20:10Z</time></trkpt><trkpt lat="60.259757" lon="24.912553"><ele>24.0</ele><time>2026-01-29T09:20:11Z</time></trkpt><trkpt lat="60.259712" lon="24.912542"><ele>22.8</ele><time>2026-01-29T09:20:12Z</time></trkpt><trkpt lat="60.25967" lon="24.912535"><ele>22.6</ele><time>2026-01-29T09:20:13Z</time></trkpt><trkpt lat="60.25962" lon="24.91254"><ele>23.3</ele><time>2026-01-29T09:20:14Z</time></trkpt><trkpt lat="60.259573" lon="24.912547"><ele>23.7</ele><time>2026-01-29T09:20:15Z</time><extensions><gpxtpx:TrackPointExtension><gpxtpx:hr>139</gpxtpx:hr></gpxtpx:TrackPointExtension></extensions></trkpt><trkpt lat="60.25953" lon="24.912558"><ele>24.2</ele><time>2026-01-29T09:20:16Z</time></trkpt><trkpt lat="60.259485" lon="24.912575"><ele>24.2</ele><time>2026-01-29T09:20:17Z</time></trkpt><trkpt lat="60.259442" lon="24.912592"><ele>24.9</ele><time>2026-01-29T09:20:18Z</time></trkpt><trkpt lat="60.2594" lon="24.912608"><ele>24.6</ele><time>2026-01-29T09:20:19Z</time><extensions><gpxtpx:TrackPointExtension><gpxtpx:hr>139</gpxtpx:hr></gpxtpx:TrackPointExtension></extensions></trkpt><trkpt lat="60.259358" lon="24.912623"><ele>24.4</ele><time>2026-01-29T09:20:20Z</time></trkpt><trkpt lat="60.25932" lon="24.912633"><ele>24.8</ele><time>2026-01-29T09:20:21Z</time></trkpt><trkpt lat="60.259285" lon="24.912652"><ele>24.8</ele><time>2026-01-29T09:20:22Z</time></trkpt><trkpt lat="60.259248" lon="24.912677"><ele>25.0</ele><time>2026-01-29T09:20:23Z</time></trkpt><trkpt lat="60.25921" lon="24.9127"><ele>25.4</ele><time>2026-01-29T09:20:24Z</time></trkpt><trkpt lat="60.25917" lon="24.912715"><ele>25.5</ele><time>2026-01-29T09:20:25Z</time></trkpt><trkpt lat="60.259127" lon="24.912737"><ele>25.7</ele><time>2026-01-29T09:20:26Z</time></trkpt><trkpt lat="60.259082" lon="24.91276"><ele>26.4</ele><time>2026-01-29T09:20:27Z</time></trkpt><trkpt lat="60.259042" lon="24.912782"><ele>27.8</ele><time>2026-01-29T09:20:28Z</time><extensions><gpxtpx:TrackPointExtension><gpxtpx:hr>137</gpxtpx:hr></gpxtpx:TrackPointExtension></extensions></trkpt><trkpt lat="60.259013" lon="24.912803"><ele>28.8</ele><time>2026-01-29T09:20:29Z</time></trkpt><trkpt lat="60.258987" lon="24.912817"><ele>28.3</ele><time>2026-01-29T09:20:30Z</time></trkpt><trkpt lat="60.258953" lon="24.912838"><ele>27.6</ele><time>2026-01-29T09:20:31Z</time></trkpt><trkpt lat="60.258923" lon="24.912853"><ele>26.8</ele><time>2026-01-29T09:20:32Z</time></trkpt><trkpt lat="60.258895" lon="24.912865"><ele>27.1</ele><time>2026-01-29T09:20:33Z</time><extensions><gpxtpx:TrackPointExtension><gpxtpx:hr>143</gpxtpx:hr></gpxtpx:TrackPointExtension></extensions></trkpt><trkpt lat="60.258867" lon="24.912873"><ele>26.9</ele><time>2026-01-29T09:20:34Z</time></trkpt><trkpt lat="60.258847" lon="24.912882"><ele>26.9</ele><time>2026-01-29T09:20:35Z</time><extensions><gpxtpx:TrackPointExtension><gpxtpx:hr>144</gpxtpx:hr></gpxtpx:TrackPointExtension></extensions></trkpt><trkpt lat="60.25882" lon="24.91288"><ele>26.0</ele><time>2026-01-29T09:20:36Z</time></trkpt><trkpt lat="60.258797" lon="24.912882"><ele>23.8</ele><time>2026-01-29T09:20:37Z</time></trkpt><trkpt lat="60.258777" lon="24.912893"><ele>22.5</ele><time>2026-01-29T09:20:38Z</time></trkpt><trkpt lat="60.258758" lon="24.912913"><ele>21.5</ele><time>2026-01-29T09:20:39Z</time><extensions><gpxtpx:TrackPointExtension><gpxtpx:hr>144</gpxtpx:hr></gpxtpx:TrackPointExtension></extensions></trkpt><trkpt lat="60.258737" lon="24.91293"><ele>22.5</ele><time>2026-01-29T09:20:40Z</time></trkpt><trkpt lat="60.258688" lon="24.913017"><ele>30.0</ele><time>2026-01-29T09:20:41Z</time></trkpt><trkpt lat="60.258935" lon="24.91313"><ele>30.0</ele><time>2026-01-29T09:20:44Z</time><extensions><gpxtpx:TrackPointExtension><gpxtpx:hr>144</gpxtpx:hr></gpxtpx:TrackPointExtension></extensions></trkpt><trkpt lat="60.258518" lon="24.913115"><ele>32.9</ele><time>2026-01-29T09:20:49Z</time><extensions><gpxtpx:TrackPointExtension><gpxtpx:hr>146</gpxtpx:hr></gpxtpx:TrackPointExtension></extensions></trkpt><trkpt lat="60.258255" lon="24.913317"><ele>50.8</ele><time>2026-01-29T09:21:00Z</time><extensions><gpxtpx:TrackPointExtension><gpxtpx:hr>153</gpxtpx:hr></gpxtpx:TrackPointExtension></extensions></trkpt><trkpt lat="60.258203" lon="24.913238"><ele>47.5</ele><time>2026-01-29T09:21:04Z</time><extensions><gpxtpx:TrackPointExtension><gpxtpx:hr>156</gpxtpx:hr></gpxtpx:TrackPointExtension></extensions></trkpt><trkpt lat="60.258182" lon="24.913252"><ele>47.4</ele><time>2026-01-29T09:21:05Z</time></trkpt><trkpt lat="60.258167" lon="24.913263"><ele>47.6</ele><time>2026-01-29T09:21:07Z</time></trkpt><trkpt lat="60.258052" lon="24.913295"><ele>47.7</ele><time>2026-01-29T09:21:11Z</time><extensions><gpxtpx:TrackPointExtension><gpxtpx:hr>160</gpxtpx:hr></gpxtpx:TrackPointExtension></extensions></trkpt><trkpt lat="60.258052" lon="24.913295"><ele>47.7</ele><time>2026-01-29T09:21:10Z</time><extensions><gpxtpx:TrackPointExtension><gpxtpx:hr>160</gpxtpx:hr></gpxtpx:TrackPointExtension></extensions></trkpt><trkpt lat="60.257995" lon="24.913488"><ele>37.9</ele><time>2026-01-29T09:21:12Z</time></trkpt><trkpt lat="60.257983" lon="24.913503"><ele>37.2</ele><time>2026-01-29T09:21:13Z</time></trkpt><trkpt lat="60.257963" lon="24.91353"><ele>37.8</ele><time>2026-01-29T09:21:14Z</time></trkpt><trkpt lat="60.257953" lon="24.913555"><ele>37.1</ele><time>2026-01-29T09:21:15Z</time></trkpt><trkpt lat="60.257943" lon="24.913555"><ele>34.8</ele><time>2026-01-29T09:21:16Z</time></trkpt><trkpt lat="60.257932" lon="24.91359"><ele>34.6</ele><time>2026-01-29T09:21:17Z</time></trkpt><trkpt lat="60.257908" lon="24.913617"><ele>35.6</ele><time>2026-01-29T09:21:19Z</time><extensions><gpxtpx:TrackPointExtension><gpxtpx:hr>164</gpxtpx:hr></gpxtpx:TrackPointExtension></extensions></trkpt><trkpt lat="60.257908" lon="24.913617"><ele>35.6</ele><time>2026-01-29T09:21:19Z</time><extensions><gpxtpx:TrackPointExtension><gpxtpx:hr>164</gpxtpx:hr></gpxtpx:TrackPointExtension></extensions></trkpt><trkpt lat="60.25789" lon="24.913642"><ele>35.3</ele><time>2026-01-29T09:21:20Z</time></trkpt><trkpt lat="60.257868" lon="24.91368"><ele>36.5</ele><time>2026-01-29T09:21:21Z</time></trkpt><trkpt lat="60.257857" lon="24.913727"><ele>36.7</ele><time>2026-01-29T09:21:22Z</time></trkpt><trkpt lat="60.257877" lon="24.91359"><ele>44.0</ele><time>2026-01-29T09:21:26Z</time></trkpt><trkpt lat="60.257785" lon="24.913793"><ele>38.6</ele><time>2026-01-29T09:21:27Z</time></trkpt><trkpt lat="60.257808" lon="24.913923"><ele>42.0</ele><time>2026-01-29T09:21:28Z</time><extensions><gpxtpx:TrackPointExtension><gpxtpx:hr>166</gpxtpx:hr></gpxtpx:TrackPointExtension></extensions></trkpt><trkpt lat="60.257775" lon="24.913945"><ele>39.9</ele><time>2026-01-29T09:21:29Z</time><extensions><gpxtpx:TrackPointExtension><gpxtpx:hr>166</gpxtpx:hr></gpxtpx:TrackPointExtension></extensions></trkpt><trkpt lat="60.257755" lon="24.913997"><ele>39.7</ele><time>2026-01-29T09:21:30Z</time></trkpt><trkpt lat="60.257737" lon="24.91406"><ele>40.1</ele><time>2026-01-29T09:21:31Z</time></trkpt><trkpt lat="60.257728" lon="24.914108"><ele>39.7</ele><time>2026-01-29T09:21:32Z</time></trkpt><trkpt lat="60.25771" lon="24.914168"><ele>38.6</ele><time>2026-01-29T09:21:33Z</time></trkpt><trkpt lat="60.25769" lon="24.91423"><ele>37.9</ele><time>2026-01-29T09:21:34Z</time></trkpt><trkpt lat="60.257667" lon="24.91428"><ele>37.2</ele><time>2026-01-29T09:21:35Z</time></trkpt><trkpt lat="60.257643" lon="24.914327"><ele>36.3</ele><time>2026-01-29T09:21:36Z</time></trkpt><trkpt lat="60.257622" lon="24.91439"><ele>35.5</ele><time>2026-01-29T09:21:37Z</time></trkpt><trkpt lat="60.257593" lon="24.91445"><ele>35.4</ele><time>2026-01-29T09:21:38Z</time><extensions><gpxtpx:TrackPointExtension><gpxtpx:hr>166</gpxtpx:hr></gpxtpx:TrackPointExtension></extensions></trkpt><trkpt lat="60.256858" lon="24.918095"><ele>28.4</ele><time>2026-01-29T09:22:06Z</time><extensions><gpxtpx:TrackPointExtension><gpxtpx:hr>163</gpxtpx:hr></gpxtpx:TrackPointExtension></extensions></trkpt><trkpt lat="60.256858" lon="24.918095"><ele>28.4</ele><time>2026-01-29T09:21:48Z</time><extensions><gpxtpx:TrackPointExtension><gpxtpx:hr>157</gpxtpx:hr></gpxtpx:TrackPointExtension></extensions></trkpt><trkpt lat="60.256858" lon="24.918095"><ele>28.4</ele><time>2026-01-29T09:21:53Z</time><extensions><gpxtpx:TrackPointExtension><gpxtpx:hr>155</gpxtpx:hr></gpxtpx:TrackPointExtension></extensions></trkpt><trkpt lat="60.256858" lon="24.918095"><ele>28.4</ele><time>2026-01-29T09:21:56Z</time><extensions><gpxtpx:TrackPointExtension><gpxtpx:hr>154</gpxtpx:hr></gpxtpx:TrackPointExtension></extensions></trkpt><trkpt lat="60.256858" lon="24.918095"><ele>28.4</ele><time>2026-01-29T09:22:00Z</time><extensions><gpxtpx:TrackPointExtension><gpxtpx:hr>154</gpxtpx:hr></gpxtpx:TrackPointExtension></extensions></trkpt><trkpt lat="60.256858" lon="24.918095"><ele>28.4</ele><time>2026-01-29T09:22:04Z</time><extensions><gpxtpx:TrackPointExtension><gpxtpx:hr>153</gpxtpx:hr></gpxtpx:TrackPointExtension></extensions></trkpt><trkpt lat="60.256857" lon="24.918172"><ele>20.9</ele><time>2026-01-29T09:22:07Z</time></trkpt><trkpt lat="60.256853" lon="24.918282"><ele>28.7</ele><time>2026-01-29T09:22:08Z</time></trkpt><trkpt lat="60.25685" lon="24.918348"><ele>27.7</ele><time>2026-01-29T09:22:09Z</time><extensions><gpxtpx:TrackPointExtension><gpxtpx:hr>150</gpxtpx:hr></gpxtpx:TrackPointExtension></extensions></trkpt><trkpt lat="60.256842" lon="24.918423"><ele>27.5</ele><time>2026-01-29T09:22:10Z</time></trkpt><trkpt lat="60.256835" lon="24.918512"><ele>27.2</ele><time>2026-01-29T09:22:11Z</time></trkpt><trkpt lat="60.256828" lon="24.918592"><ele>27.3</ele><time>2026-01-29T09:22:12Z</time></trkpt><trkpt lat="60.256807" lon="24.918678"><ele>19.9</ele><time>2026-01-29T09:22:13Z</time></trkpt><trkpt lat="60.256812" lon="24.918742"><ele>21.5</ele><time>2026-01-29T09:22:14Z</time></trkpt><trkpt lat="60.256793" lon="24.918818"><ele>20.7</ele><time>2026-01-29T09:22:15Z</time></trkpt><trkpt lat="60.256783" lon="24.918912"><ele>20.4</ele><time>2026-01-29T09:22:16Z</time></trkpt><trkpt lat="60.256763" lon="24.918978"><ele>20.2</ele><time>2026-01-29T09:22:17Z</time></trkpt><trkpt lat="60.256735" lon="24.919045"><ele>21.0</ele><time>2026-01-29T09:22:18Z</time><extensions><gpxtpx:TrackPointExtension><gpxtpx:hr>146</gpxtpx:hr></gpxtpx:TrackPointExtension></extensions></trkpt><trkpt lat="60.256722" lon="24.919112"><ele>21.9</ele><time>2026-01-29T09:22:19Z</time><extensions><gpxtpx:TrackPointExtension><gpxtpx:hr>145</gpxtpx:hr></gpxtpx:TrackPointExtension></extensions></trkpt><trkpt lat="60.256703" lon="24.919163"><ele>22.1</ele><time>2026-01-29T09:22:20Z</time></trkpt><trkpt lat="60.256678" lon="24.919218"><ele>21.1</ele><time>2026-01-29T09:22:21Z</time></trkpt><trkpt lat="60.256653" lon="24.919288"><ele>20.5</ele><time>2026-01-29T09:22:22Z</time></trkpt><trkpt lat="60.256625" lon="24.91936"><ele>21.0</ele><time>2026-01-29T09:22:23Z</time></trkpt><trkpt lat="60.256607" lon="24.919413"><ele>21.2</ele><time>2026-01-29T09:22:24Z</time></trkpt><trkpt lat="60.25658" lon="24.919468"><ele>21.2</ele><time>2026-01-29T09:22:25Z</time></trkpt><trkpt lat="60.256553" lon="24.91953"><ele>21.3</ele><time>2026-01-29T09:22:26Z</time></trkpt><trkpt lat="60.256528" lon="24.91959"><ele>22.5</ele><time>2026-01-29T09:22:27Z</time><extensions><gpxtpx:TrackPointExtension><gpxtpx:hr>139</gpxtpx:hr></gpxtpx:TrackPointExtension></extensions></trkpt><trkpt lat="60.256505" lon="24.919653"><ele>21.9</ele><time>2026-01-29T09:22:28Z</time></trkpt><trkpt lat="60.256468" lon="24.919733"><ele>22.4</ele><time>2026-01-29T09:22:29Z</time></trkpt><trkpt lat="60.256443" lon="24.919782"><ele>23.2</ele><time>2026-01-29T09:22:30Z</time><extensions><gpxtpx:TrackPointExtension><gpxtpx:hr>137</gpxtpx:hr></gpxtpx:TrackPointExtension></extensions></trkpt><trkpt lat="60.256415" lon="24.919847"><ele>23.4</ele><time>2026-01-29T09:22:31Z</time></trkpt><trkpt lat="60.256385" lon="24.919888"><ele>22.0</ele><time>2026-01-29T09:22:32Z</time></trkpt><trkpt lat="60.256347" lon="24.919938"><ele>22.5</ele><time>2026-01-29T09:22:33Z</time></trkpt><trkpt lat="60.25631" lon="24.920007"><ele>23.0</ele><time>2026-01-29T09:22:34Z</time></trkpt><trkpt lat="60.256268" lon="24.920027"><ele>22.2</ele><time>2026-01-29T09:22:35Z</time><extensions><gpxtpx:TrackPointExtension><gpxtpx:hr>135</gpxtpx:hr></gpxtpx:TrackPointExtension></extensions></trkpt><trkpt lat="60.256232" lon="24.920057"><ele>22.7</ele><time>2026-01-29T09:22:36Z</time></trkpt><trkpt lat="60.25619" lon="24.920078"><ele>21.5</ele><time>2026-01-29T09:22:37Z</time></trkpt><trkpt lat="60.256155" lon="24.920095"><ele>21.1</ele><time>2026-01-29T09:22:38Z</time></trkpt><trkpt lat="60.256108" lon="24.920083"><ele>21.5</ele><time>2026-01-29T09:22:39Z</time><extensions><gpxtpx:TrackPointExtension><gpxtpx:hr>135</gpxtpx:hr></gpxtpx:TrackPointExtension></extensions></trkpt><trkpt lat="60.256055" lon="24.920043"><ele>23.1</ele><time>2026-01-29T09:22:40Z</time></trkpt><trkpt lat="60.256018" lon="24.920067"><ele>21.2</ele><time>2026-01-29T09:22:41Z</time></trkpt><trkpt lat="60.255988" lon="24.919995"><ele>27.5</ele><time>2026-01-29T09:22:42Z</time></trkpt><trkpt lat="60.255953" lon="24.91993"><ele>27.6</ele><time>2026-01-29T09:22:43Z</time></trkpt><trkpt lat="60.255923" lon="24.919865"><ele>27.5</ele><time>2026-01-29T09:22:44Z</time><extensions><gpxtpx:TrackPointExtension><gpxtpx:hr>136</gpxtpx:hr></gpxtpx:TrackPointExtension></extensions></trkpt><trkpt lat="60.2559" lon="24.919803"><ele>27.7</ele><time>2026-01-29T09:22:45Z</time></trkpt><trkpt lat="60.255878" lon="24.919725"><ele>28.0</ele><time>2026-01-29T09:22:46Z</time></trkpt><trkpt lat="60.255858" lon="24.919652"><ele>27.8</ele><time>2026-01-29T09:22:47Z</time></trkpt><trkpt lat="60.25584" lon="24.919567"><ele>27.9</ele><time>2026-01-29T09:22:48Z</time></trkpt><trkpt lat="60.255823" lon="24.919492"><ele>28.2</ele><time>2026-01-29T09:22:49Z</time><extensions><gpxtpx:TrackPointExtension><gpxtpx:hr>135</gpxtpx:hr></gpxtpx:TrackPointExtension></extensions></trkpt><trkpt lat="60.25581" lon="24.919425"><ele>28.0</ele><time>2026-01-29T09:22:50Z</time></trkpt><trkpt lat="60.25581" lon="24.91937"><ele>21.1</ele><time>2026-01-29T09:22:51Z</time></trkpt><trkpt lat="60.255783" lon="24.919262"><ele>22.2</ele><time>2026-01-29T09:22:52Z</time></trkpt><trkpt lat="60.255773" lon="24.919193"><ele>22.8</ele><time>2026-01-29T09:22:53Z</time></trkpt><trkpt lat="60.255752" lon="24.9191"><ele>22.3</ele><time>2026-01-29T09:22:54Z</time></trkpt><trkpt lat="60.255733" lon="24.919012"><ele>22.3</ele><time>2026-01-29T09:22:55Z</time></trkpt><trkpt lat="60.255732" lon="24.918973"><ele>22.8</ele><time>2026-01-29T09:22:56Z</time></trkpt><trkpt lat="60.25573" lon="24.918915"><ele>22.0</ele><time>2026-01-29T09:22:57Z</time></trkpt><trkpt lat="60.255707" lon="24.91887"><ele>21.0</ele><time>2026-01-29T09:22:58Z</time><extensions><gpxtpx:TrackPointExtension><gpxtpx:hr>137</gpxtpx:hr></gpxtpx:TrackPointExtension></extensions></trkpt><trkpt lat="60.255675" lon="24.918807"><ele>21.7</ele><time>2026-01-29T09:22:59Z</time><extensions><gpxtpx:TrackPointExtension><gpxtpx:hr>139</gpxtpx:hr></gpxtpx:TrackPointExtension></extensions></trkpt><trkpt lat="60.255663" lon="24.918737"><ele>21.4</ele><time>2026-01-29T09:23:00Z</time></trkpt><trkpt lat="60.255663" lon="24.918633"><ele>20.5</ele><time>2026-01-29T09:23:01Z</time></trkpt><trkpt lat="60.255633" lon="24.918597"><ele>20.5</ele><time>2026-01-29T09:23:02Z</time></trkpt><trkpt lat="60.25562" lon="24.918537"><ele>21.5</ele><time>2026-01-29T09:23:03Z</time></trkpt><trkpt lat="60.255603" lon="24.918495"><ele>21.5</ele><time>2026-01-29T09:23:04Z</time></trkpt><trkpt lat="60.255593" lon="24.918423"><ele>22.6</ele><time>2026-01-29T09:23:05Z</time></trkpt><trkpt lat="60.255575" lon="24.918377"><ele>22.9</ele><time>2026-01-29T09:23:06Z</time></trkpt><trkpt lat="60.25556" lon="24.91832"><ele>22.5</ele><time>2026-01-29T09:23:07Z</time></trkpt><trkpt lat="60.255537" lon="24.91834"><ele>21.9</ele><time>2026-01-29T09:23:08Z</time><extensions><gpxtpx:TrackPointExtension><gpxtpx:hr>132</gpxtpx:hr></gpxtpx:TrackPointExtension></extensions></trkpt><trkpt lat="60.255513" lon="24.91839"><ele>21.7</ele><time>2026-01-29T09:23:09Z</time></trkpt><trkpt lat="60.255495" lon="24.918443"><ele>20.9</ele><time>2026-01-29T09:23:10Z</time></trkpt><trkpt lat="60.25549" lon="24.918518"><ele>21.0</ele><time>2026-01-29T09:23:11Z</time></trkpt><trkpt lat="60.255487" lon="24.918577"><ele>20.8</ele><time>2026-01-29T09:23:12Z</time></trkpt><trkpt lat="60.255483" lon="24.91866"><ele>21.1</ele><time>2026-01-29T09:23:13Z</time><extensions><gpxtpx:TrackPointExtension><gpxtpx:hr>143</gpxtpx:hr></gpxtpx:TrackPointExtension></extensions></trkpt><trkpt lat="60.255487" lon="24.918723"><ele>21.3</ele><time>2026-01-29T09:23:14Z</time></trkpt><trkpt lat="60.255497" lon="24.918808"><ele>21.4</ele><time>2026-01-29T09:23:15Z</time></trkpt><trkpt lat="60.255512" lon="24.918872"><ele>21.5</ele><time>2026-01-29T09:23:16Z</time></trkpt><trkpt lat="60.255517" lon="24.918947"><ele>21.5</ele><time>2026-01-29T09:23:17Z</time></trkpt><trkpt lat="60.255525" lon="24.91902"><ele>21.3</ele><time>2026-01-29T09:23:18Z</time><extensions><gpxtpx:TrackPointExtension><gpxtpx:hr>142</gpxtpx:hr></gpxtpx:TrackPointExtension></extensions></trkpt><trkpt lat="60.25553" lon="24.91909"><ele>21.7</ele><time>2026-01-29T09:23:19Z</time></trkpt><trkpt lat="60.255543" lon="24.919158"><ele>22.0</ele><time>2026-01-29T09:23:20Z</time></trkpt><trkpt lat="60.255547" lon="24.919225"><ele>22.0</ele><time>2026-01-29T09:23:21Z</time><extensions><gpxtpx:TrackPointExtension><gpxtpx:hr>142</gpxtpx:hr></gpxtpx:TrackPointExtension></extensions></trkpt><trkpt lat="60.255555" lon="24.919305"><ele>21.4</ele><time>2026-01-29T09:23:22Z</time></trkpt><trkpt lat="60.255567" lon="24.919362"><ele>20.9</ele><time>2026-01-29T09:23:23Z</time></trkpt><trkpt lat="60.255575" lon="24.919455"><ele>21.6</ele><time>2026-01-29T09:23:24Z</time></trkpt><trkpt lat="60.255575" lon="24.91954"><ele>20.4</ele><time>2026-01-29T09:23:25Z</time></trkpt><trkpt lat="60.255588" lon="24.91961"><ele>20.4</ele><time>2026-01-29T09:23:26Z</time></trkpt><trkpt lat="60.255597" lon="24.919682"><ele>20.1</ele><time>2026-01-29T09:23:27Z</time></trkpt><trkpt lat="60.255602" lon="24.919767"><ele>19.9</ele><time>2026-01-29T09:23:28Z</time><extensions><gpxtpx:TrackPointExtension><gpxtpx:hr>144</gpxtpx:hr></gpxtpx:TrackPointExtension></extensions></trkpt><trkpt lat="60.255608" lon="24.919838"><ele>20.0</ele><time>2026-01-29T09:23:29Z</time><extensions><gpxtpx:TrackPointExtension><gpxtpx:hr>144</gpxtpx:hr></gpxtpx:TrackPointExtension></extensions></trkpt><trkpt lat="60.255605" lon="24.91993"><ele>19.7</ele><time>2026-01-29T09:23:30Z</time></trkpt><trkpt lat="60.255618" lon="24.91999"><ele>19.0</ele><time>2026-01-29T09:23:31Z</time></trkpt><trkpt lat="60.255622" lon="24.920062"><ele>18.8</ele><time>2026-01-29T09:23:32Z</time></trkpt><trkpt lat="60.255633" lon="24.920148"><ele>17.7</ele><time>2026-01-29T09:23:33Z</time></trkpt><trkpt lat="60.255645" lon="24.920212"><ele>22.3</ele><time>2026-01-29T09:23:34Z</time></trkpt><trkpt lat="60.255668" lon="24.920292"><ele>17.4</ele><time>2026-01-29T09:23:35Z</time></trkpt><trkpt lat="60.255673" lon="24.920362"><ele>17.5</ele><time>2026-01-29T09:23:36Z</time></trkpt><trkpt lat="60.25569" lon="24.92042"><ele>17.1</ele><time>2026-01-29T09:23:37Z</time></trkpt><trkpt lat="60.255707" lon="24.920478"><ele>17.4</ele><time>2026-01-29T09:23:38Z</time><extensions><gpxtpx:TrackPointExtension><gpxtpx:hr>145</gpxtpx:hr></gpxtpx:TrackPointExtension></extensions></trkpt><trkpt lat="60.255722" lon="24.92054"><ele>17.7</ele><time>2026-01-29T09:23:39Z</time></trkpt><trkpt lat="60.255693" lon="24.920687"><ele>18.8</ele><time>2026-01-29T09:23:40Z</time></trkpt><trkpt lat="60.25571" lon="24.920747"><ele>18.7</ele><time>2026-01-29T09:23:41Z</time><extensions><gpxtpx:TrackPointExtension><gpxtpx:hr>145</gpxtpx:hr></gpxtpx:TrackPointExtension></extensions></trkpt><trkpt lat="60.255708" lon="24.920835"><ele>21.0</ele><time>2026-01-29T09:23:42Z</time></trkpt><trkpt lat="60.255723" lon="24.920908"><ele>20.4</ele><time>2026-01-29T09:23:43Z</time></trkpt><trkpt lat="60.255732" lon="24.92096"><ele>20.7</ele><time>2026-01-29T09:23:44Z</time><extensions><gpxtpx:TrackPointExtension><gpxtpx:hr>145</gpxtpx:hr></gpxtpx:TrackPointExtension></extensions></trkpt><trkpt lat="60.25573" lon="24.92105"><ele>21.0</ele><time>2026-01-29T09:23:45Z</time></trkpt><trkpt lat="60.255738" lon="24.921123"><ele>20.5</ele><time>2026-01-29T09:23:46Z</time></trkpt><trkpt lat="60.255747" lon="24.921212"><ele>22.1</ele><time>2026-01-29T09:23:47Z</time></trkpt><trkpt lat="60.255765" lon="24.921273"><ele>22.9</ele><time>2026-01-29T09:23:48Z</time></trkpt><trkpt lat="60.25577" lon="24.921332"><ele>22.8</ele><time>2026-01-29T09:23:49Z</time></trkpt><trkpt lat="60.255773" lon="24.921392"><ele>21.7</ele><time>2026-01-29T09:23:50Z</time></trkpt><trkpt lat="60.255793" lon="24.92143"><ele>20.3</ele><time>2026-01-29T09:23:51Z</time></trkpt><trkpt lat="60.25581" lon="24.921502"><ele>19.9</ele><time>2026-01-29T09:23:52Z</time></trkpt><trkpt lat="60.255827" lon="24.921565"><ele>20.3</ele><time>2026-01-29T09:23:53Z</time><extensions><gpxtpx:TrackPointExtension><gpxtpx:hr>146</gpxtpx:hr></gpxtpx:TrackPointExtension></extensions></trkpt><trkpt lat="60.255862" lon="24.921577"><ele>19.0</ele><time>2026-01-29T09:23:54Z</time><extensions><gpxtpx:TrackPointExtension><gpxtpx:hr>145</gpxtpx:hr></gpxtpx:TrackPointExtension></extensions></trkpt><trkpt lat="60.2559" lon="24.921593"><ele>18.0</ele><time>2026-01-29T09:23:55Z</time></trkpt><trkpt lat="60.255927" lon="24.921595"><ele>16.2</ele><time>2026-01-29T09:23:56Z</time></trkpt><trkpt lat="60.255965" lon="24.921625"><ele>16.2</ele><time>2026-01-29T09:23:57Z</time></trkpt><trkpt lat="60.256017" lon="24.921625"><ele>16.3</ele><time>2026-01-29T09:23:58Z</time></trkpt><trkpt lat="60.256057" lon="24.921637"><ele>16.6</ele><time>2026-01-29T09:23:59Z</time><extensions><gpxtpx:TrackPointExtension><gpxtpx:hr>145</gpxtpx:hr></gpxtpx:TrackPointExtension></extensions></trkpt><trkpt lat="60.256093" lon="24.921655"><ele>16.4</ele><time>2026-01-29T09:24:00Z</time></trkpt><trkpt lat="60.256128" lon="24.921677"><ele>16.5</ele><time>2026-01-29T09:24:01Z</time></trkpt><trkpt lat="60.256167" lon="24.921712"><ele>16.1</ele><time>2026-01-29T09:24:02Z</time></trkpt><trkpt lat="60.256205" lon="24.921728"><ele>16.2</ele><time>2026-01-29T09:24:03Z</time></trkpt><trkpt lat="60.256245" lon="24.92176"><ele>17.2</ele><time>2026-01-29T09:24:04Z</time><extensions><gpxtpx:TrackPointExtension><gpxtpx:hr>146</gpxtpx:hr></gpxtpx:TrackPointExtension></extensions></trkpt><trkpt lat="60.256285" lon="24.921837"><ele>18.7</ele><time>2026-01-29T09:24:05Z</time></trkpt><trkpt lat="60.25631" lon="24.921888"><ele>18.0</ele><time>2026-01-29T09:24:06Z</time></trkpt><trkpt lat="60.256328" lon="24.921965"><ele>18.7</ele><time>2026-01-29T09:24:07Z</time></trkpt><trkpt lat="60.256325" lon="24.922082"><ele>19.0</ele><time>2026-01-29T09:24:08Z</time></trkpt><trkpt lat="60.256325" lon="24.922138"><ele>19.1</ele><time>2026-01-29T09:24:09Z</time><extensions><gpxtpx:TrackPointExtension><gpxtpx:hr>145</gpxtpx:hr></gpxtpx:TrackPointExtension></extensions></trkpt><trkpt lat="60.256307" lon="24.9222"><ele>21.0</ele><time>2026-01-29T09:24:10Z</time></trkpt><trkpt lat="60.256298" lon="24.922282"><ele>21.3</ele><time>2026-01-29T09:24:11Z</time></trkpt><trkpt lat="60.256285" lon="24.922358"><ele>21.3</ele><time>2026-01-29T09:24:12Z</time></trkpt><trkpt lat="60.256272" lon="24.922452"><ele>20.8</ele><time>2026-01-29T09:24:13Z</time></trkpt><trkpt lat="60.256275" lon="24.922515"><ele>20.9</ele><time>2026-01-29T09:24:14Z</time><extensions><gpxtpx:TrackPointExtension><gpxtpx:hr>146</gpxtpx:hr></gpxtpx:TrackPointExtension></extensions></trkpt><trkpt lat="60.256258" lon="24.92258"><ele>20.3</ele><time>2026-01-29T09:24:15Z</time></trkpt><trkpt lat="60.25626" lon="24.922642"><ele>20.3</ele><time>2026-01-29T09:24:16Z</time></trkpt><trkpt lat="60.256238" lon="24.922723"><ele>21.3</ele><time>2026-01-29T09:24:17Z</time></trkpt><trkpt lat="60.25623" lon="24.922817"><ele>21.1</ele><time>2026-01-29T09:24:18Z</time></trkpt><trkpt lat="60.256223" lon="24.922877"><ele>21.1</ele><time>2026-01-29T09:24:19Z</time></trkpt><trkpt lat="60.256222" lon="24.923002"><ele>18.8</ele><time>2026-01-29T09:24:19Z</time></trkpt><trkpt lat="60.256207" lon="24.923062"><ele>18.7</ele><time>2026-01-29T09:24:20Z</time></trkpt><trkpt lat="60.25618" lon="24.92312"><ele>18.1</ele><time>2026-01-29T09:24:21Z</time><extensions><gpxtpx:TrackPointExtension><gpxtpx:hr>147</gpxtpx:hr></gpxtpx:TrackPointExtension></extensions></trkpt><trkpt lat="60.256187" lon="24.923203"><ele>18.1</ele><time>2026-01-29T09:24:22Z</time></trkpt><trkpt lat="60.25618" lon="24.923293"><ele>18.7</ele><time>2026-01-29T09:24:23Z</time></trkpt><trkpt lat="60.256177" lon="24.92336"><ele>18.4</ele><time>2026-01-29T09:24:24Z</time></trkpt><trkpt lat="60.256168" lon="24.92344"><ele>17.7</ele><time>2026-01-29T09:24:25Z</time></trkpt><trkpt lat="60.256162" lon="24.92351"><ele>17.7</ele><time>2026-01-29T09:24:27Z</time></trkpt><trkpt lat="60.256167" lon="24.923585"><ele>19.5</ele><time>2026-01-29T09:24:28Z</time><extensions><gpxtpx:TrackPointExtension><gpxtpx:hr>147</gpxtpx:hr></gpxtpx:TrackPointExtension></extensions></trkpt><trkpt lat="60.256162" lon="24.923625"><ele>18.4</ele><time>2026-01-29T09:24:29Z</time></trkpt><trkpt lat="60.25616" lon="24.923692"><ele>18.8</ele><time>2026-01-29T09:24:30Z</time></trkpt><trkpt lat="60.256163" lon="24.923747"><ele>18.9</ele><time>2026-01-29T09:24:31Z</time></trkpt><trkpt lat="60.256165" lon="24.92378"><ele>20.2</ele><time>2026-01-29T09:24:32Z</time></trkpt><trkpt lat="60.256165" lon="24.923782"><ele>19.6</ele><time>2026-01-29T09:24:33Z</time><extensions><gpxtpx:TrackPointExtension><gpxtpx:hr>148</gpxtpx:hr></gpxtpx:TrackPointExtension></extensions></trkpt><trkpt lat="60.256163" lon="24.92379"><ele>17.9</ele><time>2026-01-29T09:24:34Z</time></trkpt><trkpt lat="60.25617" lon="24.923838"><ele>19.7</ele><time>2026-01-29T09:24:35Z</time></trkpt><trkpt lat="60.256167" lon="24.923842"><ele>19.8</ele><time>2026-01-29T09:24:36Z</time></trkpt><trkpt lat="60.256163" lon="24.923838"><ele>19.4</ele><time>2026-01-29T09:24:37Z</time><extensions><gpxtpx:TrackPointExtension><gpxtpx:hr>149</gpxtpx:hr></gpxtpx:TrackPointExtension></extensions></trkpt><trkpt lat="60.256157" lon="24.923848"><ele>19.1</ele><time>2026-01-29T09:24:38Z</time></trkpt><trkpt lat="60.256155" lon="24.923855"><ele>19.6</ele><time>2026-01-29T09:24:39Z</time></trkpt><trkpt lat="60.256155" lon="24.923867"><ele>19.7</ele><time>2026-01-29T09:24:40Z</time><extensions><gpxtpx:TrackPointExtension><gpxtpx:hr>149</gpxtpx:hr></gpxtpx:TrackPointExtension></extensions></trkpt><trkpt lat="60.256165" lon="24.923873"><ele>19.1</ele><time>2026-01-29T09:24:41Z</time></trkpt><trkpt lat="60.256162" lon="24.923878"><ele>19.4</ele><time>2026-01-29T09:24:42Z</time></trkpt><trkpt lat="60.25616" lon="24.923888"><ele>20.7</ele><time>2026-01-29T09:24:43Z</time></trkpt><trkpt lat="60.25616" lon="24.923885"><ele>20.9</ele><time>2026-01-29T09:24:44Z</time><extensions><gpxtpx:TrackPointExtension><gpxtpx:hr>149</gpxtpx:hr></gpxtpx:TrackPointExtension></extensions></trkpt><trkpt lat="60.25616" lon="24.923885"><ele>20.9</ele><time>2026-01-29T09:24:45Z</time></trkpt><trkpt lat="60.25616" lon="24.923885"><ele>20.9</ele><time>2026-01-29T09:24:46Z</time></trkpt><trkpt lat="60.25616" lon="24.923885"><ele>20.9</ele><time>2026-01-29T09:24:47Z</time></trkpt><trkpt lat="60.25616" lon="24.923885"><ele>20.9</ele><time>2026-01-29T09:24:48Z</time></trkpt><trkpt lat="60.25616" lon="24.923885"><ele>20.9</ele><time>2026-01-29T09:24:49Z</time><extensions><gpxtpx:TrackPointExtension><gpxtpx:hr>146</gpxtpx:hr></gpxtpx:TrackPointExtension></extensions></trkpt></trkseg></trk></gpx>