<?xml version="1.0" encoding="UTF-8" standalone="no"?><gpx xmlns="http://www.topografix.com/GPX/1/1" xmlns:gpxtpx="http://www.garmin.com/xmlschemas/TrackPointExtension/v1" xmlns:xsi="http://www.w3.org/2001/XMLSchema-instance" creator="Sports Tracker" version="1.1" xsi:schemaLocation="http://www.topografix.com/GPX/1/1 http://www.topografix.com/GPX/1/1/gpx.xsd http://www.garmin.com/xmlschemas/TrackPointExtension/v1 http://www.garmin.com/xmlschemas/TrackPointExtensionv1.xsd"><metadata><name/><desc/><author><name>anttipehkonen240</name></author></metadata><trk><name/><trkseg><trkpt lat="60.243697" lon="24.877845"><ele>22.9</ele><time>2026-08-30T08:35:43Z</time><extensions><gpxtpx:TrackPointExtension><gpxtpx:hr>83</gpxtpx:hr></gpxtpx:TrackPointExtension></extensions></trkpt><trkpt lat="60.243697" lon="24.877845"><ele>22.9</ele><time>2026-08-30T08:35:45Z</time></trkpt><trkpt lat="60.243697" lon="24.877845"><ele>22.9</ele><time>2026-08-30T08:35:48Z</time><extensions><gpxtpx:TrackPointExtension><gpxtpx:hr>90</gpxtpx:hr></gpxtpx:TrackPointExtension></extensions></trkpt><trkpt lat="60.243697" lon="24.877845"><ele>22.9</ele><time>2026-08-30T08:35:56Z</time><extensions><gpxtpx:TrackPointExtension><gpxtpx:hr>99</gpxtpx:hr></gpxtpx:TrackPointExtension></extensions></trkpt><trkpt lat="60.243697" lon="24.877845"><ele>22.9</ele><time>2026-08-30T08:36:02Z</time><extensions><gpxtpx:TrackPointExtension><gpxtpx:hr>103</gpxtpx:hr></gpxtpx:TrackPointExtension></extensions></trkpt><trkpt lat="60.243697" lon="24.877845"><ele>22.9</ele><time>2026-08-30T08:36:06Z</time><extensions><gpxtpx:TrackPointExtension><gpxtpx:hr>103</gpxtpx:hr></gpxtpx:TrackPointExtension></extensions></trkpt><trkpt lat="60.243697" lon="24.877845"><ele>22.9</ele><time>2026-08-30T08:36:11Z</time><extensions><gpxtpx:TrackPointExtension><gpxtpx:hr>101</gpxtpx:hr></gpxtpx:TrackPointExtension></extensions></trkpt><trkpt lat="60.243697" lon="24.877845"><ele>22.9</ele><time>2026-08-30T08:36:13Z</time><extensions><gpxtpx:TrackPointExtension><gpxtpx:hr>103</gpxtpx:hr></gpxtpx:TrackPointExtension></extensions></trkpt><trkpt lat="60.243697" lon="24.877845"><ele>22.9</ele><time>2026-08-30T08:36:19Z</time><extensions><gpxtpx:TrackPointExtension><gpxtpx:hr>106</gpxtpx:hr></gpxtpx:TrackPointExtension></extensions></trkpt><trkpt lat="60.243697" lon="24.877845"><ele>22.9</ele><time>2026-08-30T08:36:23Z</time><extensions><gpxtpx:TrackPointExtension><gpxtpx:hr>107</gpxtpx:hr></gpxtpx:TrackPointExtension></extensions></trkpt><trkpt lat="60.243697" lon="24.877845"><ele>22.9</ele><time>2026-08-30T08:36:28Z</time><extensions><gpxtpx:TrackPointExtension><gpxtpx:hr>108</gpxtpx:hr></gpxtpx:TrackPointExtension></extensions></trkpt><trkpt lat="60.243697" lon="24.877845"><ele>22.9</ele><time>2026-08-30T08:36:47Z</time><extensions><gpxtpx:TrackPointExtension><gpxtpx:hr>124</gpxtpx:hr></gpxtpx:TrackPointExtension></extensions></trkpt><trkpt lat="60.243697" lon="24.877845"><ele>22.9</ele><time>2026-08-30T08:36:51Z</time><extensions><gpxtpx:TrackPointExtension><gpxtpx:hr>124</gpxtpx:hr></gpxtpx:TrackPointExtension></extensions></trkpt><trkpt lat="60.243697" lon="24.877845"><ele>22.9</ele><time>2026-08-30T08:38:25Z</time><extensions><gpxtpx:TrackPointExtension><gpxtpx:hr>123</gpxtpx:hr></gpxtpx:TrackPointExtension></extensions></trkpt><trkpt lat="60.243697" lon="24.877845"><ele>22.9</ele><time>2026-08-30T08:38:30Z</time><extensions><gpxtpx:TrackPointExtension><gpxtpx:hr>122</gpxtpx:hr></gpxtpx:TrackPointExtension></extensions></trkpt><trkpt lat="60.243697" lon="24.877845"><ele>22.9</ele><time>2026-08-30T08:38:33Z</time><extensions><gpxtpx:TrackPointExtension><gpxtpx:hr>122</gpxtpx:hr></gpxtpx:TrackPointExtension></extensions></trkpt><trkpt lat="60.243697" lon="24.877845"><ele>22.9</ele><time>2026-08-30T08:38:42Z</time><extensions><gpxtpx:TrackPointExtension><gpxtpx:hr>104</gpxtpx:hr></gpxtpx:TrackPointExtension></extensions></trkpt><trkpt lat="60.243697" lon="24.877845"><ele>22.9</ele><time>2026-08-30T08:38:47Z</time><extensions><gpxtpx:TrackPointExtension><gpxtpx:hr>101</gpxtpx:hr></gpxtpx:TrackPointExtension></extensions></trkpt><trkpt lat="60.243697" lon="24.877845"><ele>22.9</ele><time>2026-08-30T08:38:50Z</time><extensions><gpxtpx:TrackPointExtension><gpxtpx:hr>104</gpxtpx:hr></gpxtpx:TrackPointExtension></extensions></trkpt><trkpt lat="60.243697" lon="24.877845"><ele>22.9</ele><time>2026-08-30T08:38:56Z</time><extensions><gpxtpx:TrackPointExtension><gpxtpx:hr>107</gpxtpx:hr></gpxtpx:TrackPointExtension></extensions></trkpt><trkpt lat="60.243697" lon="24.877845"><ele>22.9</ele><time>2026-08-30T08:38:58Z</time><extensions><gpxtpx:TrackPointExtension><gpxtpx:hr>108</gpxtpx:hr></gpxtpx:TrackPointExtension></extensions></trkpt><trkpt lat="60.243697" lon="24.877845"><ele>22.9</ele><time>2026-08-30T08:39:07Z</time><extensions><gpxtpx:TrackPointExtension><gpxtpx:hr>108</gpxtpx:hr></gpxtpx:TrackPointExtension></extensions></trkpt><trkpt lat="60.243697" lon="24.877845"><ele>22.9</ele><time>2026-08-30T08:39:12Z</time><extensions><gpxtpx:TrackPointExtension><gpxtpx:hr>111</gpxtpx:hr></gpxtpx:TrackPointExtension></extensions></trkpt><trkpt lat="60.243697" lon="24.877845"><ele>22.9</ele><time>2026-08-30T08:39:13Z</time><extensions><gpxtpx:TrackPointExtension><gpxtpx:hr>112</gpxtpx:hr></gpxtpx:TrackPointExtension></extensions></trkpt><trkpt lat="60.243697" lon="24.877845"><ele>22.9</ele><time>2026-08-30T08:39:22Z</time><extensions><gpxtpx:TrackPointExtension><gpxtpx:hr>114</gpxtpx:hr></gpxtpx:TrackPointExtension></extensions></trkpt><trkpt lat="60.243697" lon="24.877845"><ele>22.9</ele><time>2026-08-30T08:39:27Z</time><extensions><gpxtpx:TrackPointExtension><gpxtpx:hr>114</gpxtpx:hr></gpxtpx:TrackPointExtension></extensions></trkpt><trkpt lat="60.243697" lon="24.877845"><ele>22.9</ele><time>2026-08-30T08:39:28Z</time><extensions><gpxtpx:TrackPointExtension><gpxtpx:hr>114</gpxtpx:hr></gpxtpx:TrackPointExtension></extensions></trkpt><trkpt lat="60.243697" lon="24.877845"><ele>22.9</ele><time>2026-08-30T08:39:33Z</time><extensions><gpxtpx:TrackPointExtension><gpxtpx:hr>115</gpxtpx:hr></gpxtpx:TrackPointExtension></extensions></trkpt><trkpt lat="60.243697" lon="24.877845"><ele>22.9</ele><time>2026-08-30T08:39:42Z</time><extensions><gpxtpx:TrackPointExtension><gpxtpx:hr>123</gpxtpx:hr></gpxtpx:TrackPointExtension></extensions></trkpt><trkpt lat="60.243697" lon="24.877845"><ele>22.9</ele><time>2026-08-30T08:39:44Z</time><extensions><gpxtpx:TrackPointExtension><gpxtpx:hr>124</gpxtpx:hr></gpxtpx:TrackPointExtension></extensions></trkpt><trkpt lat="60.243697" lon="24.877845"><ele>22.9</ele><time>2026-08-30T08:39:48Z</time><extensions><gpxtpx:TrackPointExtension><gpxtpx:hr>123</gpxtpx:hr></gpxtpx:TrackPointExtension></extensions></trkpt><trkpt lat="60.243697" lon="24.877845"><ele>22.9</ele><time>2026-08-30T08:39:53Z</time><extensions><gpxtpx:TrackPointExtension><gpxtpx:hr>120</gpxtpx:hr></gpxtpx:TrackPointExtension></extensions></trkpt><trkpt lat="60.243697" lon="24.877845"><ele>22.9</ele><time>2026-08-30T08:39:58Z</time><extensions><gpxtpx:TrackPointExtension><gpxtpx:hr>118</gpxtpx:hr></gpxtpx:TrackPointExtension></extensions></trkpt><trkpt lat="60.243697" lon="24.877845"><ele>22.9</ele><time>2026-08-30T08:40:14Z</time><extensions><gpxtpx:TrackPointExtension><gpxtpx:hr>115</gpxtpx:hr></gpxtpx:TrackPointExtension></extensions></trkpt><trkpt lat="60.243697" lon="24.877845"><ele>22.9</ele><time>2026-08-30T08:40:31Z</time><extensions><gpxtpx:TrackPointExtension><gpxtpx:hr>115</gpxtpx:hr></gpxtpx:TrackPointExtension></extensions></trkpt><trkpt lat="60.243697" lon="24.877845"><ele>22.9</ele><time>2026-08-30T08:41:12Z</time><extensions><gpxtpx:TrackPointExtension><gpxtpx:hr>105</gpxtpx:hr></gpxtpx:TrackPointExtension></extensions></trkpt><trkpt lat="60.243697" lon="24.877845"><ele>22.9</ele><time>2026-08-30T08:41:17Z</time><extensions><gpxtpx:TrackPointExtension><gpxtpx:hr>104</gpxtpx:hr></gpxtpx:TrackPointExtension></extensions></trkpt><trkpt lat="60.243697" lon="24.877845"><ele>22.9</ele><time>2026-08-30T08:41:18Z</time><extensions><gpxtpx:TrackPointExtension><gpxtpx:hr>104</gpxtpx:hr></gpxtpx:TrackPointExtension></extensions></trkpt><trkpt lat="60.243697" lon="24.877845"><ele>22.9</ele><time>2026-08-30T08:41:27Z</time><extensions><gpxtpx:TrackPointExtension><gpxtpx:hr>105</gpxtpx:hr></gpxtpx:TrackPointExtension></extensions></trkpt><trkpt lat="60.243697" lon="24.877845"><ele>22.9</ele><time>2026-08-30T08:41:30Z</time><extensions><gpxtpx:TrackPointExtension><gpxtpx:hr>105</gpxtpx:hr></gpxtpx:TrackPointExtension></extensions></trkpt><trkpt lat="60.243697" lon="24.877845"><ele>22.9</ele><time>2026-08-30T08:41:33Z</time><extensions><gpxtpx:TrackPointExtension><gpxtpx:hr>104</gpxtpx:hr></gpxtpx:TrackPointExtension></extensions></trkpt><trkpt lat="60.243697" lon="24.877845"><ele>22.9</ele><time>2026-08-30T08:41:38Z</time><extensions><gpxtpx:TrackPointExtension><gpxtpx:hr>103</gpxtpx:hr></gpxtpx:TrackPointExtension></extensions></trkpt><trkpt lat="60.243697" lon="24.877845"><ele>22.9</ele><time>2026-08-30T08:41:45Z</time><extensions><gpxtpx:TrackPointExtension><gpxtpx:hr>106</gpxtpx:hr></gpxtpx:TrackPointExtension></extensions></trkpt><trkpt lat="60.243697" lon="24.877845"><ele>22.9</ele><time>2026-08-30T08:41:48Z</time><extensions><gpxtpx:TrackPointExtension><gpxtpx:hr>110</gpxtpx:hr></gpxtpx:TrackPointExtension></extensions></trkpt><trkpt lat="60.243697" lon="24.877845"><ele>22.9</ele><time>2026-08-30T08:41:55Z</time><extensions><gpxtpx:TrackPointExtension><gpxtpx:hr>109</gpxtpx:hr></gpxtpx:TrackPointExtension></extensions></trkpt><trkpt lat="60.243697" lon="24.877845"><ele>22.9</ele><time>2026-08-30T08:42:02Z</time><extensions><gpxtpx:TrackPointExtension><gpxtpx:hr>114</gpxtpx:hr></gpxtpx:TrackPointExtension></extensions></trkpt><trkpt lat="60.243697" lon="24.877845"><ele>22.9</ele><time>2026-08-30T08:42:03Z</time><extensions><gpxtpx:TrackPointExtension><gpxtpx:hr>114</gpxtpx:hr></gpxtpx:TrackPointExtension></extensions></trkpt><trkpt lat="60.243697" lon="24.877845"><ele>22.9</ele><time>2026-08-30T08:42:08Z</time><extensions><gpxtpx:TrackPointExtension><gpxtpx:hr>116</gpxtpx:hr></gpxtpx:TrackPointExtension></extensions></trkpt><trkpt lat="60.243697" lon="24.877845"><ele>22.9</ele><time>2026-08-30T08:42:17Z</time><extensions><gpxtpx:TrackPointExtension><gpxtpx:hr>120</gpxtpx:hr></gpxtpx:TrackPointExtension></extensions></trkpt><trkpt lat="60.243697" lon="24.877845"><ele>22.9</ele><time>2026-08-30T08:42:19Z</time><extensions><gpxtpx:TrackPointExtension><gpxtpx:hr>121</gpxtpx:hr></gpxtpx:TrackPointExtension></extensions></trkpt><trkpt lat="60.243697" lon="24.877845"><ele>22.9</ele><time>2026-08-30T08:42:23Z</time><extensions><gpxtpx:TrackPointExtension><gpxtpx:hr>122</gpxtpx:hr></gpxtpx:TrackPointExtension></extensions></trkpt><trkpt lat="60.243697" lon="24.877845"><ele>22.9</ele><time>2026-08-30T08:42:28Z</time><extensions><gpxtpx:TrackPointExtension><gpxtpx:hr>122</gpxtpx:hr></gpxtpx:TrackPointExtension></extensions></trkpt><trkpt lat="60.243697" lon="24.877845"><ele>22.9</ele><time>2026-08-30T08:42:33Z</time><extensions><gpxtpx:TrackPointExtension><gpxtpx:hr>121</gpxtpx:hr></gpxtpx:TrackPointExtension></extensions></trkpt><trkpt lat="60.243697" lon="24.877845"><ele>22.9</ele><time>2026-08-30T08:42:38Z</time><extensions><gpxtpx:TrackPointExtension><gpxtpx:hr>121</gpxtpx:hr></gpxtpx:TrackPointExtension></extensions></trkpt><trkpt lat="60.243697" lon="24.877845"><ele>22.9</ele><time>2026-08-30T08:42:47Z</time><extensions><gpxtpx:TrackPointExtension><gpxtpx:hr>121</gpxtpx:hr></gpxtpx:TrackPointExtension></extensions></trkpt><trkpt lat="60.243697" lon="24.877845"><ele>22.9</ele><time>2026-08-30T08:42:52Z</time><extensions><gpxtpx:TrackPointExtension><gpxtpx:hr>120</gpxtpx:hr></gpxtpx:TrackPointExtension></extensions></trkpt><trkpt lat="60.243697" lon="24.877845"><ele>22.9</ele><time>2026-08-30T08:43:02Z</time><extensions><gpxtpx:TrackPointExtension><gpxtpx:hr>119</gpxtpx:hr></gpxtpx:TrackPointExtension></extensions></trkpt><trkpt lat="60.243697" lon="24.877845"><ele>22.9</ele><time>2026-08-30T08:43:06Z</time><extensions><gpxtpx:TrackPointExtension><gpxtpx:hr>117</gpxtpx:hr></gpxtpx:TrackPointExtension></extensions></trkpt><trkpt lat="60.243697" lon="24.877845"><ele>22.9</ele><time>2026-08-30T08:43:08Z</time><extensions><gpxtpx:TrackPointExtension><gpxtpx:hr>116</gpxtpx:hr></gpxtpx:TrackPointExtension></extensions></trkpt><trkpt lat="60.243697" lon="24.877845"><ele>22.9</ele><time>2026-08-30T08:43:13Z</time><extensions><gpxtpx:TrackPointExtension><gpxtpx:hr>116</gpxtpx:hr></gpxtpx:TrackPointExtension></extensions></trkpt><trkpt lat="60.243697" lon="24.877845"><ele>22.9</ele><time>2026-08-30T08:43:21Z</time><extensions><gpxtpx:TrackPointExtension><gpxtpx:hr>116</gpxtpx:hr></gpxtpx:TrackPointExtension></extensions></trkpt><trkpt lat="60.243697" lon="24.877845"><ele>22.9</ele><time>2026-08-30T08:43:24Z</time><extensions><gpxtpx:TrackPointExtension><gpxtpx:hr>115</gpxtpx:hr></gpxtpx:TrackPointExtension></extensions></trkpt><trkpt lat="60.243697" lon="24.877845"><ele>22.9</ele><time>2026-08-30T08:43:32Z</time><extensions><gpxtpx:TrackPointExtension><gpxtpx:hr>117</gpxtpx:hr></gpxtpx:TrackPointExtension></extensions></trkpt><trkpt lat="60.243697" lon="24.877845"><ele>22.9</ele><time>2026-08-30T08:43:34Z</time><extensions><gpxtpx:TrackPointExtension><gpxtpx:hr>117</gpxtpx:hr></gpxtpx:TrackPointExtension></extensions></trkpt><trkpt lat="60.243697" lon="24.877845"><ele>22.9</ele><time>2026-08-30T08:43:42Z</time><extensions><gpxtpx:TrackPointExtension><gpxtpx:hr>117</gpxtpx:hr></gpxtpx:TrackPointExtension></extensions></trkpt><trkpt lat="60.243697" lon="24.877845"><ele>22.9</ele><time>2026-08-30T08:43:44Z</time><extensions><gpxtpx:TrackPointExtension><gpxtpx:hr>117</gpxtpx:hr></gpxtpx:TrackPointExtension></extensions></trkpt><trkpt lat="60.243697" lon="24.877845"><ele>22.9</ele><time>2026-08-30T08:43:49Z</time><extensions><gpxtpx:TrackPointExtension><gpxtpx:hr>116</gpxtpx:hr></gpxtpx:TrackPointExtension></extensions></trkpt><trkpt lat="60.243697" lon="24.877845"><ele>22.9</ele><time>2026-08-30T08:43:53Z</time><extensions><gpxtpx:TrackPointExtension><gpxtpx:hr>116</gpxtpx:hr></gpxtpx:TrackPointExtension></extensions></trkpt><trkpt lat="60.243697" lon="24.877845"><ele>22.9</ele><time>2026-08-30T08:44:02Z</time><extensions><gpxtpx:TrackPointExtension><gpxtpx:hr>114</gpxtpx:hr></gpxtpx:TrackPointExtension></extensions></trkpt><trkpt lat="60.243697" lon="24.877845"><ele>22.9</ele><time>2026-08-30T08:44:03Z</time><extensions><gpxtpx:TrackPointExtension><gpxtpx:hr>113</gpxtpx:hr></gpxtpx:TrackPointExtension></extensions></trkpt><trkpt lat="60.243697" lon="24.877845"><ele>22.9</ele><time>2026-08-30T08:44:09Z</time><extensions><gpxtpx:TrackPointExtension><gpxtpx:hr>112</gpxtpx:hr></gpxtpx:TrackPointExtension></extensions></trkpt><trkpt lat="60.243697" lon="24.877845"><ele>22.9</ele><time>2026-08-30T08:44:17Z</time><extensions><gpxtpx:TrackPointExtension><gpxtpx:hr>112</gpxtpx:hr></gpxtpx:TrackPointExtension></extensions></trkpt><trkpt lat="60.243697" lon="24.877845"><ele>22.9</ele><time>2026-08-30T08:44:19Z</time><extensions><gpxtpx:TrackPointExtension><gpxtpx:hr>110</gpxtpx:hr></gpxtpx:TrackPointExtension></extensions></trkpt><trkpt lat="60.243697" lon="24.877845"><ele>22.9</ele><time>2026-08-30T08:44:23Z</time><extensions><gpxtpx:TrackPointExtension><gpxtpx:hr>109</gpxtpx:hr></gpxtpx:TrackPointExtension></extensions></trkpt><trkpt lat="60.243697" lon="24.877845"><ele>22.9</ele><time>2026-08-30T08:44:28Z</time><extensions><gpxtpx:TrackPointExtension><gpxtpx:hr>112</gpxtpx:hr></gpxtpx:TrackPointExtension></extensions></trkpt><trkpt lat="60.243697" lon="24.877845"><ele>22.9</ele><time>2026-08-30T08:44:33Z</time><extensions><gpxtpx:TrackPointExtension><gpxtpx:hr>116</gpxtpx:hr></gpxtpx:TrackPointExtension></extensions></trkpt><trkpt lat="60.243697" lon="24.877845"><ele>22.9</ele><time>2026-08-30T08:44:42Z</time><extensions><gpxtpx:TrackPointExtension><gpxtpx:hr>117</gpxtpx:hr></gpxtpx:TrackPointExtension></extensions></trkpt><trkpt lat="60.243697" lon="24.877845"><ele>22.9</ele><time>2026-08-30T08:44:47Z</time><extensions><gpxtpx:TrackPointExtension><gpxtpx:hr>121</gpxtpx:hr></gpxtpx:TrackPointExtension></extensions></trkpt><trkpt lat="60.243697" lon="24.877845"><ele>22.9</ele><time>2026-08-30T08:44:49Z</time><extensions><gpxtpx:TrackPointExtension><gpxtpx:hr>123</gpxtpx:hr></gpxtpx:TrackPointExtension></extensions></trkpt><trkpt lat="60.243697" lon="24.877845"><ele>22.9</ele><time>2026-08-30T08:44:56Z</time><extensions><gpxtpx:TrackPointExtension><gpxtpx:hr>127</gpxtpx:hr></gpxtpx:TrackPointExtension></extensions></trkpt><trkpt lat="60.243697" lon="24.877845"><ele>22.9</ele><time>2026-08-30T08:45:02Z</time><extensions><gpxtpx:TrackPointExtension><gpxtpx:hr>126</gpxtpx:hr></gpxtpx:TrackPointExtension></extensions></trkpt><trkpt lat="60.243697" lon="24.877845"><ele>22.9</ele><time>2026-08-30T08:45:07Z</time><extensions><gpxtpx:TrackPointExtension><gpxtpx:hr>127</gpxtpx:hr></gpxtpx:TrackPointExtension></extensions></trkpt><trkpt lat="60.243697" lon="24.877845"><ele>22.9</ele><time>2026-08-30T08:45:08Z</time><extensions><gpxtpx:TrackPointExtension><gpxtpx:hr>127</gpxtpx:hr></gpxtpx:TrackPointExtension></extensions></trkpt><trkpt lat="60.243697" lon="24.877845"><ele>22.9</ele><time>2026-08-30T08:45:14Z</time><extensions><gpxtpx:TrackPointExtension><gpxtpx:hr>126</gpxtpx:hr></gpxtpx:TrackPointExtension></extensions></trkpt><trkpt lat="60.243697" lon="24.877845"><ele>22.9</ele><time>2026-08-30T08:45:19Z</time><extensions><gpxtpx:TrackPointExtension><gpxtpx:hr>126</gpxtpx:hr></gpxtpx:TrackPointExtension></extensions></trkpt><trkpt lat="60.243697" lon="24.877845"><ele>22.9</ele><time>2026-08-30T08:45:23Z</time><extensions><gpxtpx:TrackPointExtension><gpxtpx:hr>125</gpxtpx:hr></gpxtpx:TrackPointExtension></extensions></trkpt><trkpt lat="60.243697" lon="24.877845"><ele>22.9</ele><time>2026-08-30T08:45:28Z</time><extensions><gpxtpx:TrackPointExtension><gpxtpx:hr>123</gpxtpx:hr></gpxtpx:TrackPointExtension></extensions></trkpt><trkpt lat="60.243697" lon="24.877845"><ele>22.9</ele><time>2026-08-30T08:45:33Z</time><extensions><gpxtpx:TrackPointExtension><gpxtpx:hr>121</gpxtpx:hr></gpxtpx:TrackPointExtension></extensions></trkpt><trkpt lat="60.243697" lon="24.877845"><ele>22.9</ele><time>2026-08-30T08:45:38Z</time><extensions><gpxtpx:TrackPointExtension><gpxtpx:hr>123</gpxtpx:hr></gpxtpx:TrackPointExtension></extensions></trkpt><trkpt lat="60.243697" lon="24.877845"><ele>22.9</ele><time>2026-08-30T08:45:44Z</time><extensions><gpxtpx:TrackPointExtension><gpxtpx:hr>128</gpxtpx:hr></gpxtpx:TrackPointExtension></extensions></trkpt><trkpt lat="60.243697" lon="24.877845"><ele>22.9</ele><time>2026-08-30T08:45:50Z</time><extensions><gpxtpx:TrackPointExtension><gpxtpx:hr>126</gpxtpx:hr></gpxtpx:TrackPointExtension></extensions></trkpt><trkpt lat="60.243697" lon="24.877845"><ele>22.9</ele><time>2026-08-30T08:45:57Z</time><extensions><gpxtpx:TrackPointExtension><gpxtpx:hr>118</gpxtpx:hr></gpxtpx:TrackPointExtension></extensions></trkpt><trkpt lat="60.243697" lon="24.877845"><ele>22.9</ele><time>2026-08-30T08:46:02Z</time><extensions><gpxtpx:TrackPointExtension><gpxtpx:hr>119</gpxtpx:hr></gpxtpx:TrackPointExtension></extensions></trkpt><trkpt lat="60.243697" lon="24.877845"><ele>22.9</ele><time>2026-08-30T08:46:07Z</time><extensions><gpxtpx:TrackPointExtension><gpxtpx:hr>118</gpxtpx:hr></gpxtpx:TrackPointExtension></extensions></trkpt><trkpt lat="60.243697" lon="24.877845"><ele>22.9</ele><time>2026-08-30T08:46:08Z</time><extensions><gpxtpx:TrackPointExtension><gpxtpx:hr>118</gpxtpx:hr></gpxtpx:TrackPointExtension></extensions></trkpt><trkpt lat="60.243697" lon="24.877845"><ele>22.9</ele><time>2026-08-30T08:46:16Z</time><extensions><gpxtpx:TrackPointExtension><gpxtpx:hr>118</gpxtpx:hr></gpxtpx:TrackPointExtension></extensions></trkpt><trkpt lat="60.243697" lon="24.877845"><ele>22.9</ele><time>2026-08-30T08:46:21Z</time><extensions><gpxtpx:TrackPointExtension><gpxtpx:hr>120</gpxtpx:hr></gpxtpx:TrackPointExtension></extensions></trkpt><trkpt lat="60.243697" lon="24.877845"><ele>22.9</ele><time>2026-08-30T08:46:24Z</time><extensions><gpxtpx:TrackPointExtension><gpxtpx:hr>120</gpxtpx:hr></gpxtpx:TrackPointExtension></extensions></trkpt><trkpt lat="60.243697" lon="24.877845"><ele>22.9</ele><time>2026-08-30T08:46:31Z</time><extensions><gpxtpx:TrackPointExtension><gpxtpx:hr>118</gpxtpx:hr></gpxtpx:TrackPointExtension></extensions></trkpt><trkpt lat="60.243697" lon="24.877845"><ele>22.9</ele><time>2026-08-30T08:46:36Z</time><extensions><gpxtpx:TrackPointExtension><gpxtpx:hr>116</gpxtpx:hr></gpxtpx:TrackPointExtension></extensions></trkpt><trkpt lat="60.243697" lon="24.877845"><ele>22.9</ele><time>2026-08-30T08:46:42Z</time><extensions><gpxtpx:TrackPointExtension><gpxtpx:hr>110</gpxtpx:hr></gpxtpx:TrackPointExtension></extensions></trkpt><trkpt lat="60.243697" lon="24.877845"><ele>22.9</ele><time>2026-08-30T08:46:45Z</time><extensions><gpxtpx:TrackPointExtension><gpxtpx:hr>110</gpxtpx:hr></gpxtpx:TrackPointExtension></extensions></trkpt><trkpt lat="60.243697" lon="24.877845"><ele>22.9</ele><time>2026-08-30T08:46:50Z</time><extensions><gpxtpx:TrackPointExtension><gpxtpx:hr>111</gpxtpx:hr></gpxtpx:TrackPointExtension></extensions></trkpt><trkpt lat="60.243697" lon="24.877845"><ele>22.9</ele><time>2026-08-30T08:46:54Z</time><extensions><gpxtpx:TrackPointExtension><gpxtpx:hr>111</gpxtpx:hr></gpxtpx:TrackPointExtension></extensions></trkpt><trkpt lat="60.243697" lon="24.877845"><ele>22.9</ele><time>2026-08-30T08:47:02Z</time><extensions><gpxtpx:TrackPointExtension><gpxtpx:hr>111</gpxtpx:hr></gpxtpx:TrackPointExtension></extensions></trkpt><trkpt lat="60.243697" lon="24.877845"><ele>22.9</ele><time>2026-08-30T08:47:07Z</time><extensions><gpxtpx:TrackPointExtension><gpxtpx:hr>109</gpxtpx:hr></gpxtpx:TrackPointExtension></extensions></trkpt><trkpt lat="60.243697" lon="24.877845"><ele>22.9</ele><time>2026-08-30T08:47:08Z</time><extensions><gpxtpx:TrackPointExtension><gpxtpx:hr>109</gpxtpx:hr></gpxtpx:TrackPointExtension></extensions></trkpt><trkpt lat="60.243697" lon="24.877845"><ele>22.9</ele><time>2026-08-30T08:47:17Z</time><extensions><gpxtpx:TrackPointExtension><gpxtpx:hr>106</gpxtpx:hr></gpxtpx:TrackPointExtension></extensions></trkpt><trkpt lat="60.243697" lon="24.877845"><ele>22.9</ele><time>2026-08-30T08:47:20Z</time><extensions><gpxtpx:TrackPointExtension><gpxtpx:hr>108</gpxtpx:hr></gpxtpx:TrackPointExtension></extensions></trkpt><trkpt lat="60.243697" lon="24.877845"><ele>22.9</ele><time>2026-08-30T08:47:25Z</time><extensions><gpxtpx:TrackPointExtension><gpxtpx:hr>105</gpxtpx:hr></gpxtpx:TrackPointExtension></extensions></trkpt><trkpt lat="60.243697" lon="24.877845"><ele>22.9</ele><time>2026-08-30T08:47:28Z</time><extensions><gpxtpx:TrackPointExtension><gpxtpx:hr>105</gpxtpx:hr></gpxtpx:TrackPointExtension></extensions></trkpt><trkpt lat="60.243697" lon="24.877845"><ele>22.9</ele><time>2026-08-30T08:47:33Z</time><extensions><gpxtpx:TrackPointExtension><gpxtpx:hr>106</gpxtpx:hr></gpxtpx:TrackPointExtension></extensions></trkpt><trkpt lat="60.243697" lon="24.877845"><ele>22.9</ele><time>2026-08-30T08:47:38Z</time><extensions><gpxtpx:TrackPointExtension><gpxtpx:hr>108</gpxtpx:hr></gpxtpx:TrackPointExtension></extensions></trkpt><trkpt lat="60.243697" lon="24.877845"><ele>22.9</ele><time>2026-08-30T08:47:43Z</time><extensions><gpxtpx:TrackPointExtension><gpxtpx:hr>113</gpxtpx:hr></gpxtpx:TrackPointExtension></extensions></trkpt><trkpt lat="60.243697" lon="24.877845"><ele>22.9</ele><time>2026-08-30T08:47:52Z</time><extensions><gpxtpx:TrackPointExtension><gpxtpx:hr>115</gpxtpx:hr></gpxtpx:TrackPointExtension></extensions></trkpt><trkpt lat="60.243697" lon="24.877845"><ele>22.9</ele><time>2026-08-30T08:47:57Z</time><extensions><gpxtpx:TrackPointExtension><gpxtpx:hr>117</gpxtpx:hr></gpxtpx:TrackPointExtension></extensions></trkpt><trkpt lat="60.243697" lon="24.877845"><ele>22.9</ele><time>2026-08-30T08:48:02Z</time><extensions><gpxtpx:TrackPointExtension><gpxtpx:hr>116</gpxtpx:hr></gpxtpx:TrackPointExtension></extensions></trkpt><trkpt lat="60.243697" lon="24.877845"><ele>22.9</ele><time>2026-08-30T08:48:07Z</time><extensions><gpxtpx:TrackPointExtension><gpxtpx:hr>118</gpxtpx:hr></gpxtpx:TrackPointExtension></extensions></trkpt><trkpt lat="60.243697" lon="24.877845"><ele>22.9</ele><time>2026-08-30T08:48:12Z</time><extensions><gpxtpx:TrackPointExtension><gpxtpx:hr>121</gpxtpx:hr></gpxtpx:TrackPointExtension></extensions></trkpt><trkpt lat="60.243697" lon="24.877845"><ele>22.9</ele><time>2026-08-30T08:48:13Z</time><extensions><gpxtpx:TrackPointExtension><gpxtpx:hr>120</gpxtpx:hr></gpxtpx:TrackPointExtension></extensions></trkpt><trkpt lat="60.243697" lon="24.877845"><ele>22.9</ele><time>2026-08-30T08:48:20Z</time><extensions><gpxtpx:TrackPointExtension><gpxtpx:hr>127</gpxtpx:hr></gpxtpx:TrackPointExtension></extensions></trkpt><trkpt lat="60.243697" lon="24.877845"><ele>22.9</ele><time>2026-08-30T08:48:23Z</time><extensions><gpxtpx:TrackPointExtension><gpxtpx:hr>128</gpxtpx:hr></gpxtpx:TrackPointExtension></extensions></trkpt><trkpt lat="60.243697" lon="24.877845"><ele>22.9</ele><time>2026-08-30T08:48:28Z</time><extensions><gpxtpx:TrackPointExtension><gpxtpx:hr>128</gpxtpx:hr></gpxtpx:TrackPointExtension></extensions></trkpt><trkpt lat="60.243697" lon="24.877845"><ele>22.9</ele><time>2026-08-30T08:48:37Z</time><extensions><gpxtpx:TrackPointExtension><gpxtpx:hr>130</gpxtpx:hr></gpxtpx:TrackPointExtension></extensions></trkpt><trkpt lat="60.243697" lon="24.877845"><ele>22.9</ele><time>2026-08-30T08:48:42Z</time><extensions><gpxtpx:TrackPointExtension><gpxtpx:hr>128</gpxtpx:hr></gpxtpx:TrackPointExtension></extensions></trkpt><trkpt lat="60.243697" lon="24.877845"><ele>22.9</ele><time>2026-08-30T08:48:43Z</time><extensions><gpxtpx:TrackPointExtension><gpxtpx:hr>128</gpxtpx:hr></gpxtpx:TrackPointExtension></extensions></trkpt><trkpt lat="60.243697" lon="24.877845"><ele>22.9</ele><time>2026-08-30T08:48:48Z</time><extensions><gpxtpx:TrackPointExtension><gpxtpx:hr>127</gpxtpx:hr></gpxtpx:TrackPointExtension></extensions></trkpt><trkpt lat="60.243697" lon="24.877845"><ele>22.9</ele><time>2026-08-30T08:48:53Z</time><extensions><gpxtpx:TrackPointExtension><gpxtpx:hr>125</gpxtpx:hr></gpxtpx:TrackPointExtension></extensions></trkpt><trkpt lat="60.243697" lon="24.877845"><ele>22.9</ele><time>2026-08-30T08:48:58Z</time><extensions><gpxtpx:TrackPointExtension><gpxtpx:hr>121</gpxtpx:hr></gpxtpx:TrackPointExtension></extensions></trkpt><trkpt lat="60.243697" lon="24.877845"><ele>22.9</ele><time>2026-08-30T08:49:03Z</time><extensions><gpxtpx:TrackPointExtension><gpxtpx:hr>121</gpxtpx:hr></gpxtpx:TrackPointExtension></extensions></trkpt><trkpt lat="60.243697" lon="24.877845"><ele>22.9</ele><time>2026-08-30T08:49:08Z</time><extensions><gpxtpx:TrackPointExtension><gpxtpx:hr>123</gpxtpx:hr></gpxtpx:TrackPointExtension></extensions></trkpt><trkpt lat="60.243697" lon="24.877845"><ele>22.9</ele><time>2026-08-30T08:49:17Z</time><extensions><gpxtpx:TrackPointExtension><gpxtpx:hr>124</gpxtpx:hr></gpxtpx:TrackPointExtension></extensions></trkpt><trkpt lat="60.243697" lon="24.877845"><ele>22.9</ele><time>2026-08-30T08:49:22Z</time><extensions><gpxtpx:TrackPointExtension><gpxtpx:hr>123</gpxtpx:hr></gpxtpx:TrackPointExtension></extensions></trkpt><trkpt lat="60.243697" lon="24.877845"><ele>22.9</ele><time>2026-08-30T08:49:27Z</time><extensions><gpxtpx:TrackPointExtension><gpxtpx:hr>124</gpxtpx:hr></gpxtpx:TrackPointExtension></extensions></trkpt><trkpt lat="60.243697" lon="24.877845"><ele>22.9</ele><time>2026-08-30T08:49:28Z</time><extensions><gpxtpx:TrackPointExtension><gpxtpx:hr>124</gpxtpx:hr></gpxtpx:TrackPointExtension></extensions></trkpt><trkpt lat="60.243697" lon="24.877845"><ele>22.9</ele><time>2026-08-30T08:49:37Z</time><extensions><gpxtpx:TrackPointExtension><gpxtpx:hr>119</gpxtpx:hr></gpxtpx:TrackPointExtension></extensions></trkpt><trkpt lat="60.243697" lon="24.877845"><ele>22.9</ele><time>2026-08-30T08:49:42Z</time><extensions><gpxtpx:TrackPointExtension><gpxtpx:hr>116</gpxtpx:hr></gpxtpx:TrackPointExtension></extensions></trkpt><trkpt lat="60.243697" lon="24.877845"><ele>22.9</ele><time>2026-08-30T08:49:47Z</time><extensions><gpxtpx:TrackPointExtension><gpxtpx:hr>114</gpxtpx:hr></gpxtpx:TrackPointExtension></extensions></trkpt><trkpt lat="60.243697" lon="24.877845"><ele>22.9</ele><time>2026-08-30T08:49:48Z</time><extensions><gpxtpx:TrackPointExtension><gpxtpx:hr>114</gpxtpx:hr></gpxtpx:TrackPointExtension></extensions></trkpt><trkpt lat="60.243697" lon="24.877845"><ele>22.9</ele><time>2026-08-30T08:49:53Z</time><extensions><gpxtpx:TrackPointExtension><gpxtpx:hr>114</gpxtpx:hr></gpxtpx:TrackPointExtension></extensions></trkpt><trkpt lat="60.243697" lon="24.877845"><ele>22.9</ele><time>2026-08-30T08:49:59Z</time><extensions><gpxtpx:TrackPointExtension><gpxtpx:hr>113</gpxtpx:hr></gpxtpx:TrackPointExtension></extensions></trkpt><trkpt lat="60.243697" lon="24.877845"><ele>22.9</ele><time>2026-08-30T08:50:06Z</time><extensions><gpxtpx:TrackPointExtension><gpxtpx:hr>114</gpxtpx:hr></gpxtpx:TrackPointExtension></extensions></trkpt><trkpt lat="60.243697" lon="24.877845"><ele>22.9</ele><time>2026-08-30T08:50:08Z</time><extensions><gpxtpx:TrackPointExtension><gpxtpx:hr>114</gpxtpx:hr></gpxtpx:TrackPointExtension></extensions></trkpt><trkpt lat="60.243697" lon="24.877845"><ele>22.9</ele><time>2026-08-30T08:50:13Z</time><extensions><gpxtpx:TrackPointExtension><gpxtpx:hr>116</gpxtpx:hr></gpxtpx:TrackPointExtension></extensions></trkpt><trkpt lat="60.243697" lon="24.877845"><ele>22.9</ele><time>2026-08-30T08:50:19Z</time><extensions><gpxtpx:TrackPointExtension><gpxtpx:hr>116</gpxtpx:hr></gpxtpx:TrackPointExtension></extensions></trkpt><trkpt lat="60.243697" lon="24.877845"><ele>22.9</ele><time>2026-08-30T08:50:27Z</time><extensions><gpxtpx:TrackPointExtension><gpxtpx:hr>119</gpxtpx:hr></gpxtpx:TrackPointExtension></extensions></trkpt><trkpt lat="60.243697" lon="24.877845"><ele>22.9</ele><time>2026-08-30T08:50:31Z</time><extensions><gpxtpx:TrackPointExtension><gpxtpx:hr>119</gpxtpx:hr></gpxtpx:TrackPointExtension></extensions></trkpt><trkpt lat="60.243697" lon="24.877845"><ele>22.9</ele><time>2026-08-30T08:50:34Z</time><extensions><gpxtpx:TrackPointExtension><gpxtpx:hr>121</gpxtpx:hr></gpxtpx:TrackPointExtension></extensions></trkpt><trkpt lat="60.243697" lon="24.877845"><ele>22.9</ele><time>2026-08-30T08:50:40Z</time><extensions><gpxtpx:TrackPointExtension><gpxtpx:hr>124</gpxtpx:hr></gpxtpx:TrackPointExtension></extensions></trkpt><trkpt lat="60.243697" lon="24.877845"><ele>22.9</ele><time>2026-08-30T08:50:45Z</time><extensions><gpxtpx:TrackPointExtension><gpxtpx:hr>123</gpxtpx:hr></gpxtpx:TrackPointExtension></extensions></trkpt><trkpt lat="60.243697" lon="24.877845"><ele>22.9</ele><time>2026-08-30T08:50:51Z</time><extensions><gpxtpx:TrackPointExtension><gpxtpx:hr>120</gpxtpx:hr></gpxtpx:TrackPointExtension></extensions></trkpt><trkpt lat="60.243697" lon="24.877845"><ele>22.9</ele><time>2026-08-30T08:50:53Z</time><extensions><gpxtpx:TrackPointExtension><gpxtpx:hr>120</gpxtpx:hr></gpxtpx:TrackPointExtension></extensions></trkpt><trkpt lat="60.243697" lon="24.877845"><ele>22.9</ele><time>2026-08-30T08:51:02Z</time><extensions><gpxtpx:TrackPointExtension><gpxtpx:hr>125</gpxtpx:hr></gpxtpx:TrackPointExtension></extensions></trkpt><trkpt lat="60.243697" lon="24.877845"><ele>22.9</ele><time>2026-08-30T08:51:03Z</time><extensions><gpxtpx:TrackPointExtension><gpxtpx:hr>125</gpxtpx:hr></gpxtpx:TrackPointExtension></extensions></trkpt><trkpt lat="60.243697" lon="24.877845"><ele>22.9</ele><time>2026-08-30T08:51:08Z</time><extensions><gpxtpx:TrackPointExtension><gpxtpx:hr>122</gpxtpx:hr></gpxtpx:TrackPointExtension></extensions></trkpt><trkpt lat="60.243697" lon="24.877845"><ele>22.9</ele><time>2026-08-30T08:51:13Z</time><extensions><gpxtpx:TrackPointExtension><gpxtpx:hr>120</gpxtpx:hr></gpxtpx:TrackPointExtension></extensions></trkpt><trkpt lat="60.243697" lon="24.877845"><ele>22.9</ele><time>2026-08-30T08:51:22Z</time><extensions><gpxtpx:TrackPointExtension><gpxtpx:hr>124</gpxtpx:hr></gpxtpx:TrackPointExtension></extensions></trkpt><trkpt lat="60.243697" lon="24.877845"><ele>22.9</ele><time>2026-08-30T08:51:27Z</time><extensions><gpxtpx:TrackPointExtension><gpxtpx:hr>122</gpxtpx:hr></gpxtpx:TrackPointExtension></extensions></trkpt><trkpt lat="60.243697" lon="24.877845"><ele>22.9</ele><time>2026-08-30T08:51:28Z</time><extensions><gpxtpx:TrackPointExtension><gpxtpx:hr>122</gpxtpx:hr></gpxtpx:TrackPointExtension></extensions></trkpt><trkpt lat="60.243697" lon="24.877845"><ele>22.9</ele><time>2026-08-30T08:51:35Z</time><extensions><gpxtpx:TrackPointExtension><gpxtpx:hr>115</gpxtpx:hr></gpxtpx:TrackPointExtension></extensions></trkpt><trkpt lat="60.243697" lon="24.877845"><ele>22.9</ele><time>2026-08-30T08:51:42Z</time><extensions><gpxtpx:TrackPointExtension><gpxtpx:hr>112</gpxtpx:hr></gpxtpx:TrackPointExtension></extensions></trkpt><trkpt lat="60.243697" lon="24.877845"><ele>22.9</ele><time>2026-08-30T08:51:47Z</time><extensions><gpxtpx:TrackPointExtension><gpxtpx:hr>109</gpxtpx:hr></gpxtpx:TrackPointExtension></extensions></trkpt><trkpt lat="60.243697" lon="24.877845"><ele>22.9</ele><time>2026-08-30T08:51:51Z</time><extensions><gpxtpx:TrackPointExtension><gpxtpx:hr>112</gpxtpx:hr></gpxtpx:TrackPointExtension></extensions></trkpt><trkpt lat="60.243697" lon="24.877845"><ele>22.9</ele><time>2026-08-30T08:51:54Z</time><extensions><gpxtpx:TrackPointExtension><gpxtpx:hr>116</gpxtpx:hr></gpxtpx:TrackPointExtension></extensions></trkpt><trkpt lat="60.243697" lon="24.877845"><ele>22.9</ele><time>2026-08-30T08:51:58Z</time><extensions><gpxtpx:TrackPointExtension><gpxtpx:hr>120</gpxtpx:hr></gpxtpx:TrackPointExtension></extensions></trkpt><trkpt lat="60.243697" lon="24.877845"><ele>22.9</ele><time>2026-08-30T08:52:03Z</time><extensions><gpxtpx:TrackPointExtension><gpxtpx:hr>119</gpxtpx:hr></gpxtpx:TrackPointExtension></extensions></trkpt><trkpt lat="60.243697" lon="24.877845"><ele>22.9</ele><time>2026-08-30T08:52:10Z</time><extensions><gpxtpx:TrackPointExtension><gpxtpx:hr>114</gpxtpx:hr></gpxtpx:TrackPointExtension></extensions></trkpt><trkpt lat="60.243697" lon="24.877845"><ele>22.9</ele><time>2026-08-30T08:52:17Z</time><extensions><gpxtpx:TrackPointExtension><gpxtpx:hr>116</gpxtpx:hr></gpxtpx:TrackPointExtension></extensions></trkpt><trkpt lat="60.243697" lon="24.877845"><ele>22.9</ele><time>2026-08-30T08:52:20Z</time><extensions><gpxtpx:TrackPointExtension><gpxtpx:hr>114</gpxtpx:hr></gpxtpx:TrackPointExtension></extensions></trkpt><trkpt lat="60.243697" lon="24.877845"><ele>22.9</ele><time>2026-08-30T08:52:27Z</time><extensions><gpxtpx:TrackPointExtension><gpxtpx:hr>113</gpxtpx:hr></gpxtpx:TrackPointExtension></extensions></trkpt><trkpt lat="60.243697" lon="24.877845"><ele>22.9</ele><time>2026-08-30T08:52:28Z</time><extensions><gpxtpx:TrackPointExtension><gpxtpx:hr>113</gpxtpx:hr></gpxtpx:TrackPointExtension></extensions></trkpt><trkpt lat="60.243697" lon="24.877845"><ele>22.9</ele><time>2026-08-30T08:52:33Z</time><extensions><gpxtpx:TrackPointExtension><gpxtpx:hr>108</gpxtpx:hr></gpxtpx:TrackPointExtension></extensions></trkpt><trkpt lat="60.243697" lon="24.877845"><ele>22.9</ele><time>2026-08-30T08:52:38Z</time><extensions><gpxtpx:TrackPointExtension><gpxtpx:hr>105</gpxtpx:hr></gpxtpx:TrackPointExtension></extensions></trkpt><trkpt lat="60.243697" lon="24.877845"><ele>22.9</ele><time>2026-08-30T08:52:46Z</time><extensions><gpxtpx:TrackPointExtension><gpxtpx:hr>117</gpxtpx:hr></gpxtpx:TrackPointExtension></extensions></trkpt><trkpt lat="60.243697" lon="24.877845"><ele>22.9</ele><time>2026-08-30T08:52:52Z</time><extensions><gpxtpx:TrackPointExtension><gpxtpx:hr>109</gpxtpx:hr></gpxtpx:TrackPointExtension></extensions></trkpt><trkpt lat="60.243697" lon="24.877845"><ele>22.9</ele><time>2026-08-30T08:52:54Z</time><extensions><gpxtpx:TrackPointExtension><gpxtpx:hr>109</gpxtpx:hr></gpxtpx:TrackPointExtension></extensions></trkpt><trkpt lat="60.243697" lon="24.877845"><ele>22.9</ele><time>2026-08-30T08:53:02Z</time><extensions><gpxtpx:TrackPointExtension><gpxtpx:hr>113</gpxtpx:hr></gpxtpx:TrackPointExtension></extensions></trkpt><trkpt lat="60.243697" lon="24.877845"><ele>22.9</ele><time>2026-08-30T08:53:06Z</time><extensions><gpxtpx:TrackPointExtension><gpxtpx:hr>112</gpxtpx:hr></gpxtpx:TrackPointExtension></extensions></trkpt><trkpt lat="60.243697" lon="24.877845"><ele>22.9</ele><time>2026-08-30T08:53:12Z</time><extensions><gpxtpx:TrackPointExtension><gpxtpx:hr>113</gpxtpx:hr></gpxtpx:TrackPointExtension></extensions></trkpt><trkpt lat="60.243697" lon="24.877845"><ele>22.9</ele><time>2026-08-30T08:53:14Z</time><extensions><gpxtpx:TrackPointExtension><gpxtpx:hr>112</gpxtpx:hr></gpxtpx:TrackPointExtension></extensions></trkpt><trkpt lat="60.243697" lon="24.877845"><ele>22.9</ele><time>2026-08-30T08:53:18Z</time><extensions><gpxtpx:TrackPointExtension><gpxtpx:hr>115</gpxtpx:hr></gpxtpx:TrackPointExtension></extensions></trkpt><trkpt lat="60.243697" lon="24.877845"><ele>22.9</ele><time>2026-08-30T08:53:27Z</time><extensions><gpxtpx:TrackPointExtension><gpxtpx:hr>106</gpxtpx:hr></gpxtpx:TrackPointExtension></extensions></trkpt><trkpt lat="60.243697" lon="24.877845"><ele>22.9</ele><time>2026-08-30T08:53:28Z</time><extensions><gpxtpx:TrackPointExtension><gpxtpx:hr>106</gpxtpx:hr></gpxtpx:TrackPointExtension></extensions></trkpt><trkpt lat="60.243697" lon="24.877845"><ele>22.9</ele><time>2026-08-30T08:53:37Z</time><extensions><gpxtpx:TrackPointExtension><gpxtpx:hr>101</gpxtpx:hr></gpxtpx:TrackPointExtension></extensions></trkpt><trkpt lat="60.243697" lon="24.877845"><ele>22.9</ele><time>2026-08-30T08:53:39Z</time><extensions><gpxtpx:TrackPointExtension><gpxtpx:hr>100</gpxtpx:hr></gpxtpx:TrackPointExtension></extensions></trkpt><trkpt lat="60.243697" lon="24.877845"><ele>22.9</ele><time>2026-08-30T08:53:47Z</time><extensions><gpxtpx:TrackPointExtension><gpxtpx:hr>103</gpxtpx:hr></gpxtpx:TrackPointExtension></extensions></trkpt><trkpt lat="60.243697" lon="24.877845"><ele>22.9</ele><time>2026-08-30T08:53:48Z</time><extensions><gpxtpx:TrackPointExtension><gpxtpx:hr>102</gpxtpx:hr></gpxtpx:TrackPointExtension></extensions></trkpt><trkpt lat="60.243697" lon="24.877845"><ele>22.9</ele><time>2026-08-30T08:53:53Z</time><extensions><gpxtpx:TrackPointExtension><gpxtpx:hr>105</gpxtpx:hr></gpxtpx:TrackPointExtension></extensions></trkpt><trkpt lat="60.243697" lon="24.877845"><ele>22.9</ele><time>2026-08-30T08:53:58Z</time><extensions><gpxtpx:TrackPointExtension><gpxtpx:hr>105</gpxtpx:hr></gpxtpx:TrackPointExtension></extensions></trkpt><trkpt lat="60.243697" lon="24.877845"><ele>22.9</ele><time>2026-08-30T08:54:07Z</time><extensions><gpxtpx:TrackPointExtension><gpxtpx:hr>107</gpxtpx:hr></gpxtpx:TrackPointExtension></extensions></trkpt><trkpt lat="60.243697" lon="24.877845"><ele>22.9</ele><time>2026-08-30T08:54:11Z</time><extensions><gpxtpx:TrackPointExtension><gpxtpx:hr>106</gpxtpx:hr></gpxtpx:TrackPointExtension></extensions></trkpt><trkpt lat="60.243697" lon="24.877845"><ele>22.9</ele><time>2026-08-30T08:54:14Z</time><extensions><gpxtpx:TrackPointExtension><gpxtpx:hr>105</gpxtpx:hr></gpxtpx:TrackPointExtension></extensions></trkpt><trkpt lat="60.243697" lon="24.877845"><ele>22.9</ele><time>2026-08-30T08:54:18Z</time><extensions><gpxtpx:TrackPointExtension><gpxtpx:hr>106</gpxtpx:hr></gpxtpx:TrackPointExtension></extensions></trkpt><trkpt lat="60.243697" lon="24.877845"><ele>22.9</ele><time>2026-08-30T08:54:23Z</time><extensions><gpxtpx:TrackPointExtension><gpxtpx:hr>108</gpxtpx:hr></gpxtpx:TrackPointExtension></extensions></trkpt><trkpt lat="60.243697" lon="24.877845"><ele>22.9</ele><time>2026-08-30T08:54:32Z</time><extensions><gpxtpx:TrackPointExtension><gpxtpx:hr>110</gpxtpx:hr></gpxtpx:TrackPointExtension></extensions></trkpt><trkpt lat="60.243697" lon="24.877845"><ele>22.9</ele><time>2026-08-30T08:54:36Z</time><extensions><gpxtpx:TrackPointExtension><gpxtpx:hr>108</gpxtpx:hr></gpxtpx:TrackPointExtension></extensions></trkpt><trkpt lat="60.243697" lon="24.877845"><ele>22.9</ele><time>2026-08-30T08:54:38Z</time><extensions><gpxtpx:TrackPointExtension><gpxtpx:hr>109</gpxtpx:hr></gpxtpx:TrackPointExtension></extensions></trkpt><trkpt lat="60.243697" lon="24.877845"><ele>22.9</ele><time>2026-08-30T08:54:43Z</time><extensions><gpxtpx:TrackPointExtension><gpxtpx:hr>111</gpxtpx:hr></gpxtpx:TrackPointExtension></extensions></trkpt><trkpt lat="60.243697" lon="24.877845"><ele>22.9</ele><time>2026-08-30T08:54:52Z</time><extensions><gpxtpx:TrackPointExtension><gpxtpx:hr>111</gpxtpx:hr></gpxtpx:TrackPointExtension></extensions></trkpt><trkpt lat="60.243697" lon="24.877845"><ele>22.9</ele><time>2026-08-30T08:54:57Z</time><extensions><gpxtpx:TrackPointExtension><gpxtpx:hr>110</gpxtpx:hr></gpxtpx:TrackPointExtension></extensions></trkpt><trkpt lat="60.243697" lon="24.877845"><ele>22.9</ele><time>2026-08-30T08:55:02Z</time><extensions><gpxtpx:TrackPointExtension><gpxtpx:hr>110</gpxtpx:hr></gpxtpx:TrackPointExtension></extensions></trkpt><trkpt lat="60.243697" lon="24.877845"><ele>22.9</ele><time>2026-08-30T08:55:03Z</time><extensions><gpxtpx:TrackPointExtension><gpxtpx:hr>111</gpxtpx:hr></gpxtpx:TrackPointExtension></extensions></trkpt><trkpt lat="60.243697" lon="24.877845"><ele>22.9</ele><time>2026-08-30T08:55:08Z</time><extensions><gpxtpx:TrackPointExtension><gpxtpx:hr>113</gpxtpx:hr></gpxtpx:TrackPointExtension></extensions></trkpt><trkpt lat="60.243697" lon="24.877845"><ele>22.9</ele><time>2026-08-30T08:55:17Z</time><extensions><gpxtpx:TrackPointExtension><gpxtpx:hr>108</gpxtpx:hr></gpxtpx:TrackPointExtension></extensions></trkpt><trkpt lat="60.243697" lon="24.877845"><ele>22.9</ele><time>2026-08-30T08:55:18Z</time><extensions><gpxtpx:TrackPointExtension><gpxtpx:hr>108</gpxtpx:hr></gpxtpx:TrackPointExtension></extensions></trkpt><trkpt lat="60.243697" lon="24.877845"><ele>22.9</ele><time>2026-08-30T08:55:23Z</time><extensions><gpxtpx:TrackPointExtension><gpxtpx:hr>108</gpxtpx:hr></gpxtpx:TrackPointExtension></extensions></trkpt><trkpt lat="60.243697" lon="24.877845"><ele>22.9</ele><time>2026-08-30T08:55:28Z</time><extensions><gpxtpx:TrackPointExtension><gpxtpx:hr>109</gpxtpx:hr></gpxtpx:TrackPointExtension></extensions></trkpt><trkpt lat="60.243697" lon="24.877845"><ele>22.9</ele><time>2026-08-30T08:55:34Z</time><extensions><gpxtpx:TrackPointExtension><gpxtpx:hr>114</gpxtpx:hr></gpxtpx:TrackPointExtension></extensions></trkpt><trkpt lat="60.243697" lon="24.877845"><ele>22.9</ele><time>2026-08-30T08:55:41Z</time><extensions><gpxtpx:TrackPointExtension><gpxtpx:hr>116</gpxtpx:hr></gpxtpx:TrackPointExtension></extensions></trkpt><trkpt lat="60.243697" lon="24.877845"><ele>22.9</ele><time>2026-08-30T08:55:43Z</time><extensions><gpxtpx:TrackPointExtension><gpxtpx:hr>118</gpxtpx:hr></gpxtpx:TrackPointExtension></extensions></trkpt><trkpt lat="60.243697" lon="24.877845"><ele>22.9</ele><time>2026-08-30T08:55:49Z</time><extensions><gpxtpx:TrackPointExtension><gpxtpx:hr>119</gpxtpx:hr></gpxtpx:TrackPointExtension></extensions></trkpt><trkpt lat="60.243697" lon="24.877845"><ele>22.9</ele><time>2026-08-30T08:55:53Z</time><extensions><gpxtpx:TrackPointExtension><gpxtpx:hr>120</gpxtpx:hr></gpxtpx:TrackPointExtension></extensions></trkpt><trkpt lat="60.243697" lon="24.877845"><ele>22.9</ele><time>2026-08-30T08:55:59Z</time><extensions><gpxtpx:TrackPointExtension><gpxtpx:hr>121</gpxtpx:hr></gpxtpx:TrackPointExtension></extensions></trkpt><trkpt lat="60.243697" lon="24.877845"><ele>22.9</ele><time>2026-08-30T08:56:03Z</time><extensions><gpxtpx:TrackPointExtension><gpxtpx:hr>123</gpxtpx:hr></gpxtpx:TrackPointExtension></extensions></trkpt><trkpt lat="60.243697" lon="24.877845"><ele>22.9</ele><time>2026-08-30T08:56:12Z</time><extensions><gpxtpx:TrackPointExtension><gpxtpx:hr>123</gpxtpx:hr></gpxtpx:TrackPointExtension></extensions></trkpt><trkpt lat="60.243697" lon="24.877845"><ele>22.9</ele><time>2026-08-30T08:56:14Z</time><extensions><gpxtpx:TrackPointExtension><gpxtpx:hr>124</gpxtpx:hr></gpxtpx:TrackPointExtension></extensions></trkpt><trkpt lat="60.243697" lon="24.877845"><ele>22.9</ele><time>2026-08-30T08:56:20Z</time><extensions><gpxtpx:TrackPointExtension><gpxtpx:hr>122</gpxtpx:hr></gpxtpx:TrackPointExtension></extensions></trkpt><trkpt lat="60.243697" lon="24.877845"><ele>22.9</ele><time>2026-08-30T08:56:23Z</time><extensions><gpxtpx:TrackPointExtension><gpxtpx:hr>122</gpxtpx:hr></gpxtpx:TrackPointExtension></extensions></trkpt><trkpt lat="60.243697" lon="24.877845"><ele>22.9</ele><time>2026-08-30T08:56:32Z</time><extensions><gpxtpx:TrackPointExtension><gpxtpx:hr>106</gpxtpx:hr></gpxtpx:TrackPointExtension></extensions></trkpt><trkpt lat="60.243697" lon="24.877845"><ele>22.9</ele><time>2026-08-30T08:56:33Z</time><extensions><gpxtpx:TrackPointExtension><gpxtpx:hr>105</gpxtpx:hr></gpxtpx:TrackPointExtension></extensions></trkpt><trkpt lat="60.243697" lon="24.877845"><ele>22.9</ele><time>2026-08-30T08:56:41Z</time><extensions><gpxtpx:TrackPointExtension><gpxtpx:hr>108</gpxtpx:hr></gpxtpx:TrackPointExtension></extensions></trkpt><trkpt lat="60.243697" lon="24.877845"><ele>22.9</ele><time>2026-08-30T08:56:47Z</time><extensions><gpxtpx:TrackPointExtension><gpxtpx:hr>107</gpxtpx:hr></gpxtpx:TrackPointExtension></extensions></trkpt><trkpt lat="60.243697" lon="24.877845"><ele>22.9</ele><time>2026-08-30T08:56:48Z</time><extensions><gpxtpx:TrackPointExtension><gpxtpx:hr>108</gpxtpx:hr></gpxtpx:TrackPointExtension></extensions></trkpt><trkpt lat="60.243697" lon="24.877845"><ele>22.9</ele><time>2026-08-30T08:56:53Z</time><extensions><gpxtpx:TrackPointExtension><gpxtpx:hr>108</gpxtpx:hr></gpxtpx:TrackPointExtension></extensions></trkpt><trkpt lat="60.243697" lon="24.877845"><ele>22.9</ele><time>2026-08-30T08:56:58Z</time><extensions><gpxtpx:TrackPointExtension><gpxtpx:hr>108</gpxtpx:hr></gpxtpx:TrackPointExtension></extensions></trkpt><trkpt lat="60.243697" lon="24.877845"><ele>22.9</ele><time>2026-08-30T08:57:03Z</time><extensions><gpxtpx:TrackPointExtension><gpxtpx:hr>111</gpxtpx:hr></gpxtpx:TrackPointExtension></extensions></trkpt><trkpt lat="60.243697" lon="24.877845"><ele>22.9</ele><time>2026-08-30T08:57:09Z</time><extensions><gpxtpx:TrackPointExtension><gpxtpx:hr>115</gpxtpx:hr></gpxtpx:TrackPointExtension></extensions></trkpt><trkpt lat="60.243697" lon="24.877845"><ele>22.9</ele><time>2026-08-30T08:57:17Z</time><extensions><gpxtpx:TrackPointExtension><gpxtpx:hr>112</gpxtpx:hr></gpxtpx:TrackPointExtension></extensions></trkpt><trkpt lat="60.243697" lon="24.877845"><ele>22.9</ele><time>2026-08-30T08:57:22Z</time><extensions><gpxtpx:TrackPointExtension><gpxtpx:hr>111</gpxtpx:hr></gpxtpx:TrackPointExtension></extensions></trkpt><trkpt lat="60.243697" lon="24.877845"><ele>22.9</ele><time>2026-08-30T08:57:27Z</time><extensions><gpxtpx:TrackPointExtension><gpxtpx:hr>113</gpxtpx:hr></gpxtpx:TrackPointExtension></extensions></trkpt><trkpt lat="60.243697" lon="24.877845"><ele>22.9</ele><time>2026-08-30T08:57:28Z</time><extensions><gpxtpx:TrackPointExtension><gpxtpx:hr>114</gpxtpx:hr></gpxtpx:TrackPointExtension></extensions></trkpt><trkpt lat="60.243697" lon="24.877845"><ele>22.9</ele><time>2026-08-30T08:57:33Z</time><extensions><gpxtpx:TrackPointExtension><gpxtpx:hr>117</gpxtpx:hr></gpxtpx:TrackPointExtension></extensions></trkpt><trkpt lat="60.243697" lon="24.877845"><ele>22.9</ele><time>2026-08-30T08:57:38Z</time><extensions><gpxtpx:TrackPointExtension><gpxtpx:hr>120</gpxtpx:hr></gpxtpx:TrackPointExtension></extensions></trkpt><trkpt lat="60.243697" lon="24.877845"><ele>22.9</ele><time>2026-08-30T08:57:47Z</time><extensions><gpxtpx:TrackPointExtension><gpxtpx:hr>123</gpxtpx:hr></gpxtpx:TrackPointExtension></extensions></trkpt><trkpt lat="60.243697" lon="24.877845"><ele>22.9</ele><time>2026-08-30T08:57:51Z</time><extensions><gpxtpx:TrackPointExtension><gpxtpx:hr>122</gpxtpx:hr></gpxtpx:TrackPointExtension></extensions></trkpt><trkpt lat="60.243697" lon="24.877845"><ele>22.9</ele><time>2026-08-30T08:57:55Z</time><extensions><gpxtpx:TrackPointExtension><gpxtpx:hr>122</gpxtpx:hr></gpxtpx:TrackPointExtension></extensions></trkpt><trkpt lat="60.243697" lon="24.877845"><ele>22.9</ele><time>2026-08-30T08:57:58Z</time><extensions><gpxtpx:TrackPointExtension><gpxtpx:hr>122</gpxtpx:hr></gpxtpx:TrackPointExtension></extensions></trkpt><trkpt lat="60.243697" lon="24.877845"><ele>22.9</ele><time>2026-08-30T08:58:07Z</time><extensions><gpxtpx:TrackPointExtension><gpxtpx:hr>123</gpxtpx:hr></gpxtpx:TrackPointExtension></extensions></trkpt><trkpt lat="60.243697" lon="24.877845"><ele>22.9</ele><time>2026-08-30T08:58:11Z</time><extensions><gpxtpx:TrackPointExtension><gpxtpx:hr>122</gpxtpx:hr></gpxtpx:TrackPointExtension></extensions></trkpt><trkpt lat="60.243697" lon="24.877845"><ele>22.9</ele><time>2026-08-30T08:58:16Z</time><extensions><gpxtpx:TrackPointExtension><gpxtpx:hr>124</gpxtpx:hr></gpxtpx:TrackPointExtension></extensions></trkpt><trkpt lat="60.243697" lon="24.877845"><ele>22.9</ele><time>2026-08-30T08:58:18Z</time><extensions><gpxtpx:TrackPointExtension><gpxtpx:hr>123</gpxtpx:hr></gpxtpx:TrackPointExtension></extensions></trkpt><trkpt lat="60.243697" lon="24.877845"><ele>22.9</ele><time>2026-08-30T08:58:24Z</time><extensions><gpxtpx:TrackPointExtension><gpxtpx:hr>124</gpxtpx:hr></gpxtpx:TrackPointExtension></extensions></trkpt><trkpt lat="60.243697" lon="24.877845"><ele>22.9</ele><time>2026-08-30T08:58:30Z</time><extensions><gpxtpx:TrackPointExtension><gpxtpx:hr>116</gpxtpx:hr></gpxtpx:TrackPointExtension></extensions></trkpt><trkpt lat="60.243697" lon="24.877845"><ele>22.9</ele><time>2026-08-30T08:58:47Z</time><extensions><gpxtpx:TrackPointExtension><gpxtpx:hr>102</gpxtpx:hr></gpxtpx:TrackPointExtension></extensions></trkpt><trkpt lat="60.243697" lon="24.877845"><ele>22.9</ele><time>2026-08-30T08:58:52Z</time><extensions><gpxtpx:TrackPointExtension><gpxtpx:hr>95</gpxtpx:hr></gpxtpx:TrackPointExtension></extensions></trkpt><trkpt lat="60.243697" lon="24.877845"><ele>22.9</ele><time>2026-08-30T08:58:53Z</time><extensions><gpxtpx:TrackPointExtension><gpxtpx:hr>96</gpxtpx:hr></gpxtpx:TrackPointExtension></extensions></trkpt><trkpt lat="60.243697" lon="24.877845"><ele>22.9</ele><time>2026-08-30T08:58:58Z</time><extensions><gpxtpx:TrackPointExtension><gpxtpx:hr>100</gpxtpx:hr></gpxtpx:TrackPointExtension></extensions></trkpt><trkpt lat="60.243697" lon="24.877845"><ele>22.9</ele><time>2026-08-30T08:59:03Z</time><extensions><gpxtpx:TrackPointExtension><gpxtpx:hr>107</gpxtpx:hr></gpxtpx:TrackPointExtension></extensions></trkpt><trkpt lat="60.243697" lon="24.877845"><ele>22.9</ele><time>2026-08-30T08:59:12Z</time><extensions><gpxtpx:TrackPointExtension><gpxtpx:hr>112</gpxtpx:hr></gpxtpx:TrackPointExtension></extensions></trkpt><trkpt lat="60.243697" lon="24.877845"><ele>22.9</ele><time>2026-08-30T08:59:15Z</time><extensions><gpxtpx:TrackPointExtension><gpxtpx:hr>111</gpxtpx:hr></gpxtpx:TrackPointExtension></extensions></trkpt><trkpt lat="60.243697" lon="24.877845"><ele>22.9</ele><time>2026-08-30T08:59:21Z</time><extensions><gpxtpx:TrackPointExtension><gpxtpx:hr>111</gpxtpx:hr></gpxtpx:TrackPointExtension></extensions></trkpt><trkpt lat="60.243697" lon="24.877845"><ele>22.9</ele><time>2026-08-30T08:59:27Z</time><extensions><gpxtpx:TrackPointExtension><gpxtpx:hr>114</gpxtpx:hr></gpxtpx:TrackPointExtension></extensions></trkpt><trkpt lat="60.243697" lon="24.877845"><ele>22.9</ele><time>2026-08-30T08:59:30Z</time><extensions><gpxtpx:TrackPointExtension><gpxtpx:hr>111</gpxtpx:hr></gpxtpx:TrackPointExtension></extensions></trkpt><trkpt lat="60.243697" lon="24.877845"><ele>22.9</ele><time>2026-08-30T08:59:34Z</time><extensions><gpxtpx:TrackPointExtension><gpxtpx:hr>112</gpxtpx:hr></gpxtpx:TrackPointExtension></extensions></trkpt><trkpt lat="60.243697" lon="24.877845"><ele>22.9</ele><time>2026-08-30T08:59:38Z</time><extensions><gpxtpx:TrackPointExtension><gpxtpx:hr>113</gpxtpx:hr></gpxtpx:TrackPointExtension></extensions></trkpt><trkpt lat="60.243697" lon="24.877845"><ele>22.9</ele><time>2026-08-30T08:59:47Z</time><extensions><gpxtpx:TrackPointExtension><gpxtpx:hr>115</gpxtpx:hr></gpxtpx:TrackPointExtension></extensions></trkpt><trkpt lat="60.243697" lon="24.877845"><ele>22.9</ele><time>2026-08-30T08:59:49Z</time><extensions><gpxtpx:TrackPointExtension><gpxtpx:hr>115</gpxtpx:hr></gpxtpx:TrackPointExtension></extensions></trkpt><trkpt lat="60.243697" lon="24.877845"><ele>22.9</ele><time>2026-08-30T08:59:57Z</time><extensions><gpxtpx:TrackPointExtension><gpxtpx:hr>107</gpxtpx:hr></gpxtpx:TrackPointExtension></extensions></trkpt><trkpt lat="60.243697" lon="24.877845"><ele>22.9</ele><time>2026-08-30T09:00:01Z</time><extensions><gpxtpx:TrackPointExtension><gpxtpx:hr>106</gpxtpx:hr></gpxtpx:TrackPointExtension></extensions></trkpt><trkpt lat="60.243697" lon="24.877845"><ele>22.9</ele><time>2026-08-30T09:00:07Z</time><extensions><gpxtpx:TrackPointExtension><gpxtpx:hr>107</gpxtpx:hr></gpxtpx:TrackPointExtension></extensions></trkpt><trkpt lat="60.243697" lon="24.877845"><ele>22.9</ele><time>2026-08-30T09:00:12Z</time><extensions><gpxtpx:TrackPointExtension><gpxtpx:hr>107</gpxtpx:hr></gpxtpx:TrackPointExtension></extensions></trkpt><trkpt lat="60.243697" lon="24.877845"><ele>22.9</ele><time>2026-08-30T09:00:13Z</time><extensions><gpxtpx:TrackPointExtension><gpxtpx:hr>108</gpxtpx:hr></gpxtpx:TrackPointExtension></extensions></trkpt><trkpt lat="60.243697" lon="24.877845"><ele>22.9</ele><time>2026-08-30T09:00:22Z</time><extensions><gpxtpx:TrackPointExtension><gpxtpx:hr>108</gpxtpx:hr></gpxtpx:TrackPointExtension></extensions></trkpt><trkpt lat="60.243697" lon="24.877845"><ele>22.9</ele><time>2026-08-30T09:00:24Z</time><extensions><gpxtpx:TrackPointExtension><gpxtpx:hr>107</gpxtpx:hr></gpxtpx:TrackPointExtension></extensions></trkpt><trkpt lat="60.243697" lon="24.877845"><ele>22.9</ele><time>2026-08-30T09:00:29Z</time><extensions><gpxtpx:TrackPointExtension><gpxtpx:hr>110</gpxtpx:hr></gpxtpx:TrackPointExtension></extensions></trkpt><trkpt lat="60.243697" lon="24.877845"><ele>22.9</ele><time>2026-08-30T09:00:34Z</time><extensions><gpxtpx:TrackPointExtension><gpxtpx:hr>112</gpxtpx:hr></gpxtpx:TrackPointExtension></extensions></trkpt><trkpt lat="60.243697" lon="24.877845"><ele>22.9</ele><time>2026-08-30T09:00:39Z</time><extensions><gpxtpx:TrackPointExtension><gpxtpx:hr>108</gpxtpx:hr></gpxtpx:TrackPointExtension></extensions></trkpt><trkpt lat="60.243697" lon="24.877845"><ele>22.9</ele><time>2026-08-30T09:00:43Z</time><extensions><gpxtpx:TrackPointExtension><gpxtpx:hr>103</gpxtpx:hr></gpxtpx:TrackPointExtension></extensions></trkpt><trkpt lat="60.243697" lon="24.877845"><ele>22.9</ele><time>2026-08-30T09:00:49Z</time><extensions><gpxtpx:TrackPointExtension><gpxtpx:hr>103</gpxtpx:hr></gpxtpx:TrackPointExtension></extensions></trkpt><trkpt lat="60.243697" lon="24.877845"><ele>22.9</ele><time>2026-08-30T09:00:53Z</time><extensions><gpxtpx:TrackPointExtension><gpxtpx:hr>103</gpxtpx:hr></gpxtpx:TrackPointExtension></extensions></trkpt><trkpt lat="60.243697" lon="24.877845"><ele>22.9</ele><time>2026-08-30T09:00:58Z</time><extensions><gpxtpx:TrackPointExtension><gpxtpx:hr>107</gpxtpx:hr></gpxtpx:TrackPointExtension></extensions></trkpt><trkpt lat="60.243697" lon="24.877845"><ele>22.9</ele><time>2026-08-30T09:01:03Z</time><extensions><gpxtpx:TrackPointExtension><gpxtpx:hr>114</gpxtpx:hr></gpxtpx:TrackPointExtension></extensions></trkpt><trkpt lat="60.243697" lon="24.877845"><ele>22.9</ele><time>2026-08-30T09:01:10Z</time><extensions><gpxtpx:TrackPointExtension><gpxtpx:hr>119</gpxtpx:hr></gpxtpx:TrackPointExtension></extensions></trkpt><trkpt lat="60.243697" lon="24.877845"><ele>22.9</ele><time>2026-08-30T09:01:15Z</time><extensions><gpxtpx:TrackPointExtension><gpxtpx:hr>120</gpxtpx:hr></gpxtpx:TrackPointExtension></extensions></trkpt><trkpt lat="60.243697" lon="24.877845"><ele>22.9</ele><time>2026-08-30T09:01:22Z</time><extensions><gpxtpx:TrackPointExtension><gpxtpx:hr>118</gpxtpx:hr></gpxtpx:TrackPointExtension></extensions></trkpt><trkpt lat="60.243697" lon="24.877845"><ele>22.9</ele><time>2026-08-30T09:01:24Z</time><extensions><gpxtpx:TrackPointExtension><gpxtpx:hr>117</gpxtpx:hr></gpxtpx:TrackPointExtension></extensions></trkpt><trkpt lat="60.243697" lon="24.877845"><ele>22.9</ele><time>2026-08-30T09:01:30Z</time><extensions><gpxtpx:TrackPointExtension><gpxtpx:hr>118</gpxtpx:hr></gpxtpx:TrackPointExtension></extensions></trkpt><trkpt lat="60.243697" lon="24.877845"><ele>22.9</ele><time>2026-08-30T09:01:33Z</time><extensions><gpxtpx:TrackPointExtension><gpxtpx:hr>120</gpxtpx:hr></gpxtpx:TrackPointExtension></extensions></trkpt><trkpt lat="60.243697" lon="24.877845"><ele>22.9</ele><time>2026-08-30T09:01:40Z</time><extensions><gpxtpx:TrackPointExtension><gpxtpx:hr>121</gpxtpx:hr></gpxtpx:TrackPointExtension></extensions></trkpt><trkpt lat="60.243697" lon="24.877845"><ele>22.9</ele><time>2026-08-30T09:01:47Z</time><extensions><gpxtpx:TrackPointExtension><gpxtpx:hr>120</gpxtpx:hr></gpxtpx:TrackPointExtension></extensions></trkpt><trkpt lat="60.243697" lon="24.877845"><ele>22.9</ele><time>2026-08-30T09:01:50Z</time><extensions><gpxtpx:TrackPointExtension><gpxtpx:hr>120</gpxtpx:hr></gpxtpx:TrackPointExtension></extensions></trkpt><trkpt lat="60.243697" lon="24.877845"><ele>22.9</ele><time>2026-08-30T09:01:57Z</time><extensions><gpxtpx:TrackPointExtension><gpxtpx:hr>119</gpxtpx:hr></gpxtpx:TrackPointExtension></extensions></trkpt><trkpt lat="60.243697" lon="24.877845"><ele>22.9</ele><time>2026-08-30T09:02:02Z</time><extensions><gpxtpx:TrackPointExtension><gpxtpx:hr>119</gpxtpx:hr></gpxtpx:TrackPointExtension></extensions></trkpt><trkpt lat="60.243697" lon="24.877845"><ele>22.9</ele><time>2026-08-30T09:02:04Z</time><extensions><gpxtpx:TrackPointExtension><gpxtpx:hr>119</gpxtpx:hr></gpxtpx:TrackPointExtension></extensions></trkpt><trkpt lat="60.243697" lon="24.877845"><ele>22.9</ele><time>2026-08-30T09:02:08Z</time><extensions><gpxtpx:TrackPointExtension><gpxtpx:hr>121</gpxtpx:hr></gpxtpx:TrackPointExtension></extensions></trkpt><trkpt lat="60.243697" lon="24.877845"><ele>22.9</ele><time>2026-08-30T09:02:13Z</time><extensions><gpxtpx:TrackPointExtension><gpxtpx:hr>116</gpxtpx:hr></gpxtpx:TrackPointExtension></extensions></trkpt><trkpt lat="60.243697" lon="24.877845"><ele>22.9</ele><time>2026-08-30T09:02:22Z</time><extensions><gpxtpx:TrackPointExtension><gpxtpx:hr>108</gpxtpx:hr></gpxtpx:TrackPointExtension></extensions></trkpt><trkpt lat="60.243697" lon="24.877845"><ele>22.9</ele><time>2026-08-30T09:02:27Z</time><extensions><gpxtpx:TrackPointExtension><gpxtpx:hr>104</gpxtpx:hr></gpxtpx:TrackPointExtension></extensions></trkpt><trkpt lat="60.243697" lon="24.877845"><ele>22.9</ele><time>2026-08-30T09:02:32Z</time><extensions><gpxtpx:TrackPointExtension><gpxtpx:hr>105</gpxtpx:hr></gpxtpx:TrackPointExtension></extensions></trkpt><trkpt lat="60.243697" lon="24.877845"><ele>22.9</ele><time>2026-08-30T09:02:33Z</time><extensions><gpxtpx:TrackPointExtension><gpxtpx:hr>106</gpxtpx:hr></gpxtpx:TrackPointExtension></extensions></trkpt><trkpt lat="60.243697" lon="24.877845"><ele>22.9</ele><time>2026-08-30T09:02:38Z</time><extensions><gpxtpx:TrackPointExtension><gpxtpx:hr>104</gpxtpx:hr></gpxtpx:TrackPointExtension></extensions></trkpt><trkpt lat="60.243697" lon="24.877845"><ele>22.9</ele><time>2026-08-30T09:02:43Z</time><extensions><gpxtpx:TrackPointExtension><gpxtpx:hr>105</gpxtpx:hr></gpxtpx:TrackPointExtension></extensions></trkpt><trkpt lat="60.243697" lon="24.877845"><ele>22.9</ele><time>2026-08-30T09:02:49Z</time><extensions><gpxtpx:TrackPointExtension><gpxtpx:hr>112</gpxtpx:hr></gpxtpx:TrackPointExtension></extensions></trkpt><trkpt lat="60.243697" lon="24.877845"><ele>22.9</ele><time>2026-08-30T09:02:53Z</time><extensions><gpxtpx:TrackPointExtension><gpxtpx:hr>115</gpxtpx:hr></gpxtpx:TrackPointExtension></extensions></trkpt><trkpt lat="60.243697" lon="24.877845"><ele>22.9</ele><time>2026-08-30T09:03:02Z</time><extensions><gpxtpx:TrackPointExtension><gpxtpx:hr>117</gpxtpx:hr></gpxtpx:TrackPointExtension></extensions></trkpt><trkpt lat="60.243697" lon="24.877845"><ele>22.9</ele><time>2026-08-30T09:03:07Z</time><extensions><gpxtpx:TrackPointExtension><gpxtpx:hr>119</gpxtpx:hr></gpxtpx:TrackPointExtension></extensions></trkpt><trkpt lat="60.243697" lon="24.877845"><ele>22.9</ele><time>2026-08-30T09:03:08Z</time><extensions><gpxtpx:TrackPointExtension><gpxtpx:hr>119</gpxtpx:hr></gpxtpx:TrackPointExtension></extensions></trkpt><trkpt lat="60.243697" lon="24.877845"><ele>22.9</ele><time>2026-08-30T09:03:17Z</time><extensions><gpxtpx:TrackPointExtension><gpxtpx:hr>119</gpxtpx:hr></gpxtpx:TrackPointExtension></extensions></trkpt><trkpt lat="60.243697" lon="24.877845"><ele>22.9</ele><time>2026-08-30T09:03:22Z</time><extensions><gpxtpx:TrackPointExtension><gpxtpx:hr>120</gpxtpx:hr></gpxtpx:TrackPointExtension></extensions></trkpt><trkpt lat="60.243697" lon="24.877845"><ele>22.9</ele><time>2026-08-30T09:03:25Z</time><extensions><gpxtpx:TrackPointExtension><gpxtpx:hr>121</gpxtpx:hr></gpxtpx:TrackPointExtension></extensions></trkpt><trkpt lat="60.243697" lon="24.877845"><ele>22.9</ele><time>2026-08-30T09:03:30Z</time><extensions><gpxtpx:TrackPointExtension><gpxtpx:hr>121</gpxtpx:hr></gpxtpx:TrackPointExtension></extensions></trkpt><trkpt lat="60.243697" lon="24.877845"><ele>22.9</ele><time>2026-08-30T09:03:33Z</time><extensions><gpxtpx:TrackPointExtension><gpxtpx:hr>122</gpxtpx:hr></gpxtpx:TrackPointExtension></extensions></trkpt><trkpt lat="60.243697" lon="24.877845"><ele>22.9</ele><time>2026-08-30T09:03:38Z</time><extensions><gpxtpx:TrackPointExtension><gpxtpx:hr>124</gpxtpx:hr></gpxtpx:TrackPointExtension></extensions></trkpt><trkpt lat="60.243697" lon="24.877845"><ele>22.9</ele><time>2026-08-30T09:03:46Z</time><extensions><gpxtpx:TrackPointExtension><gpxtpx:hr>119</gpxtpx:hr></gpxtpx:TrackPointExtension></extensions></trkpt><trkpt lat="60.243697" lon="24.877845"><ele>22.9</ele><time>2026-08-30T09:03:48Z</time><extensions><gpxtpx:TrackPointExtension><gpxtpx:hr>118</gpxtpx:hr></gpxtpx:TrackPointExtension></extensions></trkpt><trkpt lat="60.243697" lon="24.877845"><ele>22.9</ele><time>2026-08-30T09:03:53Z</time><extensions><gpxtpx:TrackPointExtension><gpxtpx:hr>118</gpxtpx:hr></gpxtpx:TrackPointExtension></extensions></trkpt><trkpt lat="60.243697" lon="24.877845"><ele>22.9</ele><time>2026-08-30T09:04:02Z</time><extensions><gpxtpx:TrackPointExtension><gpxtpx:hr>112</gpxtpx:hr></gpxtpx:TrackPointExtension></extensions></trkpt><trkpt lat="60.243697" lon="24.877845"><ele>22.9</ele><time>2026-08-30T09:04:03Z</time><extensions><gpxtpx:TrackPointExtension><gpxtpx:hr>111</gpxtpx:hr></gpxtpx:TrackPointExtension></extensions></trkpt><trkpt lat="60.243697" lon="24.877845"><ele>22.9</ele><time>2026-08-30T09:04:12Z</time><extensions><gpxtpx:TrackPointExtension><gpxtpx:hr>111</gpxtpx:hr></gpxtpx:TrackPointExtension></extensions></trkpt><trkpt lat="60.243697" lon="24.877845"><ele>22.9</ele><time>2026-08-30T09:04:17Z</time><extensions><gpxtpx:TrackPointExtension><gpxtpx:hr>113</gpxtpx:hr></gpxtpx:TrackPointExtension></extensions></trkpt><trkpt lat="60.243697" lon="24.877845"><ele>22.9</ele><time>2026-08-30T09:04:18Z</time><extensions><gpxtpx:TrackPointExtension><gpxtpx:hr>112</gpxtpx:hr></gpxtpx:TrackPointExtension></extensions></trkpt><trkpt lat="60.243697" lon="24.877845"><ele>22.9</ele><time>2026-08-30T09:04:23Z</time><extensions><gpxtpx:TrackPointExtension><gpxtpx:hr>106</gpxtpx:hr></gpxtpx:TrackPointExtension></extensions></trkpt><trkpt lat="60.243697" lon="24.877845"><ele>22.9</ele><time>2026-08-30T09:04:28Z</time><extensions><gpxtpx:TrackPointExtension><gpxtpx:hr>107</gpxtpx:hr></gpxtpx:TrackPointExtension></extensions></trkpt><trkpt lat="60.243697" lon="24.877845"><ele>22.9</ele><time>2026-08-30T09:04:33Z</time><extensions><gpxtpx:TrackPointExtension><gpxtpx:hr>108</gpxtpx:hr></gpxtpx:TrackPointExtension></extensions></trkpt><trkpt lat="60.243697" lon="24.877845"><ele>22.9</ele><time>2026-08-30T09:04:42Z</time><extensions><gpxtpx:TrackPointExtension><gpxtpx:hr>112</gpxtpx:hr></gpxtpx:TrackPointExtension></extensions></trkpt><trkpt lat="60.243697" lon="24.877845"><ele>22.9</ele><time>2026-08-30T09:04:47Z</time><extensions><gpxtpx:TrackPointExtension><gpxtpx:hr>118</gpxtpx:hr></gpxtpx:TrackPointExtension></extensions></trkpt><trkpt lat="60.243697" lon="24.877845"><ele>22.9</ele><time>2026-08-30T09:04:50Z</time><extensions><gpxtpx:TrackPointExtension><gpxtpx:hr>118</gpxtpx:hr></gpxtpx:TrackPointExtension></extensions></trkpt><trkpt lat="60.243697" lon="24.877845"><ele>22.9</ele><time>2026-08-30T09:04:53Z</time><extensions><gpxtpx:TrackPointExtension><gpxtpx:hr>117</gpxtpx:hr></gpxtpx:TrackPointExtension></extensions></trkpt><trkpt lat="60.243697" lon="24.877845"><ele>22.9</ele><time>2026-08-30T09:05:02Z</time><extensions><gpxtpx:TrackPointExtension><gpxtpx:hr>114</gpxtpx:hr></gpxtpx:TrackPointExtension></extensions></trkpt><trkpt lat="60.243697" lon="24.877845"><ele>22.9</ele><time>2026-08-30T09:05:03Z</time><extensions><gpxtpx:TrackPointExtension><gpxtpx:hr>114</gpxtpx:hr></gpxtpx:TrackPointExtension></extensions></trkpt><trkpt lat="60.243697" lon="24.877845"><ele>22.9</ele><time>2026-08-30T09:05:09Z</time><extensions><gpxtpx:TrackPointExtension><gpxtpx:hr>116</gpxtpx:hr></gpxtpx:TrackPointExtension></extensions></trkpt><trkpt lat="60.243697" lon="24.877845"><ele>22.9</ele><time>2026-08-30T09:05:17Z</time><extensions><gpxtpx:TrackPointExtension><gpxtpx:hr>122</gpxtpx:hr></gpxtpx:TrackPointExtension></extensions></trkpt><trkpt lat="60.243697" lon="24.877845"><ele>22.9</ele><time>2026-08-30T09:05:22Z</time><extensions><gpxtpx:TrackPointExtension><gpxtpx:hr>123</gpxtpx:hr></gpxtpx:TrackPointExtension></extensions></trkpt><trkpt lat="60.243697" lon="24.877845"><ele>22.9</ele><time>2026-08-30T09:05:27Z</time><extensions><gpxtpx:TrackPointExtension><gpxtpx:hr>122</gpxtpx:hr></gpxtpx:TrackPointExtension></extensions></trkpt><trkpt lat="60.243697" lon="24.877845"><ele>22.9</ele><time>2026-08-30T09:05:32Z</time><extensions><gpxtpx:TrackPointExtension><gpxtpx:hr>121</gpxtpx:hr></gpxtpx:TrackPointExtension></extensions></trkpt><trkpt lat="60.243697" lon="24.877845"><ele>22.9</ele><time>2026-08-30T09:05:35Z</time><extensions><gpxtpx:TrackPointExtension><gpxtpx:hr>121</gpxtpx:hr></gpxtpx:TrackPointExtension></extensions></trkpt><trkpt lat="60.243697" lon="24.877845"><ele>22.9</ele><time>2026-08-30T09:05:38Z</time><extensions><gpxtpx:TrackPointExtension><gpxtpx:hr>120</gpxtpx:hr></gpxtpx:TrackPointExtension></extensions></trkpt><trkpt lat="60.243697" lon="24.877845"><ele>22.9</ele><time>2026-08-30T09:05:43Z</time><extensions><gpxtpx:TrackPointExtension><gpxtpx:hr>119</gpxtpx:hr></gpxtpx:TrackPointExtension></extensions></trkpt><trkpt lat="60.243697" lon="24.877845"><ele>22.9</ele><time>2026-08-30T09:05:52Z</time><extensions><gpxtpx:TrackPointExtension><gpxtpx:hr>121</gpxtpx:hr></gpxtpx:TrackPointExtension></extensions></trkpt><trkpt lat="60.243697" lon="24.877845"><ele>22.9</ele><time>2026-08-30T09:05:57Z</time><extensions><gpxtpx:TrackPointExtension><gpxtpx:hr>123</gpxtpx:hr></gpxtpx:TrackPointExtension></extensions></trkpt><trkpt lat="60.243697" lon="24.877845"><ele>22.9</ele><time>2026-08-30T09:06:00Z</time><extensions><gpxtpx:TrackPointExtension><gpxtpx:hr>121</gpxtpx:hr></gpxtpx:TrackPointExtension></extensions></trkpt><trkpt lat="60.243697" lon="24.877845"><ele>22.9</ele><time>2026-08-30T09:06:04Z</time><extensions><gpxtpx:TrackPointExtension><gpxtpx:hr>119</gpxtpx:hr></gpxtpx:TrackPointExtension></extensions></trkpt><trkpt lat="60.243697" lon="24.877845"><ele>22.9</ele><time>2026-08-30T09:06:12Z</time><extensions><gpxtpx:TrackPointExtension><gpxtpx:hr>104</gpxtpx:hr></gpxtpx:TrackPointExtension></extensions></trkpt><trkpt lat="60.243697" lon="24.877845"><ele>22.9</ele><time>2026-08-30T09:06:14Z</time><extensions><gpxtpx:TrackPointExtension><gpxtpx:hr>104</gpxtpx:hr></gpxtpx:TrackPointExtension></extensions></trkpt><trkpt lat="60.243697" lon="24.877845"><ele>22.9</ele><time>2026-08-30T09:06:18Z</time><extensions><gpxtpx:TrackPointExtension><gpxtpx:hr>104</gpxtpx:hr></gpxtpx:TrackPointExtension></extensions></trkpt><trkpt lat="60.243697" lon="24.877845"><ele>22.9</ele><time>2026-08-30T09:06:23Z</time><extensions><gpxtpx:TrackPointExtension><gpxtpx:hr>103</gpxtpx:hr></gpxtpx:TrackPointExtension></extensions></trkpt><trkpt lat="60.243697" lon="24.877845"><ele>22.9</ele><time>2026-08-30T09:06:28Z</time><extensions><gpxtpx:TrackPointExtension><gpxtpx:hr>104</gpxtpx:hr></gpxtpx:TrackPointExtension></extensions></trkpt><trkpt lat="60.243697" lon="24.877845"><ele>22.9</ele><time>2026-08-30T09:06:37Z</time><extensions><gpxtpx:TrackPointExtension><gpxtpx:hr>106</gpxtpx:hr></gpxtpx:TrackPointExtension></extensions></trkpt><trkpt lat="60.243697" lon="24.877845"><ele>22.9</ele><time>2026-08-30T09:06:42Z</time><extensions><gpxtpx:TrackPointExtension><gpxtpx:hr>103</gpxtpx:hr></gpxtpx:TrackPointExtension></extensions></trkpt><trkpt lat="60.243697" lon="24.877845"><ele>22.9</ele><time>2026-08-30T09:06:44Z</time><extensions><gpxtpx:TrackPointExtension><gpxtpx:hr>100</gpxtpx:hr></gpxtpx:TrackPointExtension></extensions></trkpt><trkpt lat="60.243697" lon="24.877845"><ele>22.9</ele><time>2026-08-30T09:06:48Z</time><extensions><gpxtpx:TrackPointExtension><gpxtpx:hr>99</gpxtpx:hr></gpxtpx:TrackPointExtension></extensions></trkpt><trkpt lat="60.243697" lon="24.877845"><ele>22.9</ele><time>2026-08-30T09:06:57Z</time><extensions><gpxtpx:TrackPointExtension><gpxtpx:hr>106</gpxtpx:hr></gpxtpx:TrackPointExtension></extensions></trkpt><trkpt lat="60.243697" lon="24.877845"><ele>22.9</ele><time>2026-08-30T09:07:01Z</time><extensions><gpxtpx:TrackPointExtension><gpxtpx:hr>106</gpxtpx:hr></gpxtpx:TrackPointExtension></extensions></trkpt><trkpt lat="60.243697" lon="24.877845"><ele>22.9</ele><time>2026-08-30T09:07:03Z</time><extensions><gpxtpx:TrackPointExtension><gpxtpx:hr>105</gpxtpx:hr></gpxtpx:TrackPointExtension></extensions></trkpt><trkpt lat="60.243697" lon="24.877845"><ele>22.9</ele><time>2026-08-30T09:07:08Z</time><extensions><gpxtpx:TrackPointExtension><gpxtpx:hr>105</gpxtpx:hr></gpxtpx:TrackPointExtension></extensions></trkpt><trkpt lat="60.243697" lon="24.877845"><ele>22.9</ele><time>2026-08-30T09:07:13Z</time><extensions><gpxtpx:TrackPointExtension><gpxtpx:hr>103</gpxtpx:hr></gpxtpx:TrackPointExtension></extensions></trkpt><trkpt lat="60.243697" lon="24.877845"><ele>22.9</ele><time>2026-08-30T09:07:22Z</time><extensions><gpxtpx:TrackPointExtension><gpxtpx:hr>102</gpxtpx:hr></gpxtpx:TrackPointExtension></extensions></trkpt><trkpt lat="60.243697" lon="24.877845"><ele>22.9</ele><time>2026-08-30T09:07:27Z</time><extensions><gpxtpx:TrackPointExtension><gpxtpx:hr>103</gpxtpx:hr></gpxtpx:TrackPointExtension></extensions></trkpt><trkpt lat="60.243697" lon="24.877845"><ele>22.9</ele><time>2026-08-30T09:07:28Z</time><extensions><gpxtpx:TrackPointExtension><gpxtpx:hr>104</gpxtpx:hr></gpxtpx:TrackPointExtension></extensions></trkpt><trkpt lat="60.243697" lon="24.877845"><ele>22.9</ele><time>2026-08-30T09:07:35Z</time><extensions><gpxtpx:TrackPointExtension><gpxtpx:hr>102</gpxtpx:hr></gpxtpx:TrackPointExtension></extensions></trkpt><trkpt lat="60.243697" lon="24.877845"><ele>22.9</ele><time>2026-08-30T09:07:42Z</time><extensions><gpxtpx:TrackPointExtension><gpxtpx:hr>100</gpxtpx:hr></gpxtpx:TrackPointExtension></extensions></trkpt><trkpt lat="60.243697" lon="24.877845"><ele>22.9</ele><time>2026-08-30T09:07:44Z</time><extensions><gpxtpx:TrackPointExtension><gpxtpx:hr>100</gpxtpx:hr></gpxtpx:TrackPointExtension></extensions></trkpt><trkpt lat="60.243697" lon="24.877845"><ele>22.9</ele><time>2026-08-30T09:07:48Z</time><extensions><gpxtpx:TrackPointExtension><gpxtpx:hr>103</gpxtpx:hr></gpxtpx:TrackPointExtension></extensions></trkpt><trkpt lat="60.243697" lon="24.877845"><ele>22.9</ele><time>2026-08-30T09:07:53Z</time><extensions><gpxtpx:TrackPointExtension><gpxtpx:hr>104</gpxtpx:hr></gpxtpx:TrackPointExtension></extensions></trkpt><trkpt lat="60.243697" lon="24.877845"><ele>22.9</ele><time>2026-08-30T09:08:02Z</time><extensions><gpxtpx:TrackPointExtension><gpxtpx:hr>106</gpxtpx:hr></gpxtpx:TrackPointExtension></extensions></trkpt><trkpt lat="60.243697" lon="24.877845"><ele>22.9</ele><time>2026-08-30T09:08:04Z</time><extensions><gpxtpx:TrackPointExtension><gpxtpx:hr>108</gpxtpx:hr></gpxtpx:TrackPointExtension></extensions></trkpt><trkpt lat="60.243697" lon="24.877845"><ele>22.9</ele><time>2026-08-30T09:08:08Z</time><extensions><gpxtpx:TrackPointExtension><gpxtpx:hr>108</gpxtpx:hr></gpxtpx:TrackPointExtension></extensions></trkpt><trkpt lat="60.243697" lon="24.877845"><ele>22.9</ele><time>2026-08-30T09:08:17Z</time><extensions><gpxtpx:TrackPointExtension><gpxtpx:hr>107</gpxtpx:hr></gpxtpx:TrackPointExtension></extensions></trkpt><trkpt lat="60.243697" lon="24.877845"><ele>22.9</ele><time>2026-08-30T09:08:22Z</time><extensions><gpxtpx:TrackPointExtension><gpxtpx:hr>100</gpxtpx:hr></gpxtpx:TrackPointExtension></extensions></trkpt><trkpt lat="60.243697" lon="24.877845"><ele>22.9</ele><time>2026-08-30T09:08:23Z</time><extensions><gpxtpx:TrackPointExtension><gpxtpx:hr>100</gpxtpx:hr></gpxtpx:TrackPointExtension></extensions></trkpt><trkpt lat="60.243697" lon="24.877845"><ele>22.9</ele><time>2026-08-30T09:08:28Z</time><extensions><gpxtpx:TrackPointExtension><gpxtpx:hr>103</gpxtpx:hr></gpxtpx:TrackPointExtension></extensions></trkpt><trkpt lat="60.243697" lon="24.877845"><ele>22.9</ele><time>2026-08-30T09:08:33Z</time><extensions><gpxtpx:TrackPointExtension><gpxtpx:hr>103</gpxtpx:hr></gpxtpx:TrackPointExtension></extensions></trkpt><trkpt lat="60.243697" lon="24.877845"><ele>22.9</ele><time>2026-08-30T09:08:42Z</time><extensions><gpxtpx:TrackPointExtension><gpxtpx:hr>104</gpxtpx:hr></gpxtpx:TrackPointExtension></extensions></trkpt><trkpt lat="60.243697" lon="24.877845"><ele>22.9</ele><time>2026-08-30T09:08:45Z</time><extensions><gpxtpx:TrackPointExtension><gpxtpx:hr>104</gpxtpx:hr></gpxtpx:TrackPointExtension></extensions></trkpt><trkpt lat="60.243697" lon="24.877845"><ele>22.9</ele><time>2026-08-30T09:08:52Z</time><extensions><gpxtpx:TrackPointExtension><gpxtpx:hr>104</gpxtpx:hr></gpxtpx:TrackPointExtension></extensions></trkpt><trkpt lat="60.243697" lon="24.877845"><ele>22.9</ele><time>2026-08-30T09:08:53Z</time><extensions><gpxtpx:TrackPointExtension><gpxtpx:hr>105</gpxtpx:hr></gpxtpx:TrackPointExtension></extensions></trkpt><trkpt lat="60.243697" lon="24.877845"><ele>22.9</ele><time>2026-08-30T09:09:01Z</time><extensions><gpxtpx:TrackPointExtension><gpxtpx:hr>103</gpxtpx:hr></gpxtpx:TrackPointExtension></extensions></trkpt><trkpt lat="60.243697" lon="24.877845"><ele>22.9</ele><time>2026-08-30T09:09:05Z</time><extensions><gpxtpx:TrackPointExtension><gpxtpx:hr>103</gpxtpx:hr></gpxtpx:TrackPointExtension></extensions></trkpt><trkpt lat="60.243697" lon="24.877845"><ele>22.9</ele><time>2026-08-30T09:09:12Z</time><extensions><gpxtpx:TrackPointExtension><gpxtpx:hr>105</gpxtpx:hr></gpxtpx:TrackPointExtension></extensions></trkpt><trkpt lat="60.243697" lon="24.877845"><ele>22.9</ele><time>2026-08-30T09:09:13Z</time><extensions><gpxtpx:TrackPointExtension><gpxtpx:hr>105</gpxtpx:hr></gpxtpx:TrackPointExtension></extensions></trkpt><trkpt lat="60.243697" lon="24.877845"><ele>22.9</ele><time>2026-08-30T09:09:20Z</time><extensions><gpxtpx:TrackPointExtension><gpxtpx:hr>107</gpxtpx:hr></gpxtpx:TrackPointExtension></extensions></trkpt><trkpt lat="60.243697" lon="24.877845"><ele>22.9</ele><time>2026-08-30T09:09:25Z</time><extensions><gpxtpx:TrackPointExtension><gpxtpx:hr>110</gpxtpx:hr></gpxtpx:TrackPointExtension></extensions></trkpt><trkpt lat="60.243697" lon="24.877845"><ele>22.9</ele><time>2026-08-30T09:09:28Z</time><extensions><gpxtpx:TrackPointExtension><gpxtpx:hr>112</gpxtpx:hr></gpxtpx:TrackPointExtension></extensions></trkpt><trkpt lat="60.243697" lon="24.877845"><ele>22.9</ele><time>2026-08-30T09:09:33Z</time><extensions><gpxtpx:TrackPointExtension><gpxtpx:hr>115</gpxtpx:hr></gpxtpx:TrackPointExtension></extensions></trkpt><trkpt lat="60.243697" lon="24.877845"><ele>22.9</ele><time>2026-08-30T09:09:41Z</time><extensions><gpxtpx:TrackPointExtension><gpxtpx:hr>116</gpxtpx:hr></gpxtpx:TrackPointExtension></extensions></trkpt><trkpt lat="60.243697" lon="24.877845"><ele>22.9</ele><time>2026-08-30T09:09:47Z</time><extensions><gpxtpx:TrackPointExtension><gpxtpx:hr>114</gpxtpx:hr></gpxtpx:TrackPointExtension></extensions></trkpt><trkpt lat="60.243697" lon="24.877845"><ele>22.9</ele><time>2026-08-30T09:09:52Z</time><extensions><gpxtpx:TrackPointExtension><gpxtpx:hr>113</gpxtpx:hr></gpxtpx:TrackPointExtension></extensions></trkpt><trkpt lat="60.243697" lon="24.877845"><ele>22.9</ele><time>2026-08-30T09:09:57Z</time><extensions><gpxtpx:TrackPointExtension><gpxtpx:hr>114</gpxtpx:hr></gpxtpx:TrackPointExtension></extensions></trkpt><trkpt lat="60.243697" lon="24.877845"><ele>22.9</ele><time>2026-08-30T09:09:58Z</time><extensions><gpxtpx:TrackPointExtension><gpxtpx:hr>114</gpxtpx:hr></gpxtpx:TrackPointExtension></extensions></trkpt><trkpt lat="60.243697" lon="24.877845"><ele>22.9</ele><time>2026-08-30T09:10:07Z</time><extensions><gpxtpx:TrackPointExtension><gpxtpx:hr>117</gpxtpx:hr></gpxtpx:TrackPointExtension></extensions></trkpt><trkpt lat="60.243697" lon="24.877845"><ele>22.9</ele><time>2026-08-30T09:10:08Z</time><extensions><gpxtpx:TrackPointExtension><gpxtpx:hr>117</gpxtpx:hr></gpxtpx:TrackPointExtension></extensions></trkpt><trkpt lat="60.243697" lon="24.877845"><ele>22.9</ele><time>2026-08-30T09:10:17Z</time><extensions><gpxtpx:TrackPointExtension><gpxtpx:hr>116</gpxtpx:hr></gpxtpx:TrackPointExtension></extensions></trkpt><trkpt lat="60.243697" lon="24.877845"><ele>22.9</ele><time>2026-08-30T09:10:18Z</time><extensions><gpxtpx:TrackPointExtension><gpxtpx:hr>117</gpxtpx:hr></gpxtpx:TrackPointExtension></extensions></trkpt><trkpt lat="60.243697" lon="24.877845"><ele>22.9</ele><time>2026-08-30T09:10:23Z</time><extensions><gpxtpx:TrackPointExtension><gpxtpx:hr>116</gpxtpx:hr></gpxtpx:TrackPointExtension></extensions></trkpt><trkpt lat="60.243697" lon="24.877845"><ele>22.9</ele><time>2026-08-30T09:10:28Z</time><extensions><gpxtpx:TrackPointExtension><gpxtpx:hr>115</gpxtpx:hr></gpxtpx:TrackPointExtension></extensions></trkpt><trkpt lat="60.243697" lon="24.877845"><ele>22.9</ele><time>2026-08-30T09:10:37Z</time><extensions><gpxtpx:TrackPointExtension><gpxtpx:hr>114</gpxtpx:hr></gpxtpx:TrackPointExtension></extensions></trkpt><trkpt lat="60.243697" lon="24.877845"><ele>22.9</ele><time>2026-08-30T09:10:38Z</time><extensions><gpxtpx:TrackPointExtension><gpxtpx:hr>114</gpxtpx:hr></gpxtpx:TrackPointExtension></extensions></trkpt><trkpt lat="60.243697" lon="24.877845"><ele>22.9</ele><time>2026-08-30T09:10:44Z</time><extensions><gpxtpx:TrackPointExtension><gpxtpx:hr>114</gpxtpx:hr></gpxtpx:TrackPointExtension></extensions></trkpt><trkpt lat="60.243697" lon="24.877845"><ele>22.9</ele><time>2026-08-30T09:10:52Z</time><extensions><gpxtpx:TrackPointExtension><gpxtpx:hr>109</gpxtpx:hr></gpxtpx:TrackPointExtension></extensions></trkpt><trkpt lat="60.243697" lon="24.877845"><ele>22.9</ele><time>2026-08-30T09:10:53Z</time><extensions><gpxtpx:TrackPointExtension><gpxtpx:hr>109</gpxtpx:hr></gpxtpx:TrackPointExtension></extensions></trkpt><trkpt lat="60.243697" lon="24.877845"><ele>22.9</ele><time>2026-08-30T09:11:02Z</time><extensions><gpxtpx:TrackPointExtension><gpxtpx:hr>106</gpxtpx:hr></gpxtpx:TrackPointExtension></extensions></trkpt><trkpt lat="60.243697" lon="24.877845"><ele>22.9</ele><time>2026-08-30T09:11:07Z</time><extensions><gpxtpx:TrackPointExtension><gpxtpx:hr>106</gpxtpx:hr></gpxtpx:TrackPointExtension></extensions></trkpt><trkpt lat="60.243697" lon="24.877845"><ele>22.9</ele><time>2026-08-30T09:11:08Z</time><extensions><gpxtpx:TrackPointExtension><gpxtpx:hr>105</gpxtpx:hr></gpxtpx:TrackPointExtension></extensions></trkpt><trkpt lat="60.243697" lon="24.877845"><ele>22.9</ele><time>2026-08-30T09:11:13Z</time><extensions><gpxtpx:TrackPointExtension><gpxtpx:hr>105</gpxtpx:hr></gpxtpx:TrackPointExtension></extensions></trkpt><trkpt lat="60.243697" lon="24.877845"><ele>22.9</ele><time>2026-08-30T09:11:18Z</time><extensions><gpxtpx:TrackPointExtension><gpxtpx:hr>105</gpxtpx:hr></gpxtpx:TrackPointExtension></extensions></trkpt><trkpt lat="60.243697" lon="24.877845"><ele>22.9</ele><time>2026-08-30T09:11:24Z</time><extensions><gpxtpx:TrackPointExtension><gpxtpx:hr>110</gpxtpx:hr></gpxtpx:TrackPointExtension></extensions></trkpt><trkpt lat="60.243697" lon="24.877845"><ele>22.9</ele><time>2026-08-30T09:11:28Z</time><extensions><gpxtpx:TrackPointExtension><gpxtpx:hr>114</gpxtpx:hr></gpxtpx:TrackPointExtension></extensions></trkpt><trkpt lat="60.243697" lon="24.877845"><ele>22.9</ele><time>2026-08-30T09:11:34Z</time><extensions><gpxtpx:TrackPointExtension><gpxtpx:hr>116</gpxtpx:hr></gpxtpx:TrackPointExtension></extensions></trkpt><trkpt lat="60.243697" lon="24.877845"><ele>22.9</ele><time>2026-08-30T09:11:38Z</time><extensions><gpxtpx:TrackPointExtension><gpxtpx:hr>118</gpxtpx:hr></gpxtpx:TrackPointExtension></extensions></trkpt><trkpt lat="60.243697" lon="24.877845"><ele>22.9</ele><time>2026-08-30T09:11:43Z</time><extensions><gpxtpx:TrackPointExtension><gpxtpx:hr>118</gpxtpx:hr></gpxtpx:TrackPointExtension></extensions></trkpt><trkpt lat="60.243697" lon="24.877845"><ele>22.9</ele><time>2026-08-30T09:11:57Z</time><extensions><gpxtpx:TrackPointExtension><gpxtpx:hr>139</gpxtpx:hr></gpxtpx:TrackPointExtension></extensions></trkpt><trkpt lat="60.243697" lon="24.877845"><ele>22.9</ele><time>2026-08-30T09:12:01Z</time><extensions><gpxtpx:TrackPointExtension><gpxtpx:hr>136</gpxtpx:hr></gpxtpx:TrackPointExtension></extensions></trkpt><trkpt lat="60.243697" lon="24.877845"><ele>22.9</ele><time>2026-08-30T09:12:07Z</time><extensions><gpxtpx:TrackPointExtension><gpxtpx:hr>124</gpxtpx:hr></gpxtpx:TrackPointExtension></extensions></trkpt><trkpt lat="60.243697" lon="24.877845"><ele>22.9</ele><time>2026-08-30T09:12:10Z</time><extensions><gpxtpx:TrackPointExtension><gpxtpx:hr>125</gpxtpx:hr></gpxtpx:TrackPointExtension></extensions></trkpt><trkpt lat="60.243697" lon="24.877845"><ele>22.9</ele><time>2026-08-30T09:12:13Z</time><extensions><gpxtpx:TrackPointExtension><gpxtpx:hr>124</gpxtpx:hr></gpxtpx:TrackPointExtension></extensions></trkpt><trkpt lat="60.243697" lon="24.877845"><ele>22.9</ele><time>2026-08-30T09:12:18Z</time><extensions><gpxtpx:TrackPointExtension><gpxtpx:hr>118</gpxtpx:hr></gpxtpx:TrackPointExtension></extensions></trkpt><trkpt lat="60.243697" lon="24.877845"><ele>22.9</ele><time>2026-08-30T09:12:23Z</time><extensions><gpxtpx:TrackPointExtension><gpxtpx:hr>116</gpxtpx:hr></gpxtpx:TrackPointExtension></extensions></trkpt><trkpt lat="60.243697" lon="24.877845"><ele>22.9</ele><time>2026-08-30T09:12:32Z</time><extensions><gpxtpx:TrackPointExtension><gpxtpx:hr>112</gpxtpx:hr></gpxtpx:TrackPointExtension></extensions></trkpt><trkpt lat="60.243697" lon="24.877845"><ele>22.9</ele><time>2026-08-30T09:12:35Z</time><extensions><gpxtpx:TrackPointExtension><gpxtpx:hr>109</gpxtpx:hr></gpxtpx:TrackPointExtension></extensions></trkpt><trkpt lat="60.243697" lon="24.877845"><ele>22.9</ele><time>2026-08-30T09:12:38Z</time><extensions><gpxtpx:TrackPointExtension><gpxtpx:hr>109</gpxtpx:hr></gpxtpx:TrackPointExtension></extensions></trkpt><trkpt lat="60.243697" lon="24.877845"><ele>22.9</ele><time>2026-08-30T09:12:43Z</time><extensions><gpxtpx:TrackPointExtension><gpxtpx:hr>111</gpxtpx:hr></gpxtpx:TrackPointExtension></extensions></trkpt><trkpt lat="60.243697" lon="24.877845"><ele>22.9</ele><time>2026-08-30T09:12:49Z</time><extensions><gpxtpx:TrackPointExtension><gpxtpx:hr>121</gpxtpx:hr></gpxtpx:TrackPointExtension></extensions></trkpt><trkpt lat="60.243697" lon="24.877845"><ele>22.9</ele><time>2026-08-30T09:12:57Z</time><extensions><gpxtpx:TrackPointExtension><gpxtpx:hr>130</gpxtpx:hr></gpxtpx:TrackPointExtension></extensions></trkpt><trkpt lat="60.243697" lon="24.877845"><ele>22.9</ele><time>2026-08-30T09:13:02Z</time><extensions><gpxtpx:TrackPointExtension><gpxtpx:hr>125</gpxtpx:hr></gpxtpx:TrackPointExtension></extensions></trkpt><trkpt lat="60.243697" lon="24.877845"><ele>22.9</ele><time>2026-08-30T09:13:06Z</time><extensions><gpxtpx:TrackPointExtension><gpxtpx:hr>119</gpxtpx:hr></gpxtpx:TrackPointExtension></extensions></trkpt><trkpt lat="60.243697" lon="24.877845"><ele>22.9</ele><time>2026-08-30T09:13:08Z</time><extensions><gpxtpx:TrackPointExtension><gpxtpx:hr>119</gpxtpx:hr></gpxtpx:TrackPointExtension></extensions></trkpt><trkpt lat="60.243697" lon="24.877845"><ele>22.9</ele><time>2026-08-30T09:13:13Z</time><extensions><gpxtpx:TrackPointExtension><gpxtpx:hr>120</gpxtpx:hr></gpxtpx:TrackPointExtension></extensions></trkpt><trkpt lat="60.243697" lon="24.877845"><ele>22.9</ele><time>2026-08-30T09:13:22Z</time><extensions><gpxtpx:TrackPointExtension><gpxtpx:hr>129</gpxtpx:hr></gpxtpx:TrackPointExtension></extensions></trkpt><trkpt lat="60.243697" lon="24.877845"><ele>22.9</ele><time>2026-08-30T09:13:26Z</time><extensions><gpxtpx:TrackPointExtension><gpxtpx:hr>131</gpxtpx:hr></gpxtpx:TrackPointExtension></extensions></trkpt><trkpt lat="60.243697" lon="24.877845"><ele>22.9</ele><time>2026-08-30T09:13:28Z</time><extensions><gpxtpx:TrackPointExtension><gpxtpx:hr>132</gpxtpx:hr></gpxtpx:TrackPointExtension></extensions></trkpt><trkpt lat="60.243697" lon="24.877845"><ele>22.9</ele><time>2026-08-30T09:13:33Z</time><extensions><gpxtpx:TrackPointExtension><gpxtpx:hr>129</gpxtpx:hr></gpxtpx:TrackPointExtension></extensions></trkpt><trkpt lat="60.243697" lon="24.877845"><ele>22.9</ele><time>2026-08-30T09:13:41Z</time><extensions><gpxtpx:TrackPointExtension><gpxtpx:hr>128</gpxtpx:hr></gpxtpx:TrackPointExtension></extensions></trkpt><trkpt lat="60.243697" lon="24.877845"><ele>22.9</ele><time>2026-08-30T09:13:43Z</time><extensions><gpxtpx:TrackPointExtension><gpxtpx:hr>127</gpxtpx:hr></gpxtpx:TrackPointExtension></extensions></trkpt><trkpt lat="60.243697" lon="24.877845"><ele>22.9</ele><time>2026-08-30T09:13:48Z</time><extensions><gpxtpx:TrackPointExtension><gpxtpx:hr>127</gpxtpx:hr></gpxtpx:TrackPointExtension></extensions></trkpt><trkpt lat="60.243697" lon="24.877845"><ele>22.9</ele><time>2026-08-30T09:13:56Z</time><extensions><gpxtpx:TrackPointExtension><gpxtpx:hr>126</gpxtpx:hr></gpxtpx:TrackPointExtension></extensions></trkpt><trkpt lat="60.243697" lon="24.877845"><ele>22.9</ele><time>2026-08-30T09:13:58Z</time><extensions><gpxtpx:TrackPointExtension><gpxtpx:hr>125</gpxtpx:hr></gpxtpx:TrackPointExtension></extensions></trkpt><trkpt lat="60.243697" lon="24.877845"><ele>22.9</ele><time>2026-08-30T09:14:05Z</time><extensions><gpxtpx:TrackPointExtension><gpxtpx:hr>122</gpxtpx:hr></gpxtpx:TrackPointExtension></extensions></trkpt><trkpt lat="60.243697" lon="24.877845"><ele>22.9</ele><time>2026-08-30T09:14:12Z</time><extensions><gpxtpx:TrackPointExtension><gpxtpx:hr>118</gpxtpx:hr></gpxtpx:TrackPointExtension></extensions></trkpt><trkpt lat="60.243697" lon="24.877845"><ele>22.9</ele><time>2026-08-30T09:14:17Z</time><extensions><gpxtpx:TrackPointExtension><gpxtpx:hr>117</gpxtpx:hr></gpxtpx:TrackPointExtension></extensions></trkpt><trkpt lat="60.243697" lon="24.877845"><ele>22.9</ele><time>2026-08-30T09:14:21Z</time><extensions><gpxtpx:TrackPointExtension><gpxtpx:hr>116</gpxtpx:hr></gpxtpx:TrackPointExtension></extensions></trkpt><trkpt lat="60.243697" lon="24.877845"><ele>22.9</ele><time>2026-08-30T09:14:27Z</time><extensions><gpxtpx:TrackPointExtension><gpxtpx:hr>112</gpxtpx:hr></gpxtpx:TrackPointExtension></extensions></trkpt><trkpt lat="60.243697" lon="24.877845"><ele>22.9</ele><time>2026-08-30T09:14:29Z</time><extensions><gpxtpx:TrackPointExtension><gpxtpx:hr>111</gpxtpx:hr></gpxtpx:TrackPointExtension></extensions></trkpt><trkpt lat="60.243697" lon="24.877845"><ele>22.9</ele><time>2026-08-30T09:14:33Z</time><extensions><gpxtpx:TrackPointExtension><gpxtpx:hr>111</gpxtpx:hr></gpxtpx:TrackPointExtension></extensions></trkpt><trkpt lat="60.243697" lon="24.877845"><ele>22.9</ele><time>2026-08-30T09:14:39Z</time><extensions><gpxtpx:TrackPointExtension><gpxtpx:hr>105</gpxtpx:hr></gpxtpx:TrackPointExtension></extensions></trkpt><trkpt lat="60.243697" lon="24.877845"><ele>22.9</ele><time>2026-08-30T09:14:44Z</time><extensions><gpxtpx:TrackPointExtension><gpxtpx:hr>108</gpxtpx:hr></gpxtpx:TrackPointExtension></extensions></trkpt><trkpt lat="60.243697" lon="24.877845"><ele>22.9</ele><time>2026-08-30T09:14:50Z</time><extensions><gpxtpx:TrackPointExtension><gpxtpx:hr>102</gpxtpx:hr></gpxtpx:TrackPointExtension></extensions></trkpt><trkpt lat="60.243697" lon="24.877845"><ele>22.9</ele><time>2026-08-30T09:14:57Z</time><extensions><gpxtpx:TrackPointExtension><gpxtpx:hr>105</gpxtpx:hr></gpxtpx:TrackPointExtension></extensions></trkpt><trkpt lat="60.243697" lon="24.877845"><ele>22.9</ele><time>2026-08-30T09:15:02Z</time><extensions><gpxtpx:TrackPointExtension><gpxtpx:hr>102</gpxtpx:hr></gpxtpx:TrackPointExtension></extensions></trkpt><trkpt lat="60.243697" lon="24.877845"><ele>22.9</ele><time>2026-08-30T09:15:03Z</time><extensions><gpxtpx:TrackPointExtension><gpxtpx:hr>103</gpxtpx:hr></gpxtpx:TrackPointExtension></extensions></trkpt><trkpt lat="60.243697" lon="24.877845"><ele>22.9</ele><time>2026-08-30T09:15:10Z</time><extensions><gpxtpx:TrackPointExtension><gpxtpx:hr>100</gpxtpx:hr></gpxtpx:TrackPointExtension></extensions></trkpt><trkpt lat="60.243697" lon="24.877845"><ele>22.9</ele><time>2026-08-30T09:15:13Z</time><extensions><gpxtpx:TrackPointExtension><gpxtpx:hr>102</gpxtpx:hr></gpxtpx:TrackPointExtension></extensions></trkpt><trkpt lat="60.243697" lon="24.877845"><ele>22.9</ele><time>2026-08-30T09:15:19Z</time><extensions><gpxtpx:TrackPointExtension><gpxtpx:hr>97</gpxtpx:hr></gpxtpx:TrackPointExtension></extensions></trkpt><trkpt lat="60.243697" lon="24.877845"><ele>22.9</ele><time>2026-08-30T09:15:24Z</time><extensions><gpxtpx:TrackPointExtension><gpxtpx:hr>100</gpxtpx:hr></gpxtpx:TrackPointExtension></extensions></trkpt><trkpt lat="60.243697" lon="24.877845"><ele>22.9</ele><time>2026-08-30T09:15:29Z</time><extensions><gpxtpx:TrackPointExtension><gpxtpx:hr>98</gpxtpx:hr></gpxtpx:TrackPointExtension></extensions></trkpt><trkpt lat="60.243697" lon="24.877845"><ele>22.9</ele><time>2026-08-30T09:15:35Z</time><extensions><gpxtpx:TrackPointExtension><gpxtpx:hr>102</gpxtpx:hr></gpxtpx:TrackPointExtension></extensions></trkpt><trkpt lat="60.243697" lon="24.877845"><ele>22.9</ele><time>2026-08-30T09:15:40Z</time><extensions><gpxtpx:TrackPointExtension><gpxtpx:hr>96</gpxtpx:hr></gpxtpx:TrackPointExtension></extensions></trkpt><trkpt lat="60.243697" lon="24.877845"><ele>22.9</ele><time>2026-08-30T09:15:46Z</time><extensions><gpxtpx:TrackPointExtension><gpxtpx:hr>101</gpxtpx:hr></gpxtpx:TrackPointExtension></extensions></trkpt><trkpt lat="60.243697" lon="24.877845"><ele>22.9</ele><time>2026-08-30T09:15:49Z</time><extensions><gpxtpx:TrackPointExtension><gpxtpx:hr>102</gpxtpx:hr></gpxtpx:TrackPointExtension></extensions></trkpt><trkpt lat="60.243697" lon="24.877845"><ele>22.9</ele><time>2026-08-30T09:15:54Z</time><extensions><gpxtpx:TrackPointExtension><gpxtpx:hr>103</gpxtpx:hr></gpxtpx:TrackPointExtension></extensions></trkpt><trkpt lat="60.243697" lon="24.877845"><ele>22.9</ele><time>2026-08-30T09:16:02Z</time><extensions><gpxtpx:TrackPointExtension><gpxtpx:hr>99</gpxtpx:hr></gpxtpx:TrackPointExtension></extensions></trkpt><trkpt lat="60.243697" lon="24.877845"><ele>22.9</ele><time>2026-08-30T09:16:07Z</time><extensions><gpxtpx:TrackPointExtension><gpxtpx:hr>99</gpxtpx:hr></gpxtpx:TrackPointExtension></extensions></trkpt><trkpt lat="60.243697" lon="24.877845"><ele>22.9</ele><time>2026-08-30T09:16:08Z</time><extensions><gpxtpx:TrackPointExtension><gpxtpx:hr>100</gpxtpx:hr></gpxtpx:TrackPointExtension></extensions></trkpt><trkpt lat="60.243697" lon="24.877845"><ele>22.9</ele><time>2026-08-30T09:16:14Z</time><extensions><gpxtpx:TrackPointExtension><gpxtpx:hr>97</gpxtpx:hr></gpxtpx:TrackPointExtension></extensions></trkpt><trkpt lat="60.243697" lon="24.877845"><ele>22.9</ele><time>2026-08-30T09:16:19Z</time><extensions><gpxtpx:TrackPointExtension><gpxtpx:hr>98</gpxtpx:hr></gpxtpx:TrackPointExtension></extensions></trkpt><trkpt lat="60.243697" lon="24.877845"><ele>22.9</ele><time>2026-08-30T09:16:23Z</time><extensions><gpxtpx:TrackPointExtension><gpxtpx:hr>99</gpxtpx:hr></gpxtpx:TrackPointExtension></extensions></trkpt><trkpt lat="60.243697" lon="24.877845"><ele>22.9</ele><time>2026-08-30T09:16:28Z</time><extensions><gpxtpx:TrackPointExtension><gpxtpx:hr>102</gpxtpx:hr></gpxtpx:TrackPointExtension></extensions></trkpt></trkseg></trk></gpx>