<?xml version="1.0" encoding="UTF-8" standalone="no"?><gpx xmlns="http://www.topografix.com/GPX/1/1" xmlns:gpxtpx="http://www.garmin.com/xmlschemas/TrackPointExtension/v1" xmlns:xsi="http://www.w3.org/2001/XMLSchema-instance" creator="Sports Tracker" version="1.1" xsi:schemaLocation="http://www.topografix.com/GPX/1/1 http://www.topografix.com/GPX/1/1/gpx.xsd http://www.garmin.com/xmlschemas/TrackPointExtension/v1 http://www.garmin.com/xmlschemas/TrackPointExtensionv1.xsd"><metadata><name/><desc/><author><name>anttipehkonen240</name></author></metadata><trk><name/><trkseg><trkpt lat="60.189447" lon="24.924197"><ele>8.5</ele><time>2026-08-30T13:39:04Z</time><extensions><gpxtpx:TrackPointExtension><gpxtpx:hr>85</gpxtpx:hr></gpxtpx:TrackPointExtension></extensions></trkpt><trkpt lat="60.189447" lon="24.924197"><ele>8.5</ele><time>2026-08-30T13:39:09Z</time><extensions><gpxtpx:TrackPointExtension><gpxtpx:hr>91</gpxtpx:hr></gpxtpx:TrackPointExtension></extensions></trkpt><trkpt lat="60.189447" lon="24.924197"><ele>8.5</ele><time>2026-08-30T13:39:14Z</time></trkpt><trkpt lat="60.18947" lon="24.924242"><ele>7.2</ele><time>2026-08-30T13:39:16Z</time><extensions><gpxtpx:TrackPointExtension><gpxtpx:hr>99</gpxtpx:hr></gpxtpx:TrackPointExtension></extensions></trkpt><trkpt lat="60.189487" lon="24.924268"><ele>6.8</ele><time>2026-08-30T13:39:17Z</time></trkpt><trkpt lat="60.189498" lon="24.924313"><ele>7.3</ele><time>2026-08-30T13:39:18Z</time></trkpt><trkpt lat="60.189508" lon="24.924358"><ele>7.5</ele><time>2026-08-30T13:39:19Z</time></trkpt><trkpt lat="60.189523" lon="24.924395"><ele>7.6</ele><time>2026-08-30T13:39:20Z</time></trkpt><trkpt lat="60.189538" lon="24.924438"><ele>7.4</ele><time>2026-08-30T13:39:21Z</time></trkpt><trkpt lat="60.189547" lon="24.924477"><ele>7.2</ele><time>2026-08-30T13:39:22Z</time></trkpt><trkpt lat="60.18955" lon="24.92452"><ele>7.2</ele><time>2026-08-30T13:39:23Z</time><extensions><gpxtpx:TrackPointExtension><gpxtpx:hr>109</gpxtpx:hr></gpxtpx:TrackPointExtension></extensions></trkpt><trkpt lat="60.18955" lon="24.92457"><ele>7.1</ele><time>2026-08-30T13:39:24Z</time></trkpt><trkpt lat="60.189553" lon="24.924613"><ele>7.0</ele><time>2026-08-30T13:39:25Z</time></trkpt><trkpt lat="60.189562" lon="24.924668"><ele>7.3</ele><time>2026-08-30T13:39:26Z</time></trkpt><trkpt lat="60.189572" lon="24.92472"><ele>7.5</ele><time>2026-08-30T13:39:27Z</time></trkpt><trkpt lat="60.18958" lon="24.924765"><ele>7.4</ele><time>2026-08-30T13:39:28Z</time><extensions><gpxtpx:TrackPointExtension><gpxtpx:hr>114</gpxtpx:hr></gpxtpx:TrackPointExtension></extensions></trkpt><trkpt lat="60.189578" lon="24.924807"><ele>7.3</ele><time>2026-08-30T13:39:29Z</time></trkpt><trkpt lat="60.18958" lon="24.924857"><ele>7.1</ele><time>2026-08-30T13:39:30Z</time><extensions><gpxtpx:TrackPointExtension><gpxtpx:hr>116</gpxtpx:hr></gpxtpx:TrackPointExtension></extensions></trkpt><trkpt lat="60.189583" lon="24.924907"><ele>7.1</ele><time>2026-08-30T13:39:31Z</time></trkpt><trkpt lat="60.189588" lon="24.92496"><ele>7.3</ele><time>2026-08-30T13:39:32Z</time></trkpt><trkpt lat="60.189588" lon="24.925008"><ele>7.6</ele><time>2026-08-30T13:39:33Z</time></trkpt><trkpt lat="60.189592" lon="24.925055"><ele>7.8</ele><time>2026-08-30T13:39:34Z</time></trkpt><trkpt lat="60.189598" lon="24.925103"><ele>8.1</ele><time>2026-08-30T13:39:35Z</time></trkpt><trkpt lat="60.1896" lon="24.925153"><ele>11.9</ele><time>2026-08-30T13:39:36Z</time></trkpt><trkpt lat="60.189602" lon="24.925195"><ele>11.8</ele><time>2026-08-30T13:39:37Z</time></trkpt><trkpt lat="60.189607" lon="24.925237"><ele>12.3</ele><time>2026-08-30T13:39:38Z</time></trkpt><trkpt lat="60.189615" lon="24.925273"><ele>12.7</ele><time>2026-08-30T13:39:39Z</time><extensions><gpxtpx:TrackPointExtension><gpxtpx:hr>120</gpxtpx:hr></gpxtpx:TrackPointExtension></extensions></trkpt><trkpt lat="60.189603" lon="24.925323"><ele>13.4</ele><time>2026-08-30T13:39:41Z</time></trkpt><trkpt lat="60.189587" lon="24.925368"><ele>16.6</ele><time>2026-08-30T13:39:43Z</time></trkpt><trkpt lat="60.189567" lon="24.925388"><ele>16.2</ele><time>2026-08-30T13:39:44Z</time><extensions><gpxtpx:TrackPointExtension><gpxtpx:hr>121</gpxtpx:hr></gpxtpx:TrackPointExtension></extensions></trkpt><trkpt lat="60.189542" lon="24.925415"><ele>16.0</ele><time>2026-08-30T13:39:45Z</time></trkpt><trkpt lat="60.189522" lon="24.925418"><ele>16.5</ele><time>2026-08-30T13:39:46Z</time></trkpt><trkpt lat="60.189487" lon="24.925467"><ele>17.6</ele><time>2026-08-30T13:39:48Z</time></trkpt><trkpt lat="60.189462" lon="24.925482"><ele>17.4</ele><time>2026-08-30T13:39:49Z</time><extensions><gpxtpx:TrackPointExtension><gpxtpx:hr>125</gpxtpx:hr></gpxtpx:TrackPointExtension></extensions></trkpt><trkpt lat="60.189445" lon="24.925518"><ele>17.4</ele><time>2026-08-30T13:39:50Z</time></trkpt><trkpt lat="60.18942" lon="24.925553"><ele>16.5</ele><time>2026-08-30T13:39:51Z</time></trkpt><trkpt lat="60.189405" lon="24.92558"><ele>16.3</ele><time>2026-08-30T13:39:52Z</time></trkpt><trkpt lat="60.18938" lon="24.925592"><ele>15.3</ele><time>2026-08-30T13:39:53Z</time></trkpt><trkpt lat="60.189358" lon="24.925627"><ele>13.9</ele><time>2026-08-30T13:39:54Z</time><extensions><gpxtpx:TrackPointExtension><gpxtpx:hr>127</gpxtpx:hr></gpxtpx:TrackPointExtension></extensions></trkpt><trkpt lat="60.189342" lon="24.925648"><ele>13.8</ele><time>2026-08-30T13:39:55Z</time></trkpt><trkpt lat="60.18932" lon="24.925673"><ele>13.1</ele><time>2026-08-30T13:39:56Z</time></trkpt><trkpt lat="60.189297" lon="24.92571"><ele>13.8</ele><time>2026-08-30T13:39:57Z</time></trkpt><trkpt lat="60.189283" lon="24.925742"><ele>14.1</ele><time>2026-08-30T13:39:58Z</time></trkpt><trkpt lat="60.189277" lon="24.925788"><ele>13.9</ele><time>2026-08-30T13:39:59Z</time><extensions><gpxtpx:TrackPointExtension><gpxtpx:hr>127</gpxtpx:hr></gpxtpx:TrackPointExtension></extensions></trkpt><trkpt lat="60.189267" lon="24.92585"><ele>13.7</ele><time>2026-08-30T13:40:00Z</time></trkpt><trkpt lat="60.189257" lon="24.9259"><ele>14.1</ele><time>2026-08-30T13:40:00Z</time></trkpt><trkpt lat="60.18925" lon="24.925945"><ele>13.7</ele><time>2026-08-30T13:40:01Z</time><extensions><gpxtpx:TrackPointExtension><gpxtpx:hr>128</gpxtpx:hr></gpxtpx:TrackPointExtension></extensions></trkpt><trkpt lat="60.189235" lon="24.925993"><ele>14.5</ele><time>2026-08-30T13:40:02Z</time></trkpt><trkpt lat="60.189222" lon="24.926028"><ele>14.0</ele><time>2026-08-30T13:40:03Z</time></trkpt><trkpt lat="60.189205" lon="24.92606"><ele>13.6</ele><time>2026-08-30T13:40:04Z</time></trkpt><trkpt lat="60.189188" lon="24.9261"><ele>14.4</ele><time>2026-08-30T13:40:05Z</time><extensions><gpxtpx:TrackPointExtension><gpxtpx:hr>129</gpxtpx:hr></gpxtpx:TrackPointExtension></extensions></trkpt><trkpt lat="60.189175" lon="24.926137"><ele>14.8</ele><time>2026-08-30T13:40:06Z</time></trkpt><trkpt lat="60.189163" lon="24.926167"><ele>15.0</ele><time>2026-08-30T13:40:07Z</time></trkpt><trkpt lat="60.18915" lon="24.926217"><ele>14.7</ele><time>2026-08-30T13:40:08Z</time></trkpt><trkpt lat="60.189138" lon="24.92626"><ele>14.6</ele><time>2026-08-30T13:40:09Z</time></trkpt><trkpt lat="60.189125" lon="24.926292"><ele>14.0</ele><time>2026-08-30T13:40:10Z</time></trkpt><trkpt lat="60.189103" lon="24.926305"><ele>14.0</ele><time>2026-08-30T13:40:11Z</time></trkpt><trkpt lat="60.189077" lon="24.926275"><ele>12.6</ele><time>2026-08-30T13:40:13Z</time><extensions><gpxtpx:TrackPointExtension><gpxtpx:hr>129</gpxtpx:hr></gpxtpx:TrackPointExtension></extensions></trkpt><trkpt lat="60.189067" lon="24.926235"><ele>13.2</ele><time>2026-08-30T13:40:14Z</time><extensions><gpxtpx:TrackPointExtension><gpxtpx:hr>130</gpxtpx:hr></gpxtpx:TrackPointExtension></extensions></trkpt><trkpt lat="60.189058" lon="24.926192"><ele>12.2</ele><time>2026-08-30T13:40:15Z</time></trkpt><trkpt lat="60.189055" lon="24.926148"><ele>11.3</ele><time>2026-08-30T13:40:16Z</time></trkpt><trkpt lat="60.189047" lon="24.926103"><ele>12.2</ele><time>2026-08-30T13:40:17Z</time></trkpt><trkpt lat="60.18903" lon="24.926065"><ele>12.9</ele><time>2026-08-30T13:40:18Z</time></trkpt><trkpt lat="60.189" lon="24.926035"><ele>11.2</ele><time>2026-08-30T13:40:19Z</time></trkpt><trkpt lat="60.188967" lon="24.926017"><ele>11.2</ele><time>2026-08-30T13:40:21Z</time></trkpt><trkpt lat="60.188942" lon="24.926007"><ele>11.9</ele><time>2026-08-30T13:40:22Z</time><extensions><gpxtpx:TrackPointExtension><gpxtpx:hr>131</gpxtpx:hr></gpxtpx:TrackPointExtension></extensions></trkpt><trkpt lat="60.188898" lon="24.926012"><ele>12.6</ele><time>2026-08-30T13:40:24Z</time></trkpt><trkpt lat="60.188877" lon="24.926022"><ele>12.9</ele><time>2026-08-30T13:40:25Z</time></trkpt><trkpt lat="60.188858" lon="24.926028"><ele>12.9</ele><time>2026-08-30T13:40:26Z</time><extensions><gpxtpx:TrackPointExtension><gpxtpx:hr>131</gpxtpx:hr></gpxtpx:TrackPointExtension></extensions></trkpt><trkpt lat="60.188813" lon="24.926057"><ele>12.2</ele><time>2026-08-30T13:40:28Z</time></trkpt><trkpt lat="60.188792" lon="24.926068"><ele>11.6</ele><time>2026-08-30T13:40:29Z</time></trkpt><trkpt lat="60.188772" lon="24.926077"><ele>12.1</ele><time>2026-08-30T13:40:30Z</time></trkpt><trkpt lat="60.18875" lon="24.92609"><ele>12.8</ele><time>2026-08-30T13:40:31Z</time></trkpt><trkpt lat="60.188728" lon="24.926107"><ele>12.8</ele><time>2026-08-30T13:40:32Z</time><extensions><gpxtpx:TrackPointExtension><gpxtpx:hr>129</gpxtpx:hr></gpxtpx:TrackPointExtension></extensions></trkpt><trkpt lat="60.1887" lon="24.926145"><ele>12.9</ele><time>2026-08-30T13:40:34Z</time></trkpt><trkpt lat="60.188682" lon="24.926182"><ele>12.9</ele><time>2026-08-30T13:40:35Z</time><extensions><gpxtpx:TrackPointExtension><gpxtpx:hr>130</gpxtpx:hr></gpxtpx:TrackPointExtension></extensions></trkpt><trkpt lat="60.188667" lon="24.926215"><ele>13.0</ele><time>2026-08-30T13:40:36Z</time></trkpt><trkpt lat="60.18865" lon="24.926258"><ele>13.2</ele><time>2026-08-30T13:40:37Z</time></trkpt><trkpt lat="60.188637" lon="24.926298"><ele>14.4</ele><time>2026-08-30T13:40:38Z</time></trkpt><trkpt lat="60.188627" lon="24.926357"><ele>15.7</ele><time>2026-08-30T13:40:40Z</time></trkpt><trkpt lat="60.18865" lon="24.926442"><ele>15.4</ele><time>2026-08-30T13:40:41Z</time></trkpt><trkpt lat="60.18867" lon="24.926487"><ele>16.5</ele><time>2026-08-30T13:40:43Z</time><extensions><gpxtpx:TrackPointExtension><gpxtpx:hr>129</gpxtpx:hr></gpxtpx:TrackPointExtension></extensions></trkpt><trkpt lat="60.188687" lon="24.92651"><ele>17.1</ele><time>2026-08-30T13:40:44Z</time><extensions><gpxtpx:TrackPointExtension><gpxtpx:hr>130</gpxtpx:hr></gpxtpx:TrackPointExtension></extensions></trkpt><trkpt lat="60.188702" lon="24.926547"><ele>17.0</ele><time>2026-08-30T13:40:45Z</time></trkpt><trkpt lat="60.188715" lon="24.926583"><ele>17.1</ele><time>2026-08-30T13:40:46Z</time></trkpt><trkpt lat="60.188733" lon="24.926617"><ele>17.0</ele><time>2026-08-30T13:40:47Z</time></trkpt><trkpt lat="60.188748" lon="24.926657"><ele>16.9</ele><time>2026-08-30T13:40:48Z</time></trkpt><trkpt lat="60.188755" lon="24.926702"><ele>16.6</ele><time>2026-08-30T13:40:49Z</time><extensions><gpxtpx:TrackPointExtension><gpxtpx:hr>129</gpxtpx:hr></gpxtpx:TrackPointExtension></extensions></trkpt><trkpt lat="60.188763" lon="24.926735"><ele>16.0</ele><time>2026-08-30T13:40:50Z</time></trkpt><trkpt lat="60.18877" lon="24.926772"><ele>17.1</ele><time>2026-08-30T13:40:51Z</time></trkpt><trkpt lat="60.188777" lon="24.926842"><ele>16.9</ele><time>2026-08-30T13:40:53Z</time></trkpt><trkpt lat="60.18878" lon="24.9269"><ele>16.7</ele><time>2026-08-30T13:40:54Z</time></trkpt><trkpt lat="60.18878" lon="24.926942"><ele>17.0</ele><time>2026-08-30T13:40:55Z</time></trkpt><trkpt lat="60.18878" lon="24.926987"><ele>16.9</ele><time>2026-08-30T13:40:56Z</time></trkpt><trkpt lat="60.188778" lon="24.927032"><ele>18.2</ele><time>2026-08-30T13:40:57Z</time></trkpt><trkpt lat="60.188777" lon="24.927078"><ele>17.9</ele><time>2026-08-30T13:40:58Z</time><extensions><gpxtpx:TrackPointExtension><gpxtpx:hr>133</gpxtpx:hr></gpxtpx:TrackPointExtension></extensions></trkpt><trkpt lat="60.188773" lon="24.927152"><ele>18.8</ele><time>2026-08-30T13:41:00Z</time><extensions><gpxtpx:TrackPointExtension><gpxtpx:hr>134</gpxtpx:hr></gpxtpx:TrackPointExtension></extensions></trkpt><trkpt lat="60.188773" lon="24.927195"><ele>19.3</ele><time>2026-08-30T13:41:01Z</time></trkpt><trkpt lat="60.188763" lon="24.92726"><ele>20.0</ele><time>2026-08-30T13:41:03Z</time></trkpt><trkpt lat="60.188763" lon="24.927307"><ele>20.2</ele><time>2026-08-30T13:41:04Z</time><extensions><gpxtpx:TrackPointExtension><gpxtpx:hr>136</gpxtpx:hr></gpxtpx:TrackPointExtension></extensions></trkpt><trkpt lat="60.18876" lon="24.927355"><ele>20.4</ele><time>2026-08-30T13:41:05Z</time></trkpt><trkpt lat="60.188755" lon="24.927392"><ele>20.7</ele><time>2026-08-30T13:41:06Z</time></trkpt><trkpt lat="60.18875" lon="24.927432"><ele>20.7</ele><time>2026-08-30T13:41:07Z</time></trkpt><trkpt lat="60.188747" lon="24.92749"><ele>20.0</ele><time>2026-08-30T13:41:08Z</time></trkpt><trkpt lat="60.188743" lon="24.927537"><ele>20.3</ele><time>2026-08-30T13:41:09Z</time><extensions><gpxtpx:TrackPointExtension><gpxtpx:hr>136</gpxtpx:hr></gpxtpx:TrackPointExtension></extensions></trkpt><trkpt lat="60.188748" lon="24.927573"><ele>20.1</ele><time>2026-08-30T13:41:10Z</time></trkpt><trkpt lat="60.188745" lon="24.92762"><ele>20.2</ele><time>2026-08-30T13:41:11Z</time></trkpt><trkpt lat="60.188742" lon="24.927668"><ele>20.9</ele><time>2026-08-30T13:41:12Z</time></trkpt><trkpt lat="60.188737" lon="24.927728"><ele>22.2</ele><time>2026-08-30T13:41:14Z</time></trkpt><trkpt lat="60.188732" lon="24.927778"><ele>22.5</ele><time>2026-08-30T13:41:15Z</time></trkpt><trkpt lat="60.188723" lon="24.927837"><ele>22.9</ele><time>2026-08-30T13:41:17Z</time></trkpt><trkpt lat="60.18871" lon="24.92788"><ele>22.4</ele><time>2026-08-30T13:41:18Z</time><extensions><gpxtpx:TrackPointExtension><gpxtpx:hr>142</gpxtpx:hr></gpxtpx:TrackPointExtension></extensions></trkpt><trkpt lat="60.188703" lon="24.927918"><ele>23.0</ele><time>2026-08-30T13:41:19Z</time></trkpt><trkpt lat="60.18869" lon="24.927983"><ele>22.4</ele><time>2026-08-30T13:41:21Z</time></trkpt><trkpt lat="60.188678" lon="24.928022"><ele>23.6</ele><time>2026-08-30T13:41:22Z</time></trkpt><trkpt lat="60.18867" lon="24.928057"><ele>23.7</ele><time>2026-08-30T13:41:23Z</time><extensions><gpxtpx:TrackPointExtension><gpxtpx:hr>144</gpxtpx:hr></gpxtpx:TrackPointExtension></extensions></trkpt><trkpt lat="60.18866" lon="24.928093"><ele>23.4</ele><time>2026-08-30T13:41:24Z</time></trkpt><trkpt lat="60.18865" lon="24.92813"><ele>24.2</ele><time>2026-08-30T13:41:25Z</time></trkpt><trkpt lat="60.188638" lon="24.928168"><ele>24.7</ele><time>2026-08-30T13:41:26Z</time></trkpt><trkpt lat="60.188628" lon="24.928203"><ele>24.1</ele><time>2026-08-30T13:41:27Z</time></trkpt><trkpt lat="60.18861" lon="24.928275"><ele>23.3</ele><time>2026-08-30T13:41:29Z</time><extensions><gpxtpx:TrackPointExtension><gpxtpx:hr>144</gpxtpx:hr></gpxtpx:TrackPointExtension></extensions></trkpt><trkpt lat="60.188597" lon="24.928328"><ele>22.6</ele><time>2026-08-30T13:41:30Z</time></trkpt><trkpt lat="60.188585" lon="24.92837"><ele>22.3</ele><time>2026-08-30T13:41:31Z</time></trkpt><trkpt lat="60.188573" lon="24.928408"><ele>21.9</ele><time>2026-08-30T13:41:32Z</time></trkpt><trkpt lat="60.188558" lon="24.928448"><ele>22.6</ele><time>2026-08-30T13:41:33Z</time><extensions><gpxtpx:TrackPointExtension><gpxtpx:hr>144</gpxtpx:hr></gpxtpx:TrackPointExtension></extensions></trkpt><trkpt lat="60.188532" lon="24.928503"><ele>23.4</ele><time>2026-08-30T13:41:35Z</time><extensions><gpxtpx:TrackPointExtension><gpxtpx:hr>144</gpxtpx:hr></gpxtpx:TrackPointExtension></extensions></trkpt><trkpt lat="60.18851" lon="24.928545"><ele>23.9</ele><time>2026-08-30T13:41:36Z</time></trkpt><trkpt lat="60.188492" lon="24.928582"><ele>23.5</ele><time>2026-08-30T13:41:37Z</time></trkpt><trkpt lat="60.188477" lon="24.928603"><ele>23.4</ele><time>2026-08-30T13:41:38Z</time></trkpt><trkpt lat="60.18846" lon="24.928633"><ele>23.5</ele><time>2026-08-30T13:41:39Z</time></trkpt><trkpt lat="60.18844" lon="24.928668"><ele>23.7</ele><time>2026-08-30T13:41:40Z</time></trkpt><trkpt lat="60.188412" lon="24.92872"><ele>23.0</ele><time>2026-08-30T13:41:42Z</time></trkpt><trkpt lat="60.188395" lon="24.928758"><ele>22.6</ele><time>2026-08-30T13:41:43Z</time><extensions><gpxtpx:TrackPointExtension><gpxtpx:hr>145</gpxtpx:hr></gpxtpx:TrackPointExtension></extensions></trkpt><trkpt lat="60.188377" lon="24.928793"><ele>22.4</ele><time>2026-08-30T13:41:44Z</time></trkpt><trkpt lat="60.188358" lon="24.928833"><ele>22.0</ele><time>2026-08-30T13:41:45Z</time><extensions><gpxtpx:TrackPointExtension><gpxtpx:hr>143</gpxtpx:hr></gpxtpx:TrackPointExtension></extensions></trkpt><trkpt lat="60.188338" lon="24.928877"><ele>21.1</ele><time>2026-08-30T13:41:46Z</time></trkpt><trkpt lat="60.188322" lon="24.928917"><ele>21.4</ele><time>2026-08-30T13:41:47Z</time></trkpt><trkpt lat="60.188302" lon="24.92894"><ele>21.2</ele><time>2026-08-30T13:41:48Z</time></trkpt><trkpt lat="60.188287" lon="24.928972"><ele>21.6</ele><time>2026-08-30T13:41:49Z</time><extensions><gpxtpx:TrackPointExtension><gpxtpx:hr>144</gpxtpx:hr></gpxtpx:TrackPointExtension></extensions></trkpt><trkpt lat="60.188268" lon="24.928993"><ele>21.9</ele><time>2026-08-30T13:41:50Z</time></trkpt><trkpt lat="60.188235" lon="24.929037"><ele>22.0</ele><time>2026-08-30T13:41:52Z</time></trkpt><trkpt lat="60.188212" lon="24.92907"><ele>22.4</ele><time>2026-08-30T13:41:53Z</time></trkpt><trkpt lat="60.188197" lon="24.929092"><ele>23.2</ele><time>2026-08-30T13:41:54Z</time></trkpt><trkpt lat="60.188177" lon="24.929122"><ele>22.9</ele><time>2026-08-30T13:41:55Z</time></trkpt><trkpt lat="60.188153" lon="24.92916"><ele>22.8</ele><time>2026-08-30T13:41:56Z</time></trkpt><trkpt lat="60.188137" lon="24.92919"><ele>23.0</ele><time>2026-08-30T13:41:57Z</time></trkpt><trkpt lat="60.188123" lon="24.929217"><ele>23.2</ele><time>2026-08-30T13:41:58Z</time><extensions><gpxtpx:TrackPointExtension><gpxtpx:hr>138</gpxtpx:hr></gpxtpx:TrackPointExtension></extensions></trkpt><trkpt lat="60.188105" lon="24.929255"><ele>23.2</ele><time>2026-08-30T13:41:59Z</time></trkpt><trkpt lat="60.18809" lon="24.929285"><ele>22.4</ele><time>2026-08-30T13:42:00Z</time></trkpt><trkpt lat="60.188073" lon="24.929318"><ele>22.3</ele><time>2026-08-30T13:42:01Z</time></trkpt><trkpt lat="60.188072" lon="24.929372"><ele>22.9</ele><time>2026-08-30T13:42:02Z</time></trkpt><trkpt lat="60.188062" lon="24.929418"><ele>23.1</ele><time>2026-08-30T13:42:03Z</time><extensions><gpxtpx:TrackPointExtension><gpxtpx:hr>138</gpxtpx:hr></gpxtpx:TrackPointExtension></extensions></trkpt><trkpt lat="60.188053" lon="24.92946"><ele>22.8</ele><time>2026-08-30T13:42:04Z</time></trkpt><trkpt lat="60.188043" lon="24.9295"><ele>23.3</ele><time>2026-08-30T13:42:05Z</time></trkpt><trkpt lat="60.188032" lon="24.929538"><ele>23.9</ele><time>2026-08-30T13:42:06Z</time></trkpt><trkpt lat="60.188018" lon="24.929575"><ele>23.9</ele><time>2026-08-30T13:42:07Z</time></trkpt><trkpt lat="60.187982" lon="24.929585"><ele>23.9</ele><time>2026-08-30T13:42:08Z</time><extensions><gpxtpx:TrackPointExtension><gpxtpx:hr>138</gpxtpx:hr></gpxtpx:TrackPointExtension></extensions></trkpt><trkpt lat="60.187972" lon="24.929638"><ele>23.9</ele><time>2026-08-30T13:42:09Z</time><extensions><gpxtpx:TrackPointExtension><gpxtpx:hr>138</gpxtpx:hr></gpxtpx:TrackPointExtension></extensions></trkpt><trkpt lat="60.187952" lon="24.929672"><ele>23.5</ele><time>2026-08-30T13:42:10Z</time></trkpt><trkpt lat="60.187932" lon="24.9297"><ele>24.2</ele><time>2026-08-30T13:42:11Z</time></trkpt><trkpt lat="60.187915" lon="24.929728"><ele>24.4</ele><time>2026-08-30T13:42:12Z</time></trkpt><trkpt lat="60.187897" lon="24.929765"><ele>24.1</ele><time>2026-08-30T13:42:13Z</time></trkpt><trkpt lat="60.187878" lon="24.929785"><ele>24.5</ele><time>2026-08-30T13:42:14Z</time><extensions><gpxtpx:TrackPointExtension><gpxtpx:hr>140</gpxtpx:hr></gpxtpx:TrackPointExtension></extensions></trkpt><trkpt lat="60.187857" lon="24.929822"><ele>25.4</ele><time>2026-08-30T13:42:16Z</time></trkpt><trkpt lat="60.187837" lon="24.929832"><ele>25.0</ele><time>2026-08-30T13:42:17Z</time></trkpt><trkpt lat="60.187813" lon="24.929838"><ele>25.6</ele><time>2026-08-30T13:42:18Z</time></trkpt><trkpt lat="60.187792" lon="24.929852"><ele>25.9</ele><time>2026-08-30T13:42:19Z</time></trkpt><trkpt lat="60.187768" lon="24.929882"><ele>26.0</ele><time>2026-08-30T13:42:20Z</time></trkpt><trkpt lat="60.187745" lon="24.929925"><ele>25.3</ele><time>2026-08-30T13:42:21Z</time></trkpt><trkpt lat="60.187732" lon="24.929955"><ele>25.1</ele><time>2026-08-30T13:42:22Z</time><extensions><gpxtpx:TrackPointExtension><gpxtpx:hr>142</gpxtpx:hr></gpxtpx:TrackPointExtension></extensions></trkpt><trkpt lat="60.187715" lon="24.930005"><ele>26.1</ele><time>2026-08-30T13:42:23Z</time></trkpt><trkpt lat="60.187702" lon="24.930065"><ele>25.7</ele><time>2026-08-30T13:42:24Z</time></trkpt><trkpt lat="60.187697" lon="24.930147"><ele>26.0</ele><time>2026-08-30T13:42:26Z</time><extensions><gpxtpx:TrackPointExtension><gpxtpx:hr>142</gpxtpx:hr></gpxtpx:TrackPointExtension></extensions></trkpt><trkpt lat="60.187695" lon="24.930208"><ele>25.2</ele><time>2026-08-30T13:42:27Z</time></trkpt><trkpt lat="60.187688" lon="24.930263"><ele>25.2</ele><time>2026-08-30T13:42:28Z</time></trkpt><trkpt lat="60.187693" lon="24.93035"><ele>24.7</ele><time>2026-08-30T13:42:30Z</time></trkpt><trkpt lat="60.187692" lon="24.930413"><ele>24.2</ele><time>2026-08-30T13:42:31Z</time></trkpt><trkpt lat="60.187685" lon="24.930455"><ele>24.3</ele><time>2026-08-30T13:42:32Z</time><extensions><gpxtpx:TrackPointExtension><gpxtpx:hr>143</gpxtpx:hr></gpxtpx:TrackPointExtension></extensions></trkpt><trkpt lat="60.187685" lon="24.930503"><ele>24.6</ele><time>2026-08-30T13:42:33Z</time></trkpt><trkpt lat="60.187688" lon="24.93056"><ele>24.8</ele><time>2026-08-30T13:42:34Z</time></trkpt><trkpt lat="60.187688" lon="24.930595"><ele>24.7</ele><time>2026-08-30T13:42:35Z</time><extensions><gpxtpx:TrackPointExtension><gpxtpx:hr>144</gpxtpx:hr></gpxtpx:TrackPointExtension></extensions></trkpt><trkpt lat="60.187683" lon="24.930643"><ele>24.0</ele><time>2026-08-30T13:42:36Z</time></trkpt><trkpt lat="60.187678" lon="24.9307"><ele>23.5</ele><time>2026-08-30T13:42:37Z</time></trkpt><trkpt lat="60.187673" lon="24.930738"><ele>24.4</ele><time>2026-08-30T13:42:38Z</time></trkpt><trkpt lat="60.187673" lon="24.930782"><ele>23.9</ele><time>2026-08-30T13:42:39Z</time></trkpt><trkpt lat="60.18767" lon="24.930835"><ele>23.4</ele><time>2026-08-30T13:42:40Z</time></trkpt><trkpt lat="60.187668" lon="24.930878"><ele>23.9</ele><time>2026-08-30T13:42:41Z</time><extensions><gpxtpx:TrackPointExtension><gpxtpx:hr>144</gpxtpx:hr></gpxtpx:TrackPointExtension></extensions></trkpt><trkpt lat="60.187672" lon="24.93093"><ele>24.2</ele><time>2026-08-30T13:42:42Z</time></trkpt><trkpt lat="60.187668" lon="24.930988"><ele>25.0</ele><time>2026-08-30T13:42:43Z</time></trkpt><trkpt lat="60.187662" lon="24.931038"><ele>25.9</ele><time>2026-08-30T13:42:44Z</time></trkpt><trkpt lat="60.187657" lon="24.931073"><ele>25.7</ele><time>2026-08-30T13:42:45Z</time></trkpt><trkpt lat="60.187658" lon="24.931118"><ele>25.2</ele><time>2026-08-30T13:42:46Z</time></trkpt><trkpt lat="60.187653" lon="24.931175"><ele>24.8</ele><time>2026-08-30T13:42:47Z</time></trkpt><trkpt lat="60.187647" lon="24.931217"><ele>25.6</ele><time>2026-08-30T13:42:48Z</time><extensions><gpxtpx:TrackPointExtension><gpxtpx:hr>145</gpxtpx:hr></gpxtpx:TrackPointExtension></extensions></trkpt><trkpt lat="60.18765" lon="24.931265"><ele>25.7</ele><time>2026-08-30T13:42:49Z</time></trkpt><trkpt lat="60.187647" lon="24.931322"><ele>25.7</ele><time>2026-08-30T13:42:50Z</time></trkpt><trkpt lat="60.187643" lon="24.931362"><ele>25.2</ele><time>2026-08-30T13:42:51Z</time><extensions><gpxtpx:TrackPointExtension><gpxtpx:hr>144</gpxtpx:hr></gpxtpx:TrackPointExtension></extensions></trkpt><trkpt lat="60.187633" lon="24.931412"><ele>25.9</ele><time>2026-08-30T13:42:52Z</time></trkpt><trkpt lat="60.187632" lon="24.931468"><ele>25.8</ele><time>2026-08-30T13:42:53Z</time></trkpt><trkpt lat="60.187627" lon="24.931507"><ele>25.7</ele><time>2026-08-30T13:42:54Z</time><extensions><gpxtpx:TrackPointExtension><gpxtpx:hr>145</gpxtpx:hr></gpxtpx:TrackPointExtension></extensions></trkpt><trkpt lat="60.187622" lon="24.931587"><ele>25.8</ele><time>2026-08-30T13:42:56Z</time></trkpt><trkpt lat="60.187617" lon="24.93162"><ele>26.2</ele><time>2026-08-30T13:42:57Z</time></trkpt><trkpt lat="60.187602" lon="24.93165"><ele>25.8</ele><time>2026-08-30T13:42:58Z</time></trkpt><trkpt lat="60.1876" lon="24.931703"><ele>26.1</ele><time>2026-08-30T13:42:59Z</time></trkpt><trkpt lat="60.187602" lon="24.931757"><ele>26.2</ele><time>2026-08-30T13:43:00Z</time></trkpt><trkpt lat="60.187593" lon="24.931837"><ele>26.4</ele><time>2026-08-30T13:43:02Z</time><extensions><gpxtpx:TrackPointExtension><gpxtpx:hr>145</gpxtpx:hr></gpxtpx:TrackPointExtension></extensions></trkpt><trkpt lat="60.18759" lon="24.93188"><ele>27.6</ele><time>2026-08-30T13:43:03Z</time></trkpt><trkpt lat="60.187593" lon="24.931943"><ele>27.0</ele><time>2026-08-30T13:43:05Z</time><extensions><gpxtpx:TrackPointExtension><gpxtpx:hr>145</gpxtpx:hr></gpxtpx:TrackPointExtension></extensions></trkpt><trkpt lat="60.187595" lon="24.931993"><ele>27.1</ele><time>2026-08-30T13:43:06Z</time></trkpt><trkpt lat="60.187583" lon="24.932027"><ele>28.5</ele><time>2026-08-30T13:43:07Z</time></trkpt><trkpt lat="60.187583" lon="24.932067"><ele>29.1</ele><time>2026-08-30T13:43:08Z</time></trkpt><trkpt lat="60.187585" lon="24.93212"><ele>28.5</ele><time>2026-08-30T13:43:09Z</time></trkpt><trkpt lat="60.18759" lon="24.93216"><ele>28.0</ele><time>2026-08-30T13:43:10Z</time></trkpt><trkpt lat="60.18759" lon="24.932213"><ele>27.9</ele><time>2026-08-30T13:43:11Z</time></trkpt><trkpt lat="60.187585" lon="24.932278"><ele>27.9</ele><time>2026-08-30T13:43:12Z</time></trkpt><trkpt lat="60.187588" lon="24.932318"><ele>27.4</ele><time>2026-08-30T13:43:13Z</time><extensions><gpxtpx:TrackPointExtension><gpxtpx:hr>144</gpxtpx:hr></gpxtpx:TrackPointExtension></extensions></trkpt><trkpt lat="60.187592" lon="24.932373"><ele>27.2</ele><time>2026-08-30T13:43:14Z</time></trkpt><trkpt lat="60.187595" lon="24.932437"><ele>26.8</ele><time>2026-08-30T13:43:15Z</time></trkpt><trkpt lat="60.18759" lon="24.932482"><ele>26.3</ele><time>2026-08-30T13:43:16Z</time><extensions><gpxtpx:TrackPointExtension><gpxtpx:hr>144</gpxtpx:hr></gpxtpx:TrackPointExtension></extensions></trkpt><trkpt lat="60.187592" lon="24.932532"><ele>26.3</ele><time>2026-08-30T13:43:17Z</time></trkpt><trkpt lat="60.187588" lon="24.932585"><ele>26.4</ele><time>2026-08-30T13:43:18Z</time></trkpt><trkpt lat="60.187595" lon="24.932663"><ele>25.8</ele><time>2026-08-30T13:43:20Z</time><extensions><gpxtpx:TrackPointExtension><gpxtpx:hr>143</gpxtpx:hr></gpxtpx:TrackPointExtension></extensions></trkpt><trkpt lat="60.187597" lon="24.932715"><ele>25.4</ele><time>2026-08-30T13:43:21Z</time></trkpt><trkpt lat="60.187598" lon="24.932758"><ele>24.5</ele><time>2026-08-30T13:43:22Z</time></trkpt><trkpt lat="60.187598" lon="24.932808"><ele>24.7</ele><time>2026-08-30T13:43:23Z</time></trkpt><trkpt lat="60.187602" lon="24.932865"><ele>24.8</ele><time>2026-08-30T13:43:24Z</time></trkpt><trkpt lat="60.187598" lon="24.932907"><ele>25.2</ele><time>2026-08-30T13:43:25Z</time><extensions><gpxtpx:TrackPointExtension><gpxtpx:hr>144</gpxtpx:hr></gpxtpx:TrackPointExtension></extensions></trkpt><trkpt lat="60.187597" lon="24.932953"><ele>25.0</ele><time>2026-08-30T13:43:26Z</time></trkpt><trkpt lat="60.187595" lon="24.933013"><ele>25.0</ele><time>2026-08-30T13:43:27Z</time></trkpt><trkpt lat="60.187593" lon="24.933053"><ele>24.8</ele><time>2026-08-30T13:43:28Z</time></trkpt><trkpt lat="60.187597" lon="24.933098"><ele>24.5</ele><time>2026-08-30T13:43:29Z</time></trkpt><trkpt lat="60.187598" lon="24.933157"><ele>24.2</ele><time>2026-08-30T13:43:30Z</time></trkpt><trkpt lat="60.187595" lon="24.93324"><ele>24.9</ele><time>2026-08-30T13:43:32Z</time><extensions><gpxtpx:TrackPointExtension><gpxtpx:hr>143</gpxtpx:hr></gpxtpx:TrackPointExtension></extensions></trkpt><trkpt lat="60.187592" lon="24.93329"><ele>24.9</ele><time>2026-08-30T13:43:33Z</time></trkpt><trkpt lat="60.18759" lon="24.933332"><ele>23.7</ele><time>2026-08-30T13:43:34Z</time></trkpt><trkpt lat="60.187587" lon="24.933373"><ele>22.9</ele><time>2026-08-30T13:43:35Z</time><extensions><gpxtpx:TrackPointExtension><gpxtpx:hr>143</gpxtpx:hr></gpxtpx:TrackPointExtension></extensions></trkpt><trkpt lat="60.187587" lon="24.933428"><ele>22.6</ele><time>2026-08-30T13:43:36Z</time></trkpt><trkpt lat="60.187587" lon="24.933475"><ele>23.3</ele><time>2026-08-30T13:43:37Z</time></trkpt><trkpt lat="60.187587" lon="24.933523"><ele>23.6</ele><time>2026-08-30T13:43:38Z</time></trkpt><trkpt lat="60.187593" lon="24.933578"><ele>23.8</ele><time>2026-08-30T13:43:39Z</time></trkpt><trkpt lat="60.187597" lon="24.933625"><ele>24.0</ele><time>2026-08-30T13:43:40Z</time></trkpt><trkpt lat="60.187602" lon="24.933662"><ele>23.8</ele><time>2026-08-30T13:43:41Z</time></trkpt><trkpt lat="60.187617" lon="24.933702"><ele>24.1</ele><time>2026-08-30T13:43:42Z</time><extensions><gpxtpx:TrackPointExtension><gpxtpx:hr>142</gpxtpx:hr></gpxtpx:TrackPointExtension></extensions></trkpt><trkpt lat="60.187638" lon="24.933727"><ele>24.8</ele><time>2026-08-30T13:43:43Z</time></trkpt><trkpt lat="60.187655" lon="24.93375"><ele>25.9</ele><time>2026-08-30T13:43:44Z</time></trkpt><trkpt lat="60.187682" lon="24.93377"><ele>25.6</ele><time>2026-08-30T13:43:45Z</time></trkpt><trkpt lat="60.1877" lon="24.933807"><ele>24.9</ele><time>2026-08-30T13:43:46Z</time><extensions><gpxtpx:TrackPointExtension><gpxtpx:hr>141</gpxtpx:hr></gpxtpx:TrackPointExtension></extensions></trkpt><trkpt lat="60.18773" lon="24.933828"><ele>25.8</ele><time>2026-08-30T13:43:47Z</time></trkpt><trkpt lat="60.187757" lon="24.933862"><ele>25.8</ele><time>2026-08-30T13:43:48Z</time></trkpt><trkpt lat="60.187777" lon="24.933867"><ele>25.2</ele><time>2026-08-30T13:43:49Z</time></trkpt><trkpt lat="60.1878" lon="24.933867"><ele>25.7</ele><time>2026-08-30T13:43:50Z</time><extensions><gpxtpx:TrackPointExtension><gpxtpx:hr>140</gpxtpx:hr></gpxtpx:TrackPointExtension></extensions></trkpt><trkpt lat="60.187825" lon="24.933888"><ele>26.7</ele><time>2026-08-30T13:43:51Z</time></trkpt><trkpt lat="60.187845" lon="24.933907"><ele>26.7</ele><time>2026-08-30T13:43:52Z</time></trkpt><trkpt lat="60.187872" lon="24.933908"><ele>25.4</ele><time>2026-08-30T13:43:53Z</time></trkpt><trkpt lat="60.187898" lon="24.933923"><ele>25.7</ele><time>2026-08-30T13:43:54Z</time></trkpt><trkpt lat="60.187918" lon="24.933938"><ele>25.4</ele><time>2026-08-30T13:43:55Z</time></trkpt><trkpt lat="60.187948" lon="24.93394"><ele>26.1</ele><time>2026-08-30T13:43:56Z</time><extensions><gpxtpx:TrackPointExtension><gpxtpx:hr>140</gpxtpx:hr></gpxtpx:TrackPointExtension></extensions></trkpt><trkpt lat="60.187975" lon="24.933932"><ele>26.1</ele><time>2026-08-30T13:43:57Z</time></trkpt><trkpt lat="60.188002" lon="24.933937"><ele>26.7</ele><time>2026-08-30T13:43:58Z</time></trkpt><trkpt lat="60.188035" lon="24.933927"><ele>26.6</ele><time>2026-08-30T13:43:59Z</time></trkpt><trkpt lat="60.188058" lon="24.933927"><ele>25.9</ele><time>2026-08-30T13:44:00Z</time></trkpt><trkpt lat="60.188082" lon="24.933903"><ele>26.3</ele><time>2026-08-30T13:44:01Z</time></trkpt><trkpt lat="60.188108" lon="24.933882"><ele>27.4</ele><time>2026-08-30T13:44:02Z</time></trkpt><trkpt lat="60.188128" lon="24.933865"><ele>26.8</ele><time>2026-08-30T13:44:03Z</time><extensions><gpxtpx:TrackPointExtension><gpxtpx:hr>142</gpxtpx:hr></gpxtpx:TrackPointExtension></extensions></trkpt><trkpt lat="60.18815" lon="24.933862"><ele>26.7</ele><time>2026-08-30T13:44:04Z</time></trkpt><trkpt lat="60.188173" lon="24.933827"><ele>26.1</ele><time>2026-08-30T13:44:05Z</time><extensions><gpxtpx:TrackPointExtension><gpxtpx:hr>142</gpxtpx:hr></gpxtpx:TrackPointExtension></extensions></trkpt><trkpt lat="60.188198" lon="24.933803"><ele>26.7</ele><time>2026-08-30T13:44:06Z</time></trkpt><trkpt lat="60.188215" lon="24.93378"><ele>26.3</ele><time>2026-08-30T13:44:07Z</time></trkpt><trkpt lat="60.188235" lon="24.933762"><ele>25.5</ele><time>2026-08-30T13:44:08Z</time></trkpt><trkpt lat="60.188252" lon="24.933743"><ele>27.2</ele><time>2026-08-30T13:44:09Z</time><extensions><gpxtpx:TrackPointExtension><gpxtpx:hr>143</gpxtpx:hr></gpxtpx:TrackPointExtension></extensions></trkpt><trkpt lat="60.188282" lon="24.933728"><ele>26.6</ele><time>2026-08-30T13:44:11Z</time></trkpt><trkpt lat="60.188322" lon="24.933738"><ele>27.4</ele><time>2026-08-30T13:44:13Z</time></trkpt><trkpt lat="60.188358" lon="24.933735"><ele>28.9</ele><time>2026-08-30T13:44:15Z</time></trkpt><trkpt lat="60.188385" lon="24.933737"><ele>30.4</ele><time>2026-08-30T13:44:16Z</time><extensions><gpxtpx:TrackPointExtension><gpxtpx:hr>142</gpxtpx:hr></gpxtpx:TrackPointExtension></extensions></trkpt><trkpt lat="60.188418" lon="24.933702"><ele>31.8</ele><time>2026-08-30T13:44:18Z</time></trkpt><trkpt lat="60.188442" lon="24.933677"><ele>31.8</ele><time>2026-08-30T13:44:19Z</time></trkpt><trkpt lat="60.188465" lon="24.933673"><ele>30.8</ele><time>2026-08-30T13:44:20Z</time><extensions><gpxtpx:TrackPointExtension><gpxtpx:hr>144</gpxtpx:hr></gpxtpx:TrackPointExtension></extensions></trkpt><trkpt lat="60.188495" lon="24.933665"><ele>30.9</ele><time>2026-08-30T13:44:21Z</time></trkpt><trkpt lat="60.188525" lon="24.933653"><ele>29.4</ele><time>2026-08-30T13:44:22Z</time></trkpt><trkpt lat="60.18855" lon="24.93364"><ele>28.2</ele><time>2026-08-30T13:44:23Z</time></trkpt><trkpt lat="60.188575" lon="24.933637"><ele>28.7</ele><time>2026-08-30T13:44:24Z</time></trkpt><trkpt lat="60.188602" lon="24.933627"><ele>29.1</ele><time>2026-08-30T13:44:25Z</time></trkpt><trkpt lat="60.188622" lon="24.933618"><ele>28.4</ele><time>2026-08-30T13:44:26Z</time></trkpt><trkpt lat="60.188645" lon="24.933618"><ele>28.4</ele><time>2026-08-30T13:44:27Z</time></trkpt><trkpt lat="60.188677" lon="24.933612"><ele>26.5</ele><time>2026-08-30T13:44:28Z</time><extensions><gpxtpx:TrackPointExtension><gpxtpx:hr>145</gpxtpx:hr></gpxtpx:TrackPointExtension></extensions></trkpt><trkpt lat="60.188703" lon="24.933603"><ele>27.5</ele><time>2026-08-30T13:44:29Z</time></trkpt><trkpt lat="60.188735" lon="24.9336"><ele>27.6</ele><time>2026-08-30T13:44:30Z</time></trkpt><trkpt lat="60.18876" lon="24.933587"><ele>28.5</ele><time>2026-08-30T13:44:31Z</time></trkpt><trkpt lat="60.188782" lon="24.933567"><ele>27.8</ele><time>2026-08-30T13:44:32Z</time><extensions><gpxtpx:TrackPointExtension><gpxtpx:hr>147</gpxtpx:hr></gpxtpx:TrackPointExtension></extensions></trkpt><trkpt lat="60.188808" lon="24.933525"><ele>26.0</ele><time>2026-08-30T13:44:33Z</time></trkpt><trkpt lat="60.18883" lon="24.933492"><ele>26.5</ele><time>2026-08-30T13:44:34Z</time></trkpt><trkpt lat="60.188853" lon="24.933465"><ele>26.5</ele><time>2026-08-30T13:44:35Z</time></trkpt><trkpt lat="60.188873" lon="24.933415"><ele>25.3</ele><time>2026-08-30T13:44:36Z</time></trkpt><trkpt lat="60.188893" lon="24.933373"><ele>25.2</ele><time>2026-08-30T13:44:37Z</time></trkpt><trkpt lat="60.188908" lon="24.933343"><ele>24.3</ele><time>2026-08-30T13:44:38Z</time><extensions><gpxtpx:TrackPointExtension><gpxtpx:hr>146</gpxtpx:hr></gpxtpx:TrackPointExtension></extensions></trkpt><trkpt lat="60.188925" lon="24.933308"><ele>24.5</ele><time>2026-08-30T13:44:39Z</time><extensions><gpxtpx:TrackPointExtension><gpxtpx:hr>147</gpxtpx:hr></gpxtpx:TrackPointExtension></extensions></trkpt><trkpt lat="60.188947" lon="24.933272"><ele>24.0</ele><time>2026-08-30T13:44:40Z</time></trkpt><trkpt lat="60.18897" lon="24.933242"><ele>23.9</ele><time>2026-08-30T13:44:41Z</time></trkpt><trkpt lat="60.188998" lon="24.933205"><ele>24.6</ele><time>2026-08-30T13:44:42Z</time></trkpt><trkpt lat="60.189017" lon="24.933167"><ele>26.1</ele><time>2026-08-30T13:44:43Z</time></trkpt><trkpt lat="60.189033" lon="24.933147"><ele>25.7</ele><time>2026-08-30T13:44:44Z</time><extensions><gpxtpx:TrackPointExtension><gpxtpx:hr>147</gpxtpx:hr></gpxtpx:TrackPointExtension></extensions></trkpt><trkpt lat="60.18905" lon="24.933113"><ele>25.6</ele><time>2026-08-30T13:44:45Z</time></trkpt><trkpt lat="60.189067" lon="24.933087"><ele>26.0</ele><time>2026-08-30T13:44:46Z</time></trkpt><trkpt lat="60.189093" lon="24.933032"><ele>25.6</ele><time>2026-08-30T13:44:48Z</time></trkpt><trkpt lat="60.189115" lon="24.933002"><ele>25.3</ele><time>2026-08-30T13:44:49Z</time><extensions><gpxtpx:TrackPointExtension><gpxtpx:hr>146</gpxtpx:hr></gpxtpx:TrackPointExtension></extensions></trkpt><trkpt lat="60.18915" lon="24.932955"><ele>25.0</ele><time>2026-08-30T13:44:51Z</time></trkpt><trkpt lat="60.189173" lon="24.932923"><ele>25.0</ele><time>2026-08-30T13:44:52Z</time></trkpt><trkpt lat="60.189187" lon="24.9329"><ele>24.6</ele><time>2026-08-30T13:44:53Z</time></trkpt><trkpt lat="60.189203" lon="24.932877"><ele>24.8</ele><time>2026-08-30T13:44:54Z</time></trkpt><trkpt lat="60.189228" lon="24.932842"><ele>24.4</ele><time>2026-08-30T13:44:55Z</time></trkpt><trkpt lat="60.189248" lon="24.932823"><ele>25.2</ele><time>2026-08-30T13:44:56Z</time></trkpt><trkpt lat="60.189267" lon="24.932797"><ele>24.9</ele><time>2026-08-30T13:44:57Z</time></trkpt><trkpt lat="60.189293" lon="24.932775"><ele>24.6</ele><time>2026-08-30T13:44:58Z</time><extensions><gpxtpx:TrackPointExtension><gpxtpx:hr>146</gpxtpx:hr></gpxtpx:TrackPointExtension></extensions></trkpt><trkpt lat="60.189325" lon="24.93274"><ele>24.4</ele><time>2026-08-30T13:45:00Z</time></trkpt><trkpt lat="60.189348" lon="24.932728"><ele>24.1</ele><time>2026-08-30T13:45:01Z</time></trkpt><trkpt lat="60.189372" lon="24.932747"><ele>25.1</ele><time>2026-08-30T13:45:02Z</time></trkpt><trkpt lat="60.189388" lon="24.932782"><ele>24.9</ele><time>2026-08-30T13:45:03Z</time><extensions><gpxtpx:TrackPointExtension><gpxtpx:hr>148</gpxtpx:hr></gpxtpx:TrackPointExtension></extensions></trkpt><trkpt lat="60.189403" lon="24.932807"><ele>24.0</ele><time>2026-08-30T13:45:04Z</time></trkpt><trkpt lat="60.18942" lon="24.932838"><ele>23.5</ele><time>2026-08-30T13:45:05Z</time></trkpt><trkpt lat="60.189435" lon="24.932855"><ele>23.5</ele><time>2026-08-30T13:45:06Z</time></trkpt><trkpt lat="60.189452" lon="24.932873"><ele>23.6</ele><time>2026-08-30T13:45:07Z</time></trkpt><trkpt lat="60.189477" lon="24.932903"><ele>23.6</ele><time>2026-08-30T13:45:08Z</time><extensions><gpxtpx:TrackPointExtension><gpxtpx:hr>149</gpxtpx:hr></gpxtpx:TrackPointExtension></extensions></trkpt><trkpt lat="60.189495" lon="24.932928"><ele>21.9</ele><time>2026-08-30T13:45:09Z</time></trkpt><trkpt lat="60.189518" lon="24.93294"><ele>21.1</ele><time>2026-08-30T13:45:10Z</time></trkpt><trkpt lat="60.189542" lon="24.932958"><ele>20.5</ele><time>2026-08-30T13:45:11Z</time></trkpt><trkpt lat="60.189562" lon="24.932972"><ele>20.9</ele><time>2026-08-30T13:45:12Z</time></trkpt><trkpt lat="60.189585" lon="24.932983"><ele>20.1</ele><time>2026-08-30T13:45:13Z</time><extensions><gpxtpx:TrackPointExtension><gpxtpx:hr>149</gpxtpx:hr></gpxtpx:TrackPointExtension></extensions></trkpt><trkpt lat="60.189603" lon="24.932988"><ele>19.7</ele><time>2026-08-30T13:45:14Z</time><extensions><gpxtpx:TrackPointExtension><gpxtpx:hr>149</gpxtpx:hr></gpxtpx:TrackPointExtension></extensions></trkpt><trkpt lat="60.189643" lon="24.933002"><ele>20.2</ele><time>2026-08-30T13:45:16Z</time></trkpt><trkpt lat="60.18968" lon="24.933002"><ele>21.4</ele><time>2026-08-30T13:45:18Z</time></trkpt><trkpt lat="60.189705" lon="24.93299"><ele>21.7</ele><time>2026-08-30T13:45:19Z</time></trkpt><trkpt lat="60.189733" lon="24.93296"><ele>21.5</ele><time>2026-08-30T13:45:21Z</time><extensions><gpxtpx:TrackPointExtension><gpxtpx:hr>147</gpxtpx:hr></gpxtpx:TrackPointExtension></extensions></trkpt><trkpt lat="60.18975" lon="24.932932"><ele>22.1</ele><time>2026-08-30T13:45:22Z</time></trkpt><trkpt lat="60.18976" lon="24.932902"><ele>21.6</ele><time>2026-08-30T13:45:23Z</time></trkpt><trkpt lat="60.189773" lon="24.932852"><ele>22.1</ele><time>2026-08-30T13:45:24Z</time></trkpt><trkpt lat="60.189783" lon="24.932802"><ele>21.9</ele><time>2026-08-30T13:45:25Z</time></trkpt><trkpt lat="60.189792" lon="24.93276"><ele>22.1</ele><time>2026-08-30T13:45:26Z</time><extensions><gpxtpx:TrackPointExtension><gpxtpx:hr>147</gpxtpx:hr></gpxtpx:TrackPointExtension></extensions></trkpt><trkpt lat="60.189802" lon="24.932708"><ele>22.0</ele><time>2026-08-30T13:45:27Z</time></trkpt><trkpt lat="60.189812" lon="24.932655"><ele>21.4</ele><time>2026-08-30T13:45:28Z</time></trkpt><trkpt lat="60.189822" lon="24.932607"><ele>21.2</ele><time>2026-08-30T13:45:29Z</time><extensions><gpxtpx:TrackPointExtension><gpxtpx:hr>147</gpxtpx:hr></gpxtpx:TrackPointExtension></extensions></trkpt><trkpt lat="60.189833" lon="24.932555"><ele>19.7</ele><time>2026-08-30T13:45:30Z</time></trkpt><trkpt lat="60.189842" lon="24.932522"><ele>19.9</ele><time>2026-08-30T13:45:31Z</time></trkpt><trkpt lat="60.18985" lon="24.932482"><ele>20.1</ele><time>2026-08-30T13:45:32Z</time></trkpt><trkpt lat="60.189862" lon="24.932432"><ele>19.7</ele><time>2026-08-30T13:45:33Z</time></trkpt><trkpt lat="60.18987" lon="24.93239"><ele>19.1</ele><time>2026-08-30T13:45:34Z</time></trkpt><trkpt lat="60.189878" lon="24.932357"><ele>19.3</ele><time>2026-08-30T13:45:35Z</time></trkpt><trkpt lat="60.189892" lon="24.932298"><ele>18.1</ele><time>2026-08-30T13:45:37Z</time></trkpt><trkpt lat="60.189902" lon="24.932265"><ele>17.2</ele><time>2026-08-30T13:45:38Z</time><extensions><gpxtpx:TrackPointExtension><gpxtpx:hr>145</gpxtpx:hr></gpxtpx:TrackPointExtension></extensions></trkpt><trkpt lat="60.18992" lon="24.932203"><ele>15.6</ele><time>2026-08-30T13:45:40Z</time><extensions><gpxtpx:TrackPointExtension><gpxtpx:hr>143</gpxtpx:hr></gpxtpx:TrackPointExtension></extensions></trkpt><trkpt lat="60.189962" lon="24.932138"><ele>15.7</ele><time>2026-08-30T13:45:42Z</time></trkpt><trkpt lat="60.189973" lon="24.932087"><ele>15.5</ele><time>2026-08-30T13:45:43Z</time></trkpt><trkpt lat="60.189985" lon="24.932042"><ele>15.0</ele><time>2026-08-30T13:45:44Z</time></trkpt><trkpt lat="60.190005" lon="24.931998"><ele>15.3</ele><time>2026-08-30T13:45:45Z</time></trkpt><trkpt lat="60.19003" lon="24.931953"><ele>16.2</ele><time>2026-08-30T13:45:46Z</time></trkpt><trkpt lat="60.190043" lon="24.931928"><ele>15.4</ele><time>2026-08-30T13:45:47Z</time><extensions><gpxtpx:TrackPointExtension><gpxtpx:hr>143</gpxtpx:hr></gpxtpx:TrackPointExtension></extensions></trkpt><trkpt lat="60.190063" lon="24.93189"><ele>15.8</ele><time>2026-08-30T13:45:48Z</time></trkpt><trkpt lat="60.190082" lon="24.931857"><ele>14.8</ele><time>2026-08-30T13:45:49Z</time></trkpt><trkpt lat="60.190103" lon="24.931813"><ele>13.6</ele><time>2026-08-30T13:45:50Z</time><extensions><gpxtpx:TrackPointExtension><gpxtpx:hr>143</gpxtpx:hr></gpxtpx:TrackPointExtension></extensions></trkpt><trkpt lat="60.190128" lon="24.931762"><ele>14.1</ele><time>2026-08-30T13:45:51Z</time></trkpt><trkpt lat="60.190132" lon="24.931678"><ele>12.4</ele><time>2026-08-30T13:45:53Z</time></trkpt><trkpt lat="60.190142" lon="24.931628"><ele>12.3</ele><time>2026-08-30T13:45:54Z</time><extensions><gpxtpx:TrackPointExtension><gpxtpx:hr>142</gpxtpx:hr></gpxtpx:TrackPointExtension></extensions></trkpt><trkpt lat="60.19015" lon="24.931585"><ele>13.0</ele><time>2026-08-30T13:45:55Z</time></trkpt><trkpt lat="60.190158" lon="24.931537"><ele>12.5</ele><time>2026-08-30T13:45:56Z</time></trkpt><trkpt lat="60.190168" lon="24.931485"><ele>13.1</ele><time>2026-08-30T13:45:57Z</time></trkpt><trkpt lat="60.190175" lon="24.931445"><ele>13.8</ele><time>2026-08-30T13:45:58Z</time></trkpt><trkpt lat="60.190183" lon="24.931407"><ele>12.8</ele><time>2026-08-30T13:45:59Z</time><extensions><gpxtpx:TrackPointExtension><gpxtpx:hr>142</gpxtpx:hr></gpxtpx:TrackPointExtension></extensions></trkpt><trkpt lat="60.190195" lon="24.931338"><ele>13.0</ele><time>2026-08-30T13:46:00Z</time></trkpt><trkpt lat="60.190212" lon="24.931257"><ele>13.8</ele><time>2026-08-30T13:46:02Z</time></trkpt><trkpt lat="60.19022" lon="24.931212"><ele>14.0</ele><time>2026-08-30T13:46:03Z</time></trkpt><trkpt lat="60.190227" lon="24.931175"><ele>13.8</ele><time>2026-08-30T13:46:04Z</time></trkpt><trkpt lat="60.190235" lon="24.931123"><ele>14.6</ele><time>2026-08-30T13:46:05Z</time></trkpt><trkpt lat="60.190245" lon="24.931072"><ele>14.2</ele><time>2026-08-30T13:46:06Z</time></trkpt><trkpt lat="60.190257" lon="24.931015"><ele>13.5</ele><time>2026-08-30T13:46:07Z</time><extensions><gpxtpx:TrackPointExtension><gpxtpx:hr>143</gpxtpx:hr></gpxtpx:TrackPointExtension></extensions></trkpt><trkpt lat="60.190265" lon="24.930968"><ele>11.9</ele><time>2026-08-30T13:46:08Z</time></trkpt><trkpt lat="60.190272" lon="24.93093"><ele>10.8</ele><time>2026-08-30T13:46:09Z</time><extensions><gpxtpx:TrackPointExtension><gpxtpx:hr>143</gpxtpx:hr></gpxtpx:TrackPointExtension></extensions></trkpt><trkpt lat="60.190288" lon="24.930848"><ele>10.3</ele><time>2026-08-30T13:46:11Z</time></trkpt><trkpt lat="60.190297" lon="24.930797"><ele>10.3</ele><time>2026-08-30T13:46:12Z</time></trkpt><trkpt lat="60.190305" lon="24.93076"><ele>9.6</ele><time>2026-08-30T13:46:13Z</time></trkpt><trkpt lat="60.190315" lon="24.930705"><ele>10.3</ele><time>2026-08-30T13:46:14Z</time><extensions><gpxtpx:TrackPointExtension><gpxtpx:hr>144</gpxtpx:hr></gpxtpx:TrackPointExtension></extensions></trkpt><trkpt lat="60.190323" lon="24.93066"><ele>10.5</ele><time>2026-08-30T13:46:15Z</time></trkpt><trkpt lat="60.19033" lon="24.930625"><ele>11.0</ele><time>2026-08-30T13:46:16Z</time></trkpt><trkpt lat="60.190338" lon="24.930578"><ele>10.1</ele><time>2026-08-30T13:46:17Z</time></trkpt><trkpt lat="60.190347" lon="24.930532"><ele>9.5</ele><time>2026-08-30T13:46:18Z</time></trkpt><trkpt lat="60.190355" lon="24.930488"><ele>9.9</ele><time>2026-08-30T13:46:19Z</time></trkpt><trkpt lat="60.190365" lon="24.930438"><ele>10.0</ele><time>2026-08-30T13:46:20Z</time></trkpt><trkpt lat="60.190373" lon="24.930392"><ele>10.4</ele><time>2026-08-30T13:46:21Z</time></trkpt><trkpt lat="60.19038" lon="24.930355"><ele>9.6</ele><time>2026-08-30T13:46:22Z</time><extensions><gpxtpx:TrackPointExtension><gpxtpx:hr>142</gpxtpx:hr></gpxtpx:TrackPointExtension></extensions></trkpt><trkpt lat="60.190388" lon="24.930308"><ele>8.9</ele><time>2026-08-30T13:46:23Z</time></trkpt><trkpt lat="60.190398" lon="24.930262"><ele>8.5</ele><time>2026-08-30T13:46:24Z</time></trkpt><trkpt lat="60.190405" lon="24.930225"><ele>8.2</ele><time>2026-08-30T13:46:25Z</time></trkpt><trkpt lat="60.190415" lon="24.930167"><ele>8.6</ele><time>2026-08-30T13:46:26Z</time></trkpt><trkpt lat="60.190423" lon="24.930122"><ele>8.3</ele><time>2026-08-30T13:46:27Z</time></trkpt><trkpt lat="60.190433" lon="24.930068"><ele>8.1</ele><time>2026-08-30T13:46:28Z</time><extensions><gpxtpx:TrackPointExtension><gpxtpx:hr>142</gpxtpx:hr></gpxtpx:TrackPointExtension></extensions></trkpt><trkpt lat="60.190443" lon="24.930013"><ele>8.5</ele><time>2026-08-30T13:46:29Z</time></trkpt><trkpt lat="60.19045" lon="24.929978"><ele>8.4</ele><time>2026-08-30T13:46:30Z</time></trkpt><trkpt lat="60.190462" lon="24.92992"><ele>8.6</ele><time>2026-08-30T13:46:31Z</time></trkpt><trkpt lat="60.190472" lon="24.92987"><ele>8.6</ele><time>2026-08-30T13:46:32Z</time></trkpt><trkpt lat="60.190478" lon="24.929833"><ele>8.5</ele><time>2026-08-30T13:46:33Z</time><extensions><gpxtpx:TrackPointExtension><gpxtpx:hr>141</gpxtpx:hr></gpxtpx:TrackPointExtension></extensions></trkpt><trkpt lat="60.190488" lon="24.929775"><ele>8.8</ele><time>2026-08-30T13:46:34Z</time></trkpt><trkpt lat="60.190498" lon="24.929722"><ele>9.4</ele><time>2026-08-30T13:46:35Z</time></trkpt><trkpt lat="60.190505" lon="24.929688"><ele>9.1</ele><time>2026-08-30T13:46:36Z</time><extensions><gpxtpx:TrackPointExtension><gpxtpx:hr>141</gpxtpx:hr></gpxtpx:TrackPointExtension></extensions></trkpt><trkpt lat="60.190513" lon="24.929647"><ele>9.9</ele><time>2026-08-30T13:46:37Z</time></trkpt><trkpt lat="60.190522" lon="24.9296"><ele>9.6</ele><time>2026-08-30T13:46:38Z</time></trkpt><trkpt lat="60.190528" lon="24.929562"><ele>9.3</ele><time>2026-08-30T13:46:39Z</time><extensions><gpxtpx:TrackPointExtension><gpxtpx:hr>140</gpxtpx:hr></gpxtpx:TrackPointExtension></extensions></trkpt><trkpt lat="60.19054" lon="24.929512"><ele>10.2</ele><time>2026-08-30T13:46:40Z</time></trkpt><trkpt lat="60.190552" lon="24.929455"><ele>10.3</ele><time>2026-08-30T13:46:41Z</time></trkpt><trkpt lat="60.19056" lon="24.92942"><ele>10.9</ele><time>2026-08-30T13:46:42Z</time></trkpt><trkpt lat="60.19057" lon="24.929375"><ele>11.4</ele><time>2026-08-30T13:46:43Z</time></trkpt><trkpt lat="60.19058" lon="24.929327"><ele>11.3</ele><time>2026-08-30T13:46:44Z</time><extensions><gpxtpx:TrackPointExtension><gpxtpx:hr>140</gpxtpx:hr></gpxtpx:TrackPointExtension></extensions></trkpt><trkpt lat="60.190588" lon="24.92929"><ele>11.7</ele><time>2026-08-30T13:46:45Z</time></trkpt><trkpt lat="60.190597" lon="24.929253"><ele>12.0</ele><time>2026-08-30T13:46:46Z</time></trkpt><trkpt lat="60.190605" lon="24.929212"><ele>11.6</ele><time>2026-08-30T13:46:47Z</time></trkpt><trkpt lat="60.190622" lon="24.929148"><ele>13.3</ele><time>2026-08-30T13:46:49Z</time><extensions><gpxtpx:TrackPointExtension><gpxtpx:hr>142</gpxtpx:hr></gpxtpx:TrackPointExtension></extensions></trkpt><trkpt lat="60.190635" lon="24.929107"><ele>13.2</ele><time>2026-08-30T13:46:50Z</time></trkpt><trkpt lat="60.190648" lon="24.929072"><ele>13.4</ele><time>2026-08-30T13:46:51Z</time></trkpt><trkpt lat="60.190657" lon="24.929013"><ele>13.7</ele><time>2026-08-30T13:46:52Z</time></trkpt><trkpt lat="60.190662" lon="24.928963"><ele>13.6</ele><time>2026-08-30T13:46:53Z</time></trkpt><trkpt lat="60.190662" lon="24.928925"><ele>13.3</ele><time>2026-08-30T13:46:54Z</time></trkpt><trkpt lat="60.19067" lon="24.928882"><ele>13.4</ele><time>2026-08-30T13:46:55Z</time><extensions><gpxtpx:TrackPointExtension><gpxtpx:hr>143</gpxtpx:hr></gpxtpx:TrackPointExtension></extensions></trkpt><trkpt lat="60.190675" lon="24.928832"><ele>14.1</ele><time>2026-08-30T13:46:56Z</time></trkpt><trkpt lat="60.190682" lon="24.928742"><ele>13.7</ele><time>2026-08-30T13:46:58Z</time></trkpt><trkpt lat="60.190682" lon="24.928698"><ele>12.9</ele><time>2026-08-30T13:46:59Z</time><extensions><gpxtpx:TrackPointExtension><gpxtpx:hr>143</gpxtpx:hr></gpxtpx:TrackPointExtension></extensions></trkpt><trkpt lat="60.190682" lon="24.928643"><ele>14.6</ele><time>2026-08-30T13:47:00Z</time></trkpt><trkpt lat="60.190682" lon="24.928587"><ele>14.3</ele><time>2026-08-30T13:47:01Z</time></trkpt><trkpt lat="60.190678" lon="24.928498"><ele>15.1</ele><time>2026-08-30T13:47:03Z</time></trkpt><trkpt lat="60.190675" lon="24.928453"><ele>15.0</ele><time>2026-08-30T13:47:04Z</time></trkpt><trkpt lat="60.190672" lon="24.92841"><ele>14.3</ele><time>2026-08-30T13:47:05Z</time></trkpt><trkpt lat="60.190668" lon="24.928358"><ele>13.8</ele><time>2026-08-30T13:47:06Z</time></trkpt><trkpt lat="60.190665" lon="24.928305"><ele>13.9</ele><time>2026-08-30T13:47:07Z</time></trkpt><trkpt lat="60.190667" lon="24.928265"><ele>14.9</ele><time>2026-08-30T13:47:09Z</time><extensions><gpxtpx:TrackPointExtension><gpxtpx:hr>144</gpxtpx:hr></gpxtpx:TrackPointExtension></extensions></trkpt><trkpt lat="60.190675" lon="24.928218"><ele>14.8</ele><time>2026-08-30T13:47:10Z</time></trkpt><trkpt lat="60.190687" lon="24.928185"><ele>14.8</ele><time>2026-08-30T13:47:11Z</time></trkpt><trkpt lat="60.1907" lon="24.928148"><ele>15.4</ele><time>2026-08-30T13:47:12Z</time></trkpt><trkpt lat="60.190712" lon="24.9281"><ele>15.2</ele><time>2026-08-30T13:47:13Z</time><extensions><gpxtpx:TrackPointExtension><gpxtpx:hr>145</gpxtpx:hr></gpxtpx:TrackPointExtension></extensions></trkpt><trkpt lat="60.190713" lon="24.92805"><ele>14.5</ele><time>2026-08-30T13:47:14Z</time><extensions><gpxtpx:TrackPointExtension><gpxtpx:hr>145</gpxtpx:hr></gpxtpx:TrackPointExtension></extensions></trkpt><trkpt lat="60.190715" lon="24.928002"><ele>16.1</ele><time>2026-08-30T13:47:15Z</time></trkpt><trkpt lat="60.190692" lon="24.927967"><ele>17.3</ele><time>2026-08-30T13:47:17Z</time></trkpt><trkpt lat="60.190647" lon="24.927953"><ele>15.9</ele><time>2026-08-30T13:47:19Z</time></trkpt><trkpt lat="60.190618" lon="24.927942"><ele>15.8</ele><time>2026-08-30T13:47:21Z</time><extensions><gpxtpx:TrackPointExtension><gpxtpx:hr>146</gpxtpx:hr></gpxtpx:TrackPointExtension></extensions></trkpt><trkpt lat="60.190603" lon="24.927898"><ele>14.0</ele><time>2026-08-30T13:47:23Z</time></trkpt><trkpt lat="60.190605" lon="24.927857"><ele>14.8</ele><time>2026-08-30T13:47:24Z</time></trkpt><trkpt lat="60.190602" lon="24.927805"><ele>14.9</ele><time>2026-08-30T13:47:25Z</time></trkpt><trkpt lat="60.190598" lon="24.92775"><ele>15.1</ele><time>2026-08-30T13:47:26Z</time><extensions><gpxtpx:TrackPointExtension><gpxtpx:hr>147</gpxtpx:hr></gpxtpx:TrackPointExtension></extensions></trkpt><trkpt lat="60.190608" lon="24.927688"><ele>15.7</ele><time>2026-08-30T13:47:27Z</time></trkpt><trkpt lat="60.190617" lon="24.92761"><ele>15.4</ele><time>2026-08-30T13:47:28Z</time></trkpt><trkpt lat="60.190633" lon="24.92758"><ele>15.8</ele><time>2026-08-30T13:47:29Z</time></trkpt><trkpt lat="60.190645" lon="24.927547"><ele>15.8</ele><time>2026-08-30T13:47:30Z</time><extensions><gpxtpx:TrackPointExtension><gpxtpx:hr>147</gpxtpx:hr></gpxtpx:TrackPointExtension></extensions></trkpt><trkpt lat="60.190662" lon="24.927507"><ele>16.1</ele><time>2026-08-30T13:47:31Z</time></trkpt><trkpt lat="60.190675" lon="24.92747"><ele>15.6</ele><time>2026-08-30T13:47:32Z</time></trkpt><trkpt lat="60.190692" lon="24.927432"><ele>15.4</ele><time>2026-08-30T13:47:34Z</time></trkpt><trkpt lat="60.1907" lon="24.927375"><ele>15.5</ele><time>2026-08-30T13:47:35Z</time><extensions><gpxtpx:TrackPointExtension><gpxtpx:hr>147</gpxtpx:hr></gpxtpx:TrackPointExtension></extensions></trkpt><trkpt lat="60.190707" lon="24.92733"><ele>15.1</ele><time>2026-08-30T13:47:36Z</time></trkpt><trkpt lat="60.190715" lon="24.92729"><ele>16.0</ele><time>2026-08-30T13:47:37Z</time></trkpt><trkpt lat="60.190718" lon="24.927225"><ele>15.5</ele><time>2026-08-30T13:47:38Z</time></trkpt><trkpt lat="60.190703" lon="24.927183"><ele>15.0</ele><time>2026-08-30T13:47:39Z</time></trkpt><trkpt lat="60.190697" lon="24.927128"><ele>15.1</ele><time>2026-08-30T13:47:40Z</time></trkpt><trkpt lat="60.190683" lon="24.92709"><ele>15.5</ele><time>2026-08-30T13:47:41Z</time></trkpt><trkpt lat="60.190675" lon="24.927053"><ele>15.8</ele><time>2026-08-30T13:47:42Z</time></trkpt><trkpt lat="60.190663" lon="24.92702"><ele>16.0</ele><time>2026-08-30T13:47:43Z</time></trkpt><trkpt lat="60.19066" lon="24.926965"><ele>15.8</ele><time>2026-08-30T13:47:44Z</time><extensions><gpxtpx:TrackPointExtension><gpxtpx:hr>148</gpxtpx:hr></gpxtpx:TrackPointExtension></extensions></trkpt><trkpt lat="60.190658" lon="24.926928"><ele>16.5</ele><time>2026-08-30T13:47:45Z</time></trkpt><trkpt lat="60.190648" lon="24.92687"><ele>17.1</ele><time>2026-08-30T13:47:46Z</time></trkpt><trkpt lat="60.190633" lon="24.926828"><ele>18.7</ele><time>2026-08-30T13:47:47Z</time><extensions><gpxtpx:TrackPointExtension><gpxtpx:hr>151</gpxtpx:hr></gpxtpx:TrackPointExtension></extensions></trkpt><trkpt lat="60.190617" lon="24.926802"><ele>18.2</ele><time>2026-08-30T13:47:48Z</time></trkpt><trkpt lat="60.1906" lon="24.926765"><ele>17.7</ele><time>2026-08-30T13:47:49Z</time></trkpt><trkpt lat="60.19059" lon="24.92673"><ele>18.1</ele><time>2026-08-30T13:47:50Z</time></trkpt><trkpt lat="60.190565" lon="24.926657"><ele>20.5</ele><time>2026-08-30T13:47:52Z</time><extensions><gpxtpx:TrackPointExtension><gpxtpx:hr>151</gpxtpx:hr></gpxtpx:TrackPointExtension></extensions></trkpt><trkpt lat="60.19055" lon="24.926627"><ele>20.2</ele><time>2026-08-30T13:47:53Z</time></trkpt><trkpt lat="60.19053" lon="24.926588"><ele>19.8</ele><time>2026-08-30T13:47:54Z</time></trkpt><trkpt lat="60.190512" lon="24.92655"><ele>20.2</ele><time>2026-08-30T13:47:55Z</time></trkpt><trkpt lat="60.190498" lon="24.926522"><ele>20.1</ele><time>2026-08-30T13:47:56Z</time></trkpt><trkpt lat="60.190485" lon="24.926498"><ele>20.7</ele><time>2026-08-30T13:47:57Z</time></trkpt><trkpt lat="60.190468" lon="24.926458"><ele>21.2</ele><time>2026-08-30T13:47:58Z</time></trkpt><trkpt lat="60.190453" lon="24.926432"><ele>21.4</ele><time>2026-08-30T13:47:59Z</time><extensions><gpxtpx:TrackPointExtension><gpxtpx:hr>151</gpxtpx:hr></gpxtpx:TrackPointExtension></extensions></trkpt><trkpt lat="60.190437" lon="24.926413"><ele>21.4</ele><time>2026-08-30T13:48:00Z</time></trkpt><trkpt lat="60.190422" lon="24.92638"><ele>21.7</ele><time>2026-08-30T13:48:01Z</time></trkpt><trkpt lat="60.190398" lon="24.926333"><ele>20.9</ele><time>2026-08-30T13:48:02Z</time></trkpt><trkpt lat="60.190377" lon="24.926295"><ele>19.5</ele><time>2026-08-30T13:48:03Z</time></trkpt><trkpt lat="60.190355" lon="24.926278"><ele>18.4</ele><time>2026-08-30T13:48:04Z</time><extensions><gpxtpx:TrackPointExtension><gpxtpx:hr>151</gpxtpx:hr></gpxtpx:TrackPointExtension></extensions></trkpt><trkpt lat="60.190328" lon="24.92625"><ele>18.4</ele><time>2026-08-30T13:48:05Z</time></trkpt><trkpt lat="60.19031" lon="24.926222"><ele>19.1</ele><time>2026-08-30T13:48:06Z</time><extensions><gpxtpx:TrackPointExtension><gpxtpx:hr>152</gpxtpx:hr></gpxtpx:TrackPointExtension></extensions></trkpt><trkpt lat="60.190283" lon="24.926208"><ele>19.4</ele><time>2026-08-30T13:48:07Z</time></trkpt><trkpt lat="60.190258" lon="24.926167"><ele>18.5</ele><time>2026-08-30T13:48:08Z</time></trkpt><trkpt lat="60.190237" lon="24.92614"><ele>18.6</ele><time>2026-08-30T13:48:09Z</time></trkpt><trkpt lat="60.19021" lon="24.926142"><ele>18.2</ele><time>2026-08-30T13:48:10Z</time></trkpt><trkpt lat="60.190188" lon="24.92612"><ele>18.2</ele><time>2026-08-30T13:48:11Z</time></trkpt><trkpt lat="60.190163" lon="24.926117"><ele>18.0</ele><time>2026-08-30T13:48:12Z</time></trkpt><trkpt lat="60.190135" lon="24.926118"><ele>17.5</ele><time>2026-08-30T13:48:13Z</time><extensions><gpxtpx:TrackPointExtension><gpxtpx:hr>152</gpxtpx:hr></gpxtpx:TrackPointExtension></extensions></trkpt><trkpt lat="60.190112" lon="24.926097"><ele>17.7</ele><time>2026-08-30T13:48:14Z</time></trkpt><trkpt lat="60.190065" lon="24.926075"><ele>17.2</ele><time>2026-08-30T13:48:16Z</time><extensions><gpxtpx:TrackPointExtension><gpxtpx:hr>152</gpxtpx:hr></gpxtpx:TrackPointExtension></extensions></trkpt><trkpt lat="60.190043" lon="24.926052"><ele>18.1</ele><time>2026-08-30T13:48:17Z</time></trkpt><trkpt lat="60.190023" lon="24.926037"><ele>16.8</ele><time>2026-08-30T13:48:18Z</time></trkpt><trkpt lat="60.189993" lon="24.926017"><ele>18.2</ele><time>2026-08-30T13:48:19Z</time></trkpt><trkpt lat="60.189972" lon="24.92601"><ele>17.3</ele><time>2026-08-30T13:48:20Z</time></trkpt><trkpt lat="60.189948" lon="24.925987"><ele>16.0</ele><time>2026-08-30T13:48:21Z</time></trkpt><trkpt lat="60.189918" lon="24.925978"><ele>15.7</ele><time>2026-08-30T13:48:22Z</time><extensions><gpxtpx:TrackPointExtension><gpxtpx:hr>153</gpxtpx:hr></gpxtpx:TrackPointExtension></extensions></trkpt><trkpt lat="60.189895" lon="24.925967"><ele>15.8</ele><time>2026-08-30T13:48:23Z</time></trkpt><trkpt lat="60.18987" lon="24.925952"><ele>15.8</ele><time>2026-08-30T13:48:24Z</time></trkpt><trkpt lat="60.18984" lon="24.925932"><ele>15.6</ele><time>2026-08-30T13:48:25Z</time><extensions><gpxtpx:TrackPointExtension><gpxtpx:hr>154</gpxtpx:hr></gpxtpx:TrackPointExtension></extensions></trkpt><trkpt lat="60.18982" lon="24.92591"><ele>15.2</ele><time>2026-08-30T13:48:26Z</time></trkpt><trkpt lat="60.189798" lon="24.925897"><ele>14.4</ele><time>2026-08-30T13:48:27Z</time></trkpt><trkpt lat="60.189775" lon="24.925878"><ele>15.7</ele><time>2026-08-30T13:48:28Z</time></trkpt><trkpt lat="60.189735" lon="24.925852"><ele>13.8</ele><time>2026-08-30T13:48:30Z</time><extensions><gpxtpx:TrackPointExtension><gpxtpx:hr>154</gpxtpx:hr></gpxtpx:TrackPointExtension></extensions></trkpt><trkpt lat="60.189712" lon="24.925823"><ele>13.9</ele><time>2026-08-30T13:48:31Z</time></trkpt><trkpt lat="60.189693" lon="24.9258"><ele>12.9</ele><time>2026-08-30T13:48:32Z</time></trkpt><trkpt lat="60.189672" lon="24.92578"><ele>13.5</ele><time>2026-08-30T13:48:33Z</time></trkpt><trkpt lat="60.18965" lon="24.925757"><ele>12.1</ele><time>2026-08-30T13:48:34Z</time></trkpt><trkpt lat="60.189617" lon="24.925702"><ele>12.0</ele><time>2026-08-30T13:48:36Z</time><extensions><gpxtpx:TrackPointExtension><gpxtpx:hr>154</gpxtpx:hr></gpxtpx:TrackPointExtension></extensions></trkpt><trkpt lat="60.1896" lon="24.925668"><ele>10.4</ele><time>2026-08-30T13:48:37Z</time></trkpt><trkpt lat="60.189592" lon="24.925618"><ele>10.7</ele><time>2026-08-30T13:48:38Z</time></trkpt><trkpt lat="60.189583" lon="24.92558"><ele>11.5</ele><time>2026-08-30T13:48:39Z</time></trkpt><trkpt lat="60.189593" lon="24.925547"><ele>11.8</ele><time>2026-08-30T13:48:40Z</time></trkpt><trkpt lat="60.189595" lon="24.925503"><ele>12.1</ele><time>2026-08-30T13:48:41Z</time></trkpt><trkpt lat="60.189592" lon="24.92545"><ele>11.3</ele><time>2026-08-30T13:48:42Z</time></trkpt><trkpt lat="60.189603" lon="24.925388"><ele>12.2</ele><time>2026-08-30T13:48:44Z</time><extensions><gpxtpx:TrackPointExtension><gpxtpx:hr>154</gpxtpx:hr></gpxtpx:TrackPointExtension></extensions></trkpt><trkpt lat="60.189632" lon="24.925358"><ele>12.6</ele><time>2026-08-30T13:48:46Z</time><extensions><gpxtpx:TrackPointExtension><gpxtpx:hr>154</gpxtpx:hr></gpxtpx:TrackPointExtension></extensions></trkpt><trkpt lat="60.189647" lon="24.925338"><ele>12.9</ele><time>2026-08-30T13:48:47Z</time></trkpt><trkpt lat="60.189652" lon="24.925278"><ele>12.8</ele><time>2026-08-30T13:48:48Z</time></trkpt><trkpt lat="60.189638" lon="24.925222"><ele>12.4</ele><time>2026-08-30T13:48:49Z</time></trkpt><trkpt lat="60.189635" lon="24.92517"><ele>12.0</ele><time>2026-08-30T13:48:50Z</time></trkpt><trkpt lat="60.189625" lon="24.92511"><ele>12.0</ele><time>2026-08-30T13:48:51Z</time></trkpt><trkpt lat="60.189628" lon="24.92507"><ele>12.2</ele><time>2026-08-30T13:48:52Z</time></trkpt><trkpt lat="60.189623" lon="24.925025"><ele>11.4</ele><time>2026-08-30T13:48:53Z</time><extensions><gpxtpx:TrackPointExtension><gpxtpx:hr>152</gpxtpx:hr></gpxtpx:TrackPointExtension></extensions></trkpt><trkpt lat="60.189617" lon="24.924962"><ele>11.0</ele><time>2026-08-30T13:48:54Z</time></trkpt><trkpt lat="60.189613" lon="24.924918"><ele>10.9</ele><time>2026-08-30T13:48:55Z</time></trkpt><trkpt lat="60.189613" lon="24.924848"><ele>11.7</ele><time>2026-08-30T13:48:56Z</time></trkpt><trkpt lat="60.189605" lon="24.9248"><ele>10.8</ele><time>2026-08-30T13:48:57Z</time></trkpt><trkpt lat="60.189607" lon="24.924727"><ele>10.1</ele><time>2026-08-30T13:48:59Z</time><extensions><gpxtpx:TrackPointExtension><gpxtpx:hr>152</gpxtpx:hr></gpxtpx:TrackPointExtension></extensions></trkpt><trkpt lat="60.18961" lon="24.924687"><ele>10.5</ele><time>2026-08-30T13:49:00Z</time></trkpt><trkpt lat="60.189605" lon="24.924648"><ele>10.2</ele><time>2026-08-30T13:49:01Z</time></trkpt><trkpt lat="60.189592" lon="24.924595"><ele>9.7</ele><time>2026-08-30T13:49:02Z</time></trkpt><trkpt lat="60.189585" lon="24.924555"><ele>9.3</ele><time>2026-08-30T13:49:03Z</time><extensions><gpxtpx:TrackPointExtension><gpxtpx:hr>152</gpxtpx:hr></gpxtpx:TrackPointExtension></extensions></trkpt><trkpt lat="60.189585" lon="24.924493"><ele>9.9</ele><time>2026-08-30T13:49:04Z</time></trkpt><trkpt lat="60.189585" lon="24.924438"><ele>8.6</ele><time>2026-08-30T13:49:05Z</time></trkpt><trkpt lat="60.189595" lon="24.924402"><ele>10.1</ele><time>2026-08-30T13:49:06Z</time></trkpt><trkpt lat="60.189607" lon="24.92436"><ele>9.0</ele><time>2026-08-30T13:49:07Z</time><extensions><gpxtpx:TrackPointExtension><gpxtpx:hr>149</gpxtpx:hr></gpxtpx:TrackPointExtension></extensions></trkpt><trkpt lat="60.189617" lon="24.924318"><ele>8.1</ele><time>2026-08-30T13:49:08Z</time></trkpt><trkpt lat="60.189635" lon="24.92425"><ele>9.6</ele><time>2026-08-30T13:49:10Z</time></trkpt><trkpt lat="60.189652" lon="24.924205"><ele>10.1</ele><time>2026-08-30T13:49:11Z</time><extensions><gpxtpx:TrackPointExtension><gpxtpx:hr>147</gpxtpx:hr></gpxtpx:TrackPointExtension></extensions></trkpt><trkpt lat="60.189663" lon="24.92417"><ele>9.9</ele><time>2026-08-30T13:49:12Z</time></trkpt><trkpt lat="60.189677" lon="24.924128"><ele>10.3</ele><time>2026-08-30T13:49:13Z</time></trkpt><trkpt lat="60.189695" lon="24.924092"><ele>10.6</ele><time>2026-08-30T13:49:14Z</time></trkpt><trkpt lat="60.189708" lon="24.924065"><ele>10.7</ele><time>2026-08-30T13:49:15Z</time></trkpt><trkpt lat="60.18972" lon="24.924018"><ele>11.0</ele><time>2026-08-30T13:49:16Z</time></trkpt><trkpt lat="60.189737" lon="24.92397"><ele>11.0</ele><time>2026-08-30T13:49:17Z</time></trkpt><trkpt lat="60.189743" lon="24.923928"><ele>11.2</ele><time>2026-08-30T13:49:18Z</time><extensions><gpxtpx:TrackPointExtension><gpxtpx:hr>146</gpxtpx:hr></gpxtpx:TrackPointExtension></extensions></trkpt><trkpt lat="60.189742" lon="24.923872"><ele>11.2</ele><time>2026-08-30T13:49:19Z</time></trkpt><trkpt lat="60.189743" lon="24.923812"><ele>11.0</ele><time>2026-08-30T13:49:20Z</time><extensions><gpxtpx:TrackPointExtension><gpxtpx:hr>149</gpxtpx:hr></gpxtpx:TrackPointExtension></extensions></trkpt><trkpt lat="60.189743" lon="24.92377"><ele>11.0</ele><time>2026-08-30T13:49:21Z</time></trkpt><trkpt lat="60.189745" lon="24.923715"><ele>10.9</ele><time>2026-08-30T13:49:22Z</time></trkpt><trkpt lat="60.189743" lon="24.923658"><ele>10.8</ele><time>2026-08-30T13:49:23Z</time></trkpt><trkpt lat="60.189742" lon="24.923618"><ele>10.5</ele><time>2026-08-30T13:49:24Z</time></trkpt><trkpt lat="60.189738" lon="24.923572"><ele>11.0</ele><time>2026-08-30T13:49:25Z</time></trkpt><trkpt lat="60.189738" lon="24.923512"><ele>10.6</ele><time>2026-08-30T13:49:26Z</time></trkpt><trkpt lat="60.18974" lon="24.923475"><ele>10.7</ele><time>2026-08-30T13:49:27Z</time></trkpt><trkpt lat="60.189745" lon="24.923423"><ele>10.6</ele><time>2026-08-30T13:49:28Z</time></trkpt><trkpt lat="60.189748" lon="24.923367"><ele>10.6</ele><time>2026-08-30T13:49:29Z</time><extensions><gpxtpx:TrackPointExtension><gpxtpx:hr>146</gpxtpx:hr></gpxtpx:TrackPointExtension></extensions></trkpt><trkpt lat="60.189755" lon="24.923327"><ele>10.7</ele><time>2026-08-30T13:49:30Z</time></trkpt><trkpt lat="60.189763" lon="24.923287"><ele>10.6</ele><time>2026-08-30T13:49:31Z</time></trkpt><trkpt lat="60.18977" lon="24.923233"><ele>10.5</ele><time>2026-08-30T13:49:32Z</time><extensions><gpxtpx:TrackPointExtension><gpxtpx:hr>146</gpxtpx:hr></gpxtpx:TrackPointExtension></extensions></trkpt><trkpt lat="60.189775" lon="24.923192"><ele>10.4</ele><time>2026-08-30T13:49:33Z</time></trkpt><trkpt lat="60.189778" lon="24.923155"><ele>10.2</ele><time>2026-08-30T13:49:34Z</time></trkpt><trkpt lat="60.189775" lon="24.9231"><ele>9.2</ele><time>2026-08-30T13:49:35Z</time></trkpt><trkpt lat="60.18978" lon="24.923057"><ele>10.9</ele><time>2026-08-30T13:49:36Z</time><extensions><gpxtpx:TrackPointExtension><gpxtpx:hr>148</gpxtpx:hr></gpxtpx:TrackPointExtension></extensions></trkpt><trkpt lat="60.189785" lon="24.92301"><ele>10.6</ele><time>2026-08-30T13:49:37Z</time></trkpt><trkpt lat="60.189787" lon="24.922953"><ele>10.2</ele><time>2026-08-30T13:49:38Z</time></trkpt><trkpt lat="60.189795" lon="24.922908"><ele>11.2</ele><time>2026-08-30T13:49:39Z</time></trkpt><trkpt lat="60.189803" lon="24.922847"><ele>10.6</ele><time>2026-08-30T13:49:41Z</time></trkpt><trkpt lat="60.18981" lon="24.922807"><ele>10.8</ele><time>2026-08-30T13:49:43Z</time><extensions><gpxtpx:TrackPointExtension><gpxtpx:hr>147</gpxtpx:hr></gpxtpx:TrackPointExtension></extensions></trkpt></trkseg></trk></gpx>