<?xml version="1.0" encoding="UTF-8" standalone="no"?><gpx xmlns="http://www.topografix.com/GPX/1/1" xmlns:gpxtpx="http://www.garmin.com/xmlschemas/TrackPointExtension/v1" xmlns:xsi="http://www.w3.org/2001/XMLSchema-instance" creator="Sports Tracker" version="1.1" xsi:schemaLocation="http://www.topografix.com/GPX/1/1 http://www.topografix.com/GPX/1/1/gpx.xsd http://www.garmin.com/xmlschemas/TrackPointExtension/v1 http://www.garmin.com/xmlschemas/TrackPointExtensionv1.xsd"><metadata><name/><desc/><author><name>anttipehkonen240</name></author></metadata><trk><name/><trkseg><trkpt lat="64.701062" lon="24.476645"><ele>-5.6</ele><time>2026-07-12T08:16:36Z</time></trkpt><trkpt lat="64.701062" lon="24.476645"><ele>-5.6</ele><time>2026-07-12T08:16:43Z</time><extensions><gpxtpx:TrackPointExtension><gpxtpx:hr>80</gpxtpx:hr></gpxtpx:TrackPointExtension></extensions></trkpt><trkpt lat="64.701062" lon="24.476645"><ele>-5.6</ele><time>2026-07-12T08:16:48Z</time><extensions><gpxtpx:TrackPointExtension><gpxtpx:hr>79</gpxtpx:hr></gpxtpx:TrackPointExtension></extensions></trkpt><trkpt lat="64.701062" lon="24.476645"><ele>-5.6</ele><time>2026-07-12T08:16:52Z</time><extensions><gpxtpx:TrackPointExtension><gpxtpx:hr>80</gpxtpx:hr></gpxtpx:TrackPointExtension></extensions></trkpt><trkpt lat="64.701062" lon="24.476645"><ele>-5.6</ele><time>2026-07-12T08:16:54Z</time><extensions><gpxtpx:TrackPointExtension><gpxtpx:hr>79</gpxtpx:hr></gpxtpx:TrackPointExtension></extensions></trkpt><trkpt lat="64.701062" lon="24.476645"><ele>-5.6</ele><time>2026-07-12T08:16:59Z</time><extensions><gpxtpx:TrackPointExtension><gpxtpx:hr>81</gpxtpx:hr></gpxtpx:TrackPointExtension></extensions></trkpt><trkpt lat="64.701062" lon="24.476645"><ele>-5.6</ele><time>2026-07-12T08:17:04Z</time><extensions><gpxtpx:TrackPointExtension><gpxtpx:hr>85</gpxtpx:hr></gpxtpx:TrackPointExtension></extensions></trkpt><trkpt lat="64.701062" lon="24.476645"><ele>-5.6</ele><time>2026-07-12T08:17:23Z</time><extensions><gpxtpx:TrackPointExtension><gpxtpx:hr>95</gpxtpx:hr></gpxtpx:TrackPointExtension></extensions></trkpt><trkpt lat="64.701062" lon="24.476645"><ele>-5.6</ele><time>2026-07-12T08:17:28Z</time><extensions><gpxtpx:TrackPointExtension><gpxtpx:hr>98</gpxtpx:hr></gpxtpx:TrackPointExtension></extensions></trkpt><trkpt lat="64.701062" lon="24.476645"><ele>-5.6</ele><time>2026-07-12T08:17:29Z</time><extensions><gpxtpx:TrackPointExtension><gpxtpx:hr>97</gpxtpx:hr></gpxtpx:TrackPointExtension></extensions></trkpt><trkpt lat="64.701062" lon="24.476645"><ele>-5.6</ele><time>2026-07-12T08:17:34Z</time><extensions><gpxtpx:TrackPointExtension><gpxtpx:hr>92</gpxtpx:hr></gpxtpx:TrackPointExtension></extensions></trkpt><trkpt lat="64.701062" lon="24.476645"><ele>-5.6</ele><time>2026-07-12T08:17:39Z</time><extensions><gpxtpx:TrackPointExtension><gpxtpx:hr>93</gpxtpx:hr></gpxtpx:TrackPointExtension></extensions></trkpt><trkpt lat="64.701062" lon="24.476645"><ele>-5.6</ele><time>2026-07-12T08:17:48Z</time><extensions><gpxtpx:TrackPointExtension><gpxtpx:hr>92</gpxtpx:hr></gpxtpx:TrackPointExtension></extensions></trkpt><trkpt lat="64.701062" lon="24.476645"><ele>-5.6</ele><time>2026-07-12T08:17:53Z</time><extensions><gpxtpx:TrackPointExtension><gpxtpx:hr>88</gpxtpx:hr></gpxtpx:TrackPointExtension></extensions></trkpt><trkpt lat="64.701062" lon="24.476645"><ele>-5.6</ele><time>2026-07-12T08:17:55Z</time><extensions><gpxtpx:TrackPointExtension><gpxtpx:hr>87</gpxtpx:hr></gpxtpx:TrackPointExtension></extensions></trkpt><trkpt lat="64.701062" lon="24.476645"><ele>-5.6</ele><time>2026-07-12T08:17:59Z</time><extensions><gpxtpx:TrackPointExtension><gpxtpx:hr>85</gpxtpx:hr></gpxtpx:TrackPointExtension></extensions></trkpt><trkpt lat="64.701062" lon="24.476645"><ele>-5.6</ele><time>2026-07-12T08:18:04Z</time><extensions><gpxtpx:TrackPointExtension><gpxtpx:hr>86</gpxtpx:hr></gpxtpx:TrackPointExtension></extensions></trkpt><trkpt lat="64.701062" lon="24.476645"><ele>-5.6</ele><time>2026-07-12T08:18:13Z</time><extensions><gpxtpx:TrackPointExtension><gpxtpx:hr>90</gpxtpx:hr></gpxtpx:TrackPointExtension></extensions></trkpt><trkpt lat="64.701062" lon="24.476645"><ele>-5.6</ele><time>2026-07-12T08:18:14Z</time><extensions><gpxtpx:TrackPointExtension><gpxtpx:hr>91</gpxtpx:hr></gpxtpx:TrackPointExtension></extensions></trkpt><trkpt lat="64.701062" lon="24.476645"><ele>-5.6</ele><time>2026-07-12T08:18:19Z</time><extensions><gpxtpx:TrackPointExtension><gpxtpx:hr>91</gpxtpx:hr></gpxtpx:TrackPointExtension></extensions></trkpt><trkpt lat="64.701062" lon="24.476645"><ele>-5.6</ele><time>2026-07-12T08:18:27Z</time><extensions><gpxtpx:TrackPointExtension><gpxtpx:hr>85</gpxtpx:hr></gpxtpx:TrackPointExtension></extensions></trkpt><trkpt lat="64.701062" lon="24.476645"><ele>-5.6</ele><time>2026-07-12T08:18:29Z</time><extensions><gpxtpx:TrackPointExtension><gpxtpx:hr>86</gpxtpx:hr></gpxtpx:TrackPointExtension></extensions></trkpt><trkpt lat="64.701062" lon="24.476645"><ele>-5.6</ele><time>2026-07-12T08:18:36Z</time><extensions><gpxtpx:TrackPointExtension><gpxtpx:hr>83</gpxtpx:hr></gpxtpx:TrackPointExtension></extensions></trkpt><trkpt lat="64.701062" lon="24.476645"><ele>-5.6</ele><time>2026-07-12T08:18:39Z</time><extensions><gpxtpx:TrackPointExtension><gpxtpx:hr>83</gpxtpx:hr></gpxtpx:TrackPointExtension></extensions></trkpt><trkpt lat="64.701062" lon="24.476645"><ele>-5.6</ele><time>2026-07-12T08:18:55Z</time><extensions><gpxtpx:TrackPointExtension><gpxtpx:hr>83</gpxtpx:hr></gpxtpx:TrackPointExtension></extensions></trkpt><trkpt lat="64.701062" lon="24.476645"><ele>-5.6</ele><time>2026-07-12T08:19:43Z</time><extensions><gpxtpx:TrackPointExtension><gpxtpx:hr>98</gpxtpx:hr></gpxtpx:TrackPointExtension></extensions></trkpt><trkpt lat="64.701062" lon="24.476645"><ele>-5.6</ele><time>2026-07-12T08:19:45Z</time><extensions><gpxtpx:TrackPointExtension><gpxtpx:hr>100</gpxtpx:hr></gpxtpx:TrackPointExtension></extensions></trkpt><trkpt lat="64.701062" lon="24.476645"><ele>-5.6</ele><time>2026-07-12T08:19:53Z</time><extensions><gpxtpx:TrackPointExtension><gpxtpx:hr>95</gpxtpx:hr></gpxtpx:TrackPointExtension></extensions></trkpt><trkpt lat="64.701062" lon="24.476645"><ele>-5.6</ele><time>2026-07-12T08:19:55Z</time><extensions><gpxtpx:TrackPointExtension><gpxtpx:hr>95</gpxtpx:hr></gpxtpx:TrackPointExtension></extensions></trkpt><trkpt lat="64.701062" lon="24.476645"><ele>-5.6</ele><time>2026-07-12T08:19:59Z</time><extensions><gpxtpx:TrackPointExtension><gpxtpx:hr>94</gpxtpx:hr></gpxtpx:TrackPointExtension></extensions></trkpt><trkpt lat="64.701062" lon="24.476645"><ele>-5.6</ele><time>2026-07-12T08:20:04Z</time><extensions><gpxtpx:TrackPointExtension><gpxtpx:hr>92</gpxtpx:hr></gpxtpx:TrackPointExtension></extensions></trkpt><trkpt lat="64.701062" lon="24.476645"><ele>-5.6</ele><time>2026-07-12T08:20:11Z</time><extensions><gpxtpx:TrackPointExtension><gpxtpx:hr>90</gpxtpx:hr></gpxtpx:TrackPointExtension></extensions></trkpt><trkpt lat="64.701062" lon="24.476645"><ele>-5.6</ele><time>2026-07-12T08:20:14Z</time><extensions><gpxtpx:TrackPointExtension><gpxtpx:hr>87</gpxtpx:hr></gpxtpx:TrackPointExtension></extensions></trkpt><trkpt lat="64.701062" lon="24.476645"><ele>-5.6</ele><time>2026-07-12T08:20:23Z</time><extensions><gpxtpx:TrackPointExtension><gpxtpx:hr>90</gpxtpx:hr></gpxtpx:TrackPointExtension></extensions></trkpt><trkpt lat="64.701062" lon="24.476645"><ele>-5.6</ele><time>2026-07-12T08:20:28Z</time><extensions><gpxtpx:TrackPointExtension><gpxtpx:hr>90</gpxtpx:hr></gpxtpx:TrackPointExtension></extensions></trkpt><trkpt lat="64.701062" lon="24.476645"><ele>-5.6</ele><time>2026-07-12T08:20:32Z</time><extensions><gpxtpx:TrackPointExtension><gpxtpx:hr>88</gpxtpx:hr></gpxtpx:TrackPointExtension></extensions></trkpt><trkpt lat="64.701062" lon="24.476645"><ele>-5.6</ele><time>2026-07-12T08:20:34Z</time><extensions><gpxtpx:TrackPointExtension><gpxtpx:hr>89</gpxtpx:hr></gpxtpx:TrackPointExtension></extensions></trkpt><trkpt lat="64.701062" lon="24.476645"><ele>-5.6</ele><time>2026-07-12T08:20:39Z</time><extensions><gpxtpx:TrackPointExtension><gpxtpx:hr>90</gpxtpx:hr></gpxtpx:TrackPointExtension></extensions></trkpt><trkpt lat="64.701062" lon="24.476645"><ele>-5.6</ele><time>2026-07-12T08:20:44Z</time><extensions><gpxtpx:TrackPointExtension><gpxtpx:hr>90</gpxtpx:hr></gpxtpx:TrackPointExtension></extensions></trkpt><trkpt lat="64.701062" lon="24.476645"><ele>-5.6</ele><time>2026-07-12T08:20:50Z</time><extensions><gpxtpx:TrackPointExtension><gpxtpx:hr>86</gpxtpx:hr></gpxtpx:TrackPointExtension></extensions></trkpt><trkpt lat="64.701062" lon="24.476645"><ele>-5.6</ele><time>2026-07-12T08:20:58Z</time><extensions><gpxtpx:TrackPointExtension><gpxtpx:hr>81</gpxtpx:hr></gpxtpx:TrackPointExtension></extensions></trkpt><trkpt lat="64.701062" lon="24.476645"><ele>-5.6</ele><time>2026-07-12T08:21:01Z</time><extensions><gpxtpx:TrackPointExtension><gpxtpx:hr>82</gpxtpx:hr></gpxtpx:TrackPointExtension></extensions></trkpt><trkpt lat="64.701062" lon="24.476645"><ele>-5.6</ele><time>2026-07-12T08:21:04Z</time><extensions><gpxtpx:TrackPointExtension><gpxtpx:hr>83</gpxtpx:hr></gpxtpx:TrackPointExtension></extensions></trkpt><trkpt lat="64.701062" lon="24.476645"><ele>-5.6</ele><time>2026-07-12T08:21:09Z</time><extensions><gpxtpx:TrackPointExtension><gpxtpx:hr>86</gpxtpx:hr></gpxtpx:TrackPointExtension></extensions></trkpt><trkpt lat="64.701062" lon="24.476645"><ele>-5.6</ele><time>2026-07-12T08:21:18Z</time><extensions><gpxtpx:TrackPointExtension><gpxtpx:hr>83</gpxtpx:hr></gpxtpx:TrackPointExtension></extensions></trkpt><trkpt lat="64.701062" lon="24.476645"><ele>-5.6</ele><time>2026-07-12T08:21:23Z</time><extensions><gpxtpx:TrackPointExtension><gpxtpx:hr>78</gpxtpx:hr></gpxtpx:TrackPointExtension></extensions></trkpt><trkpt lat="64.701062" lon="24.476645"><ele>-5.6</ele><time>2026-07-12T08:21:27Z</time><extensions><gpxtpx:TrackPointExtension><gpxtpx:hr>77</gpxtpx:hr></gpxtpx:TrackPointExtension></extensions></trkpt><trkpt lat="64.701062" lon="24.476645"><ele>-5.6</ele><time>2026-07-12T08:21:29Z</time><extensions><gpxtpx:TrackPointExtension><gpxtpx:hr>77</gpxtpx:hr></gpxtpx:TrackPointExtension></extensions></trkpt><trkpt lat="64.701062" lon="24.476645"><ele>-5.6</ele><time>2026-07-12T08:21:38Z</time><extensions><gpxtpx:TrackPointExtension><gpxtpx:hr>80</gpxtpx:hr></gpxtpx:TrackPointExtension></extensions></trkpt><trkpt lat="64.701062" lon="24.476645"><ele>-5.6</ele><time>2026-07-12T08:21:39Z</time><extensions><gpxtpx:TrackPointExtension><gpxtpx:hr>79</gpxtpx:hr></gpxtpx:TrackPointExtension></extensions></trkpt><trkpt lat="64.701062" lon="24.476645"><ele>-5.6</ele><time>2026-07-12T08:21:45Z</time><extensions><gpxtpx:TrackPointExtension><gpxtpx:hr>82</gpxtpx:hr></gpxtpx:TrackPointExtension></extensions></trkpt><trkpt lat="64.701062" lon="24.476645"><ele>-5.6</ele><time>2026-07-12T08:21:49Z</time><extensions><gpxtpx:TrackPointExtension><gpxtpx:hr>82</gpxtpx:hr></gpxtpx:TrackPointExtension></extensions></trkpt><trkpt lat="64.701062" lon="24.476645"><ele>-5.6</ele><time>2026-07-12T08:21:58Z</time><extensions><gpxtpx:TrackPointExtension><gpxtpx:hr>86</gpxtpx:hr></gpxtpx:TrackPointExtension></extensions></trkpt><trkpt lat="64.701062" lon="24.476645"><ele>-5.6</ele><time>2026-07-12T08:21:59Z</time><extensions><gpxtpx:TrackPointExtension><gpxtpx:hr>86</gpxtpx:hr></gpxtpx:TrackPointExtension></extensions></trkpt><trkpt lat="64.701062" lon="24.476645"><ele>-5.6</ele><time>2026-07-12T08:22:04Z</time><extensions><gpxtpx:TrackPointExtension><gpxtpx:hr>87</gpxtpx:hr></gpxtpx:TrackPointExtension></extensions></trkpt><trkpt lat="64.701062" lon="24.476645"><ele>-5.6</ele><time>2026-07-12T08:22:09Z</time><extensions><gpxtpx:TrackPointExtension><gpxtpx:hr>92</gpxtpx:hr></gpxtpx:TrackPointExtension></extensions></trkpt><trkpt lat="64.701062" lon="24.476645"><ele>-5.6</ele><time>2026-07-12T08:22:16Z</time><extensions><gpxtpx:TrackPointExtension><gpxtpx:hr>89</gpxtpx:hr></gpxtpx:TrackPointExtension></extensions></trkpt><trkpt lat="64.701062" lon="24.476645"><ele>-5.6</ele><time>2026-07-12T08:22:19Z</time><extensions><gpxtpx:TrackPointExtension><gpxtpx:hr>87</gpxtpx:hr></gpxtpx:TrackPointExtension></extensions></trkpt><trkpt lat="64.701062" lon="24.476645"><ele>-5.6</ele><time>2026-07-12T08:22:24Z</time><extensions><gpxtpx:TrackPointExtension><gpxtpx:hr>87</gpxtpx:hr></gpxtpx:TrackPointExtension></extensions></trkpt><trkpt lat="64.701062" lon="24.476645"><ele>-5.6</ele><time>2026-07-12T08:22:29Z</time><extensions><gpxtpx:TrackPointExtension><gpxtpx:hr>89</gpxtpx:hr></gpxtpx:TrackPointExtension></extensions></trkpt><trkpt lat="64.701062" lon="24.476645"><ele>-5.6</ele><time>2026-07-12T08:22:36Z</time><extensions><gpxtpx:TrackPointExtension><gpxtpx:hr>93</gpxtpx:hr></gpxtpx:TrackPointExtension></extensions></trkpt><trkpt lat="64.701062" lon="24.476645"><ele>-5.6</ele><time>2026-07-12T08:22:43Z</time><extensions><gpxtpx:TrackPointExtension><gpxtpx:hr>95</gpxtpx:hr></gpxtpx:TrackPointExtension></extensions></trkpt><trkpt lat="64.701062" lon="24.476645"><ele>-5.6</ele><time>2026-07-12T08:22:45Z</time><extensions><gpxtpx:TrackPointExtension><gpxtpx:hr>96</gpxtpx:hr></gpxtpx:TrackPointExtension></extensions></trkpt><trkpt lat="64.701062" lon="24.476645"><ele>-5.6</ele><time>2026-07-12T08:22:51Z</time><extensions><gpxtpx:TrackPointExtension><gpxtpx:hr>95</gpxtpx:hr></gpxtpx:TrackPointExtension></extensions></trkpt><trkpt lat="64.701062" lon="24.476645"><ele>-5.6</ele><time>2026-07-12T08:22:54Z</time><extensions><gpxtpx:TrackPointExtension><gpxtpx:hr>94</gpxtpx:hr></gpxtpx:TrackPointExtension></extensions></trkpt><trkpt lat="64.701062" lon="24.476645"><ele>-5.6</ele><time>2026-07-12T08:22:59Z</time><extensions><gpxtpx:TrackPointExtension><gpxtpx:hr>93</gpxtpx:hr></gpxtpx:TrackPointExtension></extensions></trkpt><trkpt lat="64.701062" lon="24.476645"><ele>-5.6</ele><time>2026-07-12T08:23:38Z</time><extensions><gpxtpx:TrackPointExtension><gpxtpx:hr>106</gpxtpx:hr></gpxtpx:TrackPointExtension></extensions></trkpt><trkpt lat="64.701062" lon="24.476645"><ele>-5.6</ele><time>2026-07-12T08:23:43Z</time><extensions><gpxtpx:TrackPointExtension><gpxtpx:hr>103</gpxtpx:hr></gpxtpx:TrackPointExtension></extensions></trkpt><trkpt lat="64.701062" lon="24.476645"><ele>-5.6</ele><time>2026-07-12T08:23:47Z</time><extensions><gpxtpx:TrackPointExtension><gpxtpx:hr>101</gpxtpx:hr></gpxtpx:TrackPointExtension></extensions></trkpt><trkpt lat="64.701062" lon="24.476645"><ele>-5.6</ele><time>2026-07-12T08:23:53Z</time><extensions><gpxtpx:TrackPointExtension><gpxtpx:hr>96</gpxtpx:hr></gpxtpx:TrackPointExtension></extensions></trkpt><trkpt lat="64.701062" lon="24.476645"><ele>-5.6</ele><time>2026-07-12T08:23:54Z</time><extensions><gpxtpx:TrackPointExtension><gpxtpx:hr>95</gpxtpx:hr></gpxtpx:TrackPointExtension></extensions></trkpt><trkpt lat="64.701062" lon="24.476645"><ele>-5.6</ele><time>2026-07-12T08:23:59Z</time><extensions><gpxtpx:TrackPointExtension><gpxtpx:hr>95</gpxtpx:hr></gpxtpx:TrackPointExtension></extensions></trkpt><trkpt lat="64.701062" lon="24.476645"><ele>-5.6</ele><time>2026-07-12T08:24:04Z</time><extensions><gpxtpx:TrackPointExtension><gpxtpx:hr>94</gpxtpx:hr></gpxtpx:TrackPointExtension></extensions></trkpt><trkpt lat="64.701062" lon="24.476645"><ele>-5.6</ele><time>2026-07-12T08:24:09Z</time><extensions><gpxtpx:TrackPointExtension><gpxtpx:hr>91</gpxtpx:hr></gpxtpx:TrackPointExtension></extensions></trkpt><trkpt lat="64.701062" lon="24.476645"><ele>-5.6</ele><time>2026-07-12T08:24:15Z</time><extensions><gpxtpx:TrackPointExtension><gpxtpx:hr>92</gpxtpx:hr></gpxtpx:TrackPointExtension></extensions></trkpt><trkpt lat="64.701062" lon="24.476645"><ele>-5.6</ele><time>2026-07-12T08:24:23Z</time><extensions><gpxtpx:TrackPointExtension><gpxtpx:hr>110</gpxtpx:hr></gpxtpx:TrackPointExtension></extensions></trkpt><trkpt lat="64.701062" lon="24.476645"><ele>-5.6</ele><time>2026-07-12T08:24:28Z</time><extensions><gpxtpx:TrackPointExtension><gpxtpx:hr>110</gpxtpx:hr></gpxtpx:TrackPointExtension></extensions></trkpt><trkpt lat="64.701062" lon="24.476645"><ele>-5.6</ele><time>2026-07-12T08:24:32Z</time><extensions><gpxtpx:TrackPointExtension><gpxtpx:hr>106</gpxtpx:hr></gpxtpx:TrackPointExtension></extensions></trkpt><trkpt lat="64.701062" lon="24.476645"><ele>-5.6</ele><time>2026-07-12T08:24:34Z</time><extensions><gpxtpx:TrackPointExtension><gpxtpx:hr>105</gpxtpx:hr></gpxtpx:TrackPointExtension></extensions></trkpt><trkpt lat="64.701062" lon="24.476645"><ele>-5.6</ele><time>2026-07-12T08:24:39Z</time><extensions><gpxtpx:TrackPointExtension><gpxtpx:hr>106</gpxtpx:hr></gpxtpx:TrackPointExtension></extensions></trkpt><trkpt lat="64.701062" lon="24.476645"><ele>-5.6</ele><time>2026-07-12T08:24:44Z</time><extensions><gpxtpx:TrackPointExtension><gpxtpx:hr>111</gpxtpx:hr></gpxtpx:TrackPointExtension></extensions></trkpt><trkpt lat="64.701062" lon="24.476645"><ele>-5.6</ele><time>2026-07-12T08:25:18Z</time><extensions><gpxtpx:TrackPointExtension><gpxtpx:hr>97</gpxtpx:hr></gpxtpx:TrackPointExtension></extensions></trkpt><trkpt lat="64.701062" lon="24.476645"><ele>-5.6</ele><time>2026-07-12T08:25:23Z</time><extensions><gpxtpx:TrackPointExtension><gpxtpx:hr>96</gpxtpx:hr></gpxtpx:TrackPointExtension></extensions></trkpt><trkpt lat="64.701062" lon="24.476645"><ele>-5.6</ele><time>2026-07-12T08:25:26Z</time><extensions><gpxtpx:TrackPointExtension><gpxtpx:hr>96</gpxtpx:hr></gpxtpx:TrackPointExtension></extensions></trkpt><trkpt lat="64.701062" lon="24.476645"><ele>-5.6</ele><time>2026-07-12T08:25:29Z</time><extensions><gpxtpx:TrackPointExtension><gpxtpx:hr>96</gpxtpx:hr></gpxtpx:TrackPointExtension></extensions></trkpt><trkpt lat="64.701062" lon="24.476645"><ele>-5.6</ele><time>2026-07-12T08:25:38Z</time><extensions><gpxtpx:TrackPointExtension><gpxtpx:hr>99</gpxtpx:hr></gpxtpx:TrackPointExtension></extensions></trkpt><trkpt lat="64.701062" lon="24.476645"><ele>-5.6</ele><time>2026-07-12T08:25:43Z</time><extensions><gpxtpx:TrackPointExtension><gpxtpx:hr>98</gpxtpx:hr></gpxtpx:TrackPointExtension></extensions></trkpt><trkpt lat="64.701062" lon="24.476645"><ele>-5.6</ele><time>2026-07-12T08:25:44Z</time><extensions><gpxtpx:TrackPointExtension><gpxtpx:hr>98</gpxtpx:hr></gpxtpx:TrackPointExtension></extensions></trkpt><trkpt lat="64.701062" lon="24.476645"><ele>-5.6</ele><time>2026-07-12T08:25:53Z</time><extensions><gpxtpx:TrackPointExtension><gpxtpx:hr>100</gpxtpx:hr></gpxtpx:TrackPointExtension></extensions></trkpt><trkpt lat="64.701062" lon="24.476645"><ele>-5.6</ele><time>2026-07-12T08:25:56Z</time><extensions><gpxtpx:TrackPointExtension><gpxtpx:hr>101</gpxtpx:hr></gpxtpx:TrackPointExtension></extensions></trkpt><trkpt lat="64.701062" lon="24.476645"><ele>-5.6</ele><time>2026-07-12T08:25:59Z</time><extensions><gpxtpx:TrackPointExtension><gpxtpx:hr>99</gpxtpx:hr></gpxtpx:TrackPointExtension></extensions></trkpt><trkpt lat="64.701062" lon="24.476645"><ele>-5.6</ele><time>2026-07-12T08:26:04Z</time><extensions><gpxtpx:TrackPointExtension><gpxtpx:hr>98</gpxtpx:hr></gpxtpx:TrackPointExtension></extensions></trkpt><trkpt lat="64.701062" lon="24.476645"><ele>-5.6</ele><time>2026-07-12T08:26:09Z</time><extensions><gpxtpx:TrackPointExtension><gpxtpx:hr>96</gpxtpx:hr></gpxtpx:TrackPointExtension></extensions></trkpt><trkpt lat="64.701062" lon="24.476645"><ele>-5.6</ele><time>2026-07-12T08:26:14Z</time><extensions><gpxtpx:TrackPointExtension><gpxtpx:hr>102</gpxtpx:hr></gpxtpx:TrackPointExtension></extensions></trkpt><trkpt lat="64.701062" lon="24.476645"><ele>-5.6</ele><time>2026-07-12T08:26:23Z</time><extensions><gpxtpx:TrackPointExtension><gpxtpx:hr>109</gpxtpx:hr></gpxtpx:TrackPointExtension></extensions></trkpt><trkpt lat="64.701062" lon="24.476645"><ele>-5.6</ele><time>2026-07-12T08:26:28Z</time><extensions><gpxtpx:TrackPointExtension><gpxtpx:hr>103</gpxtpx:hr></gpxtpx:TrackPointExtension></extensions></trkpt><trkpt lat="64.701062" lon="24.476645"><ele>-5.6</ele><time>2026-07-12T08:26:29Z</time><extensions><gpxtpx:TrackPointExtension><gpxtpx:hr>101</gpxtpx:hr></gpxtpx:TrackPointExtension></extensions></trkpt><trkpt lat="64.701062" lon="24.476645"><ele>-5.6</ele><time>2026-07-12T08:26:34Z</time><extensions><gpxtpx:TrackPointExtension><gpxtpx:hr>104</gpxtpx:hr></gpxtpx:TrackPointExtension></extensions></trkpt><trkpt lat="64.701062" lon="24.476645"><ele>-5.6</ele><time>2026-07-12T08:26:41Z</time><extensions><gpxtpx:TrackPointExtension><gpxtpx:hr>106</gpxtpx:hr></gpxtpx:TrackPointExtension></extensions></trkpt><trkpt lat="64.701062" lon="24.476645"><ele>-5.6</ele><time>2026-07-12T08:26:48Z</time><extensions><gpxtpx:TrackPointExtension><gpxtpx:hr>101</gpxtpx:hr></gpxtpx:TrackPointExtension></extensions></trkpt><trkpt lat="64.701062" lon="24.476645"><ele>-5.6</ele><time>2026-07-12T08:26:49Z</time><extensions><gpxtpx:TrackPointExtension><gpxtpx:hr>101</gpxtpx:hr></gpxtpx:TrackPointExtension></extensions></trkpt><trkpt lat="64.701062" lon="24.476645"><ele>-5.6</ele><time>2026-07-12T08:26:54Z</time><extensions><gpxtpx:TrackPointExtension><gpxtpx:hr>99</gpxtpx:hr></gpxtpx:TrackPointExtension></extensions></trkpt><trkpt lat="64.701062" lon="24.476645"><ele>-5.6</ele><time>2026-07-12T08:26:59Z</time><extensions><gpxtpx:TrackPointExtension><gpxtpx:hr>97</gpxtpx:hr></gpxtpx:TrackPointExtension></extensions></trkpt><trkpt lat="64.701062" lon="24.476645"><ele>-5.6</ele><time>2026-07-12T08:27:04Z</time><extensions><gpxtpx:TrackPointExtension><gpxtpx:hr>98</gpxtpx:hr></gpxtpx:TrackPointExtension></extensions></trkpt><trkpt lat="64.701062" lon="24.476645"><ele>-5.6</ele><time>2026-07-12T08:27:09Z</time><extensions><gpxtpx:TrackPointExtension><gpxtpx:hr>102</gpxtpx:hr></gpxtpx:TrackPointExtension></extensions></trkpt><trkpt lat="64.701062" lon="24.476645"><ele>-5.6</ele><time>2026-07-12T08:27:14Z</time><extensions><gpxtpx:TrackPointExtension><gpxtpx:hr>106</gpxtpx:hr></gpxtpx:TrackPointExtension></extensions></trkpt><trkpt lat="64.701062" lon="24.476645"><ele>-5.6</ele><time>2026-07-12T08:27:20Z</time><extensions><gpxtpx:TrackPointExtension><gpxtpx:hr>107</gpxtpx:hr></gpxtpx:TrackPointExtension></extensions></trkpt><trkpt lat="64.701062" lon="24.476645"><ele>-5.6</ele><time>2026-07-12T08:27:28Z</time><extensions><gpxtpx:TrackPointExtension><gpxtpx:hr>105</gpxtpx:hr></gpxtpx:TrackPointExtension></extensions></trkpt><trkpt lat="64.701062" lon="24.476645"><ele>-5.6</ele><time>2026-07-12T08:27:33Z</time><extensions><gpxtpx:TrackPointExtension><gpxtpx:hr>104</gpxtpx:hr></gpxtpx:TrackPointExtension></extensions></trkpt><trkpt lat="64.701062" lon="24.476645"><ele>-5.6</ele><time>2026-07-12T08:27:36Z</time><extensions><gpxtpx:TrackPointExtension><gpxtpx:hr>104</gpxtpx:hr></gpxtpx:TrackPointExtension></extensions></trkpt><trkpt lat="64.701062" lon="24.476645"><ele>-5.6</ele><time>2026-07-12T08:27:43Z</time><extensions><gpxtpx:TrackPointExtension><gpxtpx:hr>104</gpxtpx:hr></gpxtpx:TrackPointExtension></extensions></trkpt><trkpt lat="64.701062" lon="24.476645"><ele>-5.6</ele><time>2026-07-12T08:27:48Z</time><extensions><gpxtpx:TrackPointExtension><gpxtpx:hr>102</gpxtpx:hr></gpxtpx:TrackPointExtension></extensions></trkpt><trkpt lat="64.701062" lon="24.476645"><ele>-5.6</ele><time>2026-07-12T08:27:53Z</time><extensions><gpxtpx:TrackPointExtension><gpxtpx:hr>98</gpxtpx:hr></gpxtpx:TrackPointExtension></extensions></trkpt><trkpt lat="64.701062" lon="24.476645"><ele>-5.6</ele><time>2026-07-12T08:27:58Z</time><extensions><gpxtpx:TrackPointExtension><gpxtpx:hr>100</gpxtpx:hr></gpxtpx:TrackPointExtension></extensions></trkpt><trkpt lat="64.701062" lon="24.476645"><ele>-5.6</ele><time>2026-07-12T08:28:03Z</time><extensions><gpxtpx:TrackPointExtension><gpxtpx:hr>99</gpxtpx:hr></gpxtpx:TrackPointExtension></extensions></trkpt><trkpt lat="64.701062" lon="24.476645"><ele>-5.6</ele><time>2026-07-12T08:28:05Z</time><extensions><gpxtpx:TrackPointExtension><gpxtpx:hr>98</gpxtpx:hr></gpxtpx:TrackPointExtension></extensions></trkpt><trkpt lat="64.701062" lon="24.476645"><ele>-5.6</ele><time>2026-07-12T08:28:10Z</time><extensions><gpxtpx:TrackPointExtension><gpxtpx:hr>96</gpxtpx:hr></gpxtpx:TrackPointExtension></extensions></trkpt><trkpt lat="64.701062" lon="24.476645"><ele>-5.6</ele><time>2026-07-12T08:28:14Z</time><extensions><gpxtpx:TrackPointExtension><gpxtpx:hr>97</gpxtpx:hr></gpxtpx:TrackPointExtension></extensions></trkpt><trkpt lat="64.701062" lon="24.476645"><ele>-5.6</ele><time>2026-07-12T08:28:19Z</time><extensions><gpxtpx:TrackPointExtension><gpxtpx:hr>96</gpxtpx:hr></gpxtpx:TrackPointExtension></extensions></trkpt><trkpt lat="64.701062" lon="24.476645"><ele>-5.6</ele><time>2026-07-12T08:28:26Z</time><extensions><gpxtpx:TrackPointExtension><gpxtpx:hr>93</gpxtpx:hr></gpxtpx:TrackPointExtension></extensions></trkpt><trkpt lat="64.701062" lon="24.476645"><ele>-5.6</ele><time>2026-07-12T08:28:29Z</time><extensions><gpxtpx:TrackPointExtension><gpxtpx:hr>93</gpxtpx:hr></gpxtpx:TrackPointExtension></extensions></trkpt><trkpt lat="64.701062" lon="24.476645"><ele>-5.6</ele><time>2026-07-12T08:28:34Z</time><extensions><gpxtpx:TrackPointExtension><gpxtpx:hr>92</gpxtpx:hr></gpxtpx:TrackPointExtension></extensions></trkpt><trkpt lat="64.701062" lon="24.476645"><ele>-5.6</ele><time>2026-07-12T08:28:40Z</time><extensions><gpxtpx:TrackPointExtension><gpxtpx:hr>88</gpxtpx:hr></gpxtpx:TrackPointExtension></extensions></trkpt><trkpt lat="64.701062" lon="24.476645"><ele>-5.6</ele><time>2026-07-12T08:28:44Z</time><extensions><gpxtpx:TrackPointExtension><gpxtpx:hr>87</gpxtpx:hr></gpxtpx:TrackPointExtension></extensions></trkpt><trkpt lat="64.701062" lon="24.476645"><ele>-5.6</ele><time>2026-07-12T08:28:51Z</time><extensions><gpxtpx:TrackPointExtension><gpxtpx:hr>90</gpxtpx:hr></gpxtpx:TrackPointExtension></extensions></trkpt><trkpt lat="64.701062" lon="24.476645"><ele>-5.6</ele><time>2026-07-12T08:28:56Z</time><extensions><gpxtpx:TrackPointExtension><gpxtpx:hr>95</gpxtpx:hr></gpxtpx:TrackPointExtension></extensions></trkpt><trkpt lat="64.701062" lon="24.476645"><ele>-5.6</ele><time>2026-07-12T08:29:02Z</time><extensions><gpxtpx:TrackPointExtension><gpxtpx:hr>101</gpxtpx:hr></gpxtpx:TrackPointExtension></extensions></trkpt><trkpt lat="64.701062" lon="24.476645"><ele>-5.6</ele><time>2026-07-12T08:29:13Z</time><extensions><gpxtpx:TrackPointExtension><gpxtpx:hr>101</gpxtpx:hr></gpxtpx:TrackPointExtension></extensions></trkpt><trkpt lat="64.701062" lon="24.476645"><ele>-5.6</ele><time>2026-07-12T08:29:18Z</time><extensions><gpxtpx:TrackPointExtension><gpxtpx:hr>99</gpxtpx:hr></gpxtpx:TrackPointExtension></extensions></trkpt><trkpt lat="64.701062" lon="24.476645"><ele>-5.6</ele><time>2026-07-12T08:29:23Z</time><extensions><gpxtpx:TrackPointExtension><gpxtpx:hr>96</gpxtpx:hr></gpxtpx:TrackPointExtension></extensions></trkpt><trkpt lat="64.701062" lon="24.476645"><ele>-5.6</ele><time>2026-07-12T08:29:28Z</time><extensions><gpxtpx:TrackPointExtension><gpxtpx:hr>95</gpxtpx:hr></gpxtpx:TrackPointExtension></extensions></trkpt><trkpt lat="64.701062" lon="24.476645"><ele>-5.6</ele><time>2026-07-12T08:29:33Z</time><extensions><gpxtpx:TrackPointExtension><gpxtpx:hr>96</gpxtpx:hr></gpxtpx:TrackPointExtension></extensions></trkpt><trkpt lat="64.701062" lon="24.476645"><ele>-5.6</ele><time>2026-07-12T08:29:38Z</time><extensions><gpxtpx:TrackPointExtension><gpxtpx:hr>94</gpxtpx:hr></gpxtpx:TrackPointExtension></extensions></trkpt><trkpt lat="64.701062" lon="24.476645"><ele>-5.6</ele><time>2026-07-12T08:29:43Z</time><extensions><gpxtpx:TrackPointExtension><gpxtpx:hr>95</gpxtpx:hr></gpxtpx:TrackPointExtension></extensions></trkpt><trkpt lat="64.701062" lon="24.476645"><ele>-5.6</ele><time>2026-07-12T08:29:44Z</time><extensions><gpxtpx:TrackPointExtension><gpxtpx:hr>96</gpxtpx:hr></gpxtpx:TrackPointExtension></extensions></trkpt><trkpt lat="64.701062" lon="24.476645"><ele>-5.6</ele><time>2026-07-12T08:29:49Z</time><extensions><gpxtpx:TrackPointExtension><gpxtpx:hr>96</gpxtpx:hr></gpxtpx:TrackPointExtension></extensions></trkpt><trkpt lat="64.701062" lon="24.476645"><ele>-5.6</ele><time>2026-07-12T08:29:56Z</time><extensions><gpxtpx:TrackPointExtension><gpxtpx:hr>94</gpxtpx:hr></gpxtpx:TrackPointExtension></extensions></trkpt><trkpt lat="64.701062" lon="24.476645"><ele>-5.6</ele><time>2026-07-12T08:29:59Z</time><extensions><gpxtpx:TrackPointExtension><gpxtpx:hr>93</gpxtpx:hr></gpxtpx:TrackPointExtension></extensions></trkpt><trkpt lat="64.701062" lon="24.476645"><ele>-5.6</ele><time>2026-07-12T08:30:04Z</time><extensions><gpxtpx:TrackPointExtension><gpxtpx:hr>90</gpxtpx:hr></gpxtpx:TrackPointExtension></extensions></trkpt><trkpt lat="64.701062" lon="24.476645"><ele>-5.6</ele><time>2026-07-12T08:30:10Z</time><extensions><gpxtpx:TrackPointExtension><gpxtpx:hr>95</gpxtpx:hr></gpxtpx:TrackPointExtension></extensions></trkpt><trkpt lat="64.701062" lon="24.476645"><ele>-5.6</ele><time>2026-07-12T08:30:14Z</time><extensions><gpxtpx:TrackPointExtension><gpxtpx:hr>102</gpxtpx:hr></gpxtpx:TrackPointExtension></extensions></trkpt><trkpt lat="64.701062" lon="24.476645"><ele>-5.6</ele><time>2026-07-12T08:30:19Z</time><extensions><gpxtpx:TrackPointExtension><gpxtpx:hr>109</gpxtpx:hr></gpxtpx:TrackPointExtension></extensions></trkpt><trkpt lat="64.701062" lon="24.476645"><ele>-5.6</ele><time>2026-07-12T08:30:38Z</time><extensions><gpxtpx:TrackPointExtension><gpxtpx:hr>107</gpxtpx:hr></gpxtpx:TrackPointExtension></extensions></trkpt><trkpt lat="64.701062" lon="24.476645"><ele>-5.6</ele><time>2026-07-12T08:30:43Z</time><extensions><gpxtpx:TrackPointExtension><gpxtpx:hr>105</gpxtpx:hr></gpxtpx:TrackPointExtension></extensions></trkpt><trkpt lat="64.701062" lon="24.476645"><ele>-5.6</ele><time>2026-07-12T08:30:44Z</time><extensions><gpxtpx:TrackPointExtension><gpxtpx:hr>104</gpxtpx:hr></gpxtpx:TrackPointExtension></extensions></trkpt><trkpt lat="64.701062" lon="24.476645"><ele>-5.6</ele><time>2026-07-12T08:30:49Z</time><extensions><gpxtpx:TrackPointExtension><gpxtpx:hr>103</gpxtpx:hr></gpxtpx:TrackPointExtension></extensions></trkpt><trkpt lat="64.701062" lon="24.476645"><ele>-5.6</ele><time>2026-07-12T08:30:54Z</time><extensions><gpxtpx:TrackPointExtension><gpxtpx:hr>104</gpxtpx:hr></gpxtpx:TrackPointExtension></extensions></trkpt><trkpt lat="64.701062" lon="24.476645"><ele>-5.6</ele><time>2026-07-12T08:30:59Z</time><extensions><gpxtpx:TrackPointExtension><gpxtpx:hr>105</gpxtpx:hr></gpxtpx:TrackPointExtension></extensions></trkpt><trkpt lat="64.701062" lon="24.476645"><ele>-5.6</ele><time>2026-07-12T08:31:08Z</time><extensions><gpxtpx:TrackPointExtension><gpxtpx:hr>106</gpxtpx:hr></gpxtpx:TrackPointExtension></extensions></trkpt><trkpt lat="64.701062" lon="24.476645"><ele>-5.6</ele><time>2026-07-12T08:31:13Z</time><extensions><gpxtpx:TrackPointExtension><gpxtpx:hr>101</gpxtpx:hr></gpxtpx:TrackPointExtension></extensions></trkpt><trkpt lat="64.701062" lon="24.476645"><ele>-5.6</ele><time>2026-07-12T08:31:18Z</time><extensions><gpxtpx:TrackPointExtension><gpxtpx:hr>98</gpxtpx:hr></gpxtpx:TrackPointExtension></extensions></trkpt><trkpt lat="64.701062" lon="24.476645"><ele>-5.6</ele><time>2026-07-12T08:31:20Z</time><extensions><gpxtpx:TrackPointExtension><gpxtpx:hr>97</gpxtpx:hr></gpxtpx:TrackPointExtension></extensions></trkpt><trkpt lat="64.701062" lon="24.476645"><ele>-5.6</ele><time>2026-07-12T08:31:24Z</time><extensions><gpxtpx:TrackPointExtension><gpxtpx:hr>98</gpxtpx:hr></gpxtpx:TrackPointExtension></extensions></trkpt><trkpt lat="64.701062" lon="24.476645"><ele>-5.6</ele><time>2026-07-12T08:31:29Z</time><extensions><gpxtpx:TrackPointExtension><gpxtpx:hr>106</gpxtpx:hr></gpxtpx:TrackPointExtension></extensions></trkpt><trkpt lat="64.701062" lon="24.476645"><ele>-5.6</ele><time>2026-07-12T08:31:34Z</time><extensions><gpxtpx:TrackPointExtension><gpxtpx:hr>112</gpxtpx:hr></gpxtpx:TrackPointExtension></extensions></trkpt><trkpt lat="64.701062" lon="24.476645"><ele>-5.6</ele><time>2026-07-12T08:31:43Z</time><extensions><gpxtpx:TrackPointExtension><gpxtpx:hr>117</gpxtpx:hr></gpxtpx:TrackPointExtension></extensions></trkpt><trkpt lat="64.701062" lon="24.476645"><ele>-5.6</ele><time>2026-07-12T08:31:46Z</time><extensions><gpxtpx:TrackPointExtension><gpxtpx:hr>117</gpxtpx:hr></gpxtpx:TrackPointExtension></extensions></trkpt><trkpt lat="64.701062" lon="24.476645"><ele>-5.6</ele><time>2026-07-12T08:31:51Z</time><extensions><gpxtpx:TrackPointExtension><gpxtpx:hr>111</gpxtpx:hr></gpxtpx:TrackPointExtension></extensions></trkpt><trkpt lat="64.701062" lon="24.476645"><ele>-5.6</ele><time>2026-07-12T08:31:58Z</time><extensions><gpxtpx:TrackPointExtension><gpxtpx:hr>110</gpxtpx:hr></gpxtpx:TrackPointExtension></extensions></trkpt><trkpt lat="64.701062" lon="24.476645"><ele>-5.6</ele><time>2026-07-12T08:32:03Z</time><extensions><gpxtpx:TrackPointExtension><gpxtpx:hr>106</gpxtpx:hr></gpxtpx:TrackPointExtension></extensions></trkpt><trkpt lat="64.701062" lon="24.476645"><ele>-5.6</ele><time>2026-07-12T08:32:06Z</time><extensions><gpxtpx:TrackPointExtension><gpxtpx:hr>104</gpxtpx:hr></gpxtpx:TrackPointExtension></extensions></trkpt><trkpt lat="64.701062" lon="24.476645"><ele>-5.6</ele><time>2026-07-12T08:32:09Z</time><extensions><gpxtpx:TrackPointExtension><gpxtpx:hr>104</gpxtpx:hr></gpxtpx:TrackPointExtension></extensions></trkpt><trkpt lat="64.701062" lon="24.476645"><ele>-5.6</ele><time>2026-07-12T08:32:14Z</time><extensions><gpxtpx:TrackPointExtension><gpxtpx:hr>100</gpxtpx:hr></gpxtpx:TrackPointExtension></extensions></trkpt><trkpt lat="64.701062" lon="24.476645"><ele>-5.6</ele><time>2026-07-12T08:32:19Z</time><extensions><gpxtpx:TrackPointExtension><gpxtpx:hr>98</gpxtpx:hr></gpxtpx:TrackPointExtension></extensions></trkpt><trkpt lat="64.701062" lon="24.476645"><ele>-5.6</ele><time>2026-07-12T08:32:24Z</time><extensions><gpxtpx:TrackPointExtension><gpxtpx:hr>102</gpxtpx:hr></gpxtpx:TrackPointExtension></extensions></trkpt><trkpt lat="64.701062" lon="24.476645"><ele>-5.6</ele><time>2026-07-12T08:32:29Z</time><extensions><gpxtpx:TrackPointExtension><gpxtpx:hr>107</gpxtpx:hr></gpxtpx:TrackPointExtension></extensions></trkpt><trkpt lat="64.701062" lon="24.476645"><ele>-5.6</ele><time>2026-07-12T08:32:58Z</time><extensions><gpxtpx:TrackPointExtension><gpxtpx:hr>106</gpxtpx:hr></gpxtpx:TrackPointExtension></extensions></trkpt><trkpt lat="64.701062" lon="24.476645"><ele>-5.6</ele><time>2026-07-12T08:33:03Z</time><extensions><gpxtpx:TrackPointExtension><gpxtpx:hr>102</gpxtpx:hr></gpxtpx:TrackPointExtension></extensions></trkpt><trkpt lat="64.701062" lon="24.476645"><ele>-5.6</ele><time>2026-07-12T08:33:07Z</time><extensions><gpxtpx:TrackPointExtension><gpxtpx:hr>101</gpxtpx:hr></gpxtpx:TrackPointExtension></extensions></trkpt><trkpt lat="64.701062" lon="24.476645"><ele>-5.6</ele><time>2026-07-12T08:33:10Z</time><extensions><gpxtpx:TrackPointExtension><gpxtpx:hr>100</gpxtpx:hr></gpxtpx:TrackPointExtension></extensions></trkpt><trkpt lat="64.701062" lon="24.476645"><ele>-5.6</ele><time>2026-07-12T08:33:14Z</time><extensions><gpxtpx:TrackPointExtension><gpxtpx:hr>100</gpxtpx:hr></gpxtpx:TrackPointExtension></extensions></trkpt><trkpt lat="64.701062" lon="24.476645"><ele>-5.6</ele><time>2026-07-12T08:33:19Z</time><extensions><gpxtpx:TrackPointExtension><gpxtpx:hr>103</gpxtpx:hr></gpxtpx:TrackPointExtension></extensions></trkpt><trkpt lat="64.701062" lon="24.476645"><ele>-5.6</ele><time>2026-07-12T08:33:24Z</time><extensions><gpxtpx:TrackPointExtension><gpxtpx:hr>109</gpxtpx:hr></gpxtpx:TrackPointExtension></extensions></trkpt><trkpt lat="64.701062" lon="24.476645"><ele>-5.6</ele><time>2026-07-12T08:33:29Z</time><extensions><gpxtpx:TrackPointExtension><gpxtpx:hr>113</gpxtpx:hr></gpxtpx:TrackPointExtension></extensions></trkpt><trkpt lat="64.701062" lon="24.476645"><ele>-5.6</ele><time>2026-07-12T08:33:38Z</time><extensions><gpxtpx:TrackPointExtension><gpxtpx:hr>113</gpxtpx:hr></gpxtpx:TrackPointExtension></extensions></trkpt><trkpt lat="64.701062" lon="24.476645"><ele>-5.6</ele><time>2026-07-12T08:33:43Z</time><extensions><gpxtpx:TrackPointExtension><gpxtpx:hr>107</gpxtpx:hr></gpxtpx:TrackPointExtension></extensions></trkpt><trkpt lat="64.701062" lon="24.476645"><ele>-5.6</ele><time>2026-07-12T08:33:45Z</time><extensions><gpxtpx:TrackPointExtension><gpxtpx:hr>103</gpxtpx:hr></gpxtpx:TrackPointExtension></extensions></trkpt><trkpt lat="64.701062" lon="24.476645"><ele>-5.6</ele><time>2026-07-12T08:33:49Z</time><extensions><gpxtpx:TrackPointExtension><gpxtpx:hr>102</gpxtpx:hr></gpxtpx:TrackPointExtension></extensions></trkpt><trkpt lat="64.701062" lon="24.476645"><ele>-5.6</ele><time>2026-07-12T08:33:54Z</time><extensions><gpxtpx:TrackPointExtension><gpxtpx:hr>98</gpxtpx:hr></gpxtpx:TrackPointExtension></extensions></trkpt><trkpt lat="64.701062" lon="24.476645"><ele>-5.6</ele><time>2026-07-12T08:33:59Z</time><extensions><gpxtpx:TrackPointExtension><gpxtpx:hr>97</gpxtpx:hr></gpxtpx:TrackPointExtension></extensions></trkpt><trkpt lat="64.701062" lon="24.476645"><ele>-5.6</ele><time>2026-07-12T08:34:07Z</time><extensions><gpxtpx:TrackPointExtension><gpxtpx:hr>95</gpxtpx:hr></gpxtpx:TrackPointExtension></extensions></trkpt><trkpt lat="64.701062" lon="24.476645"><ele>-5.6</ele><time>2026-07-12T08:34:09Z</time><extensions><gpxtpx:TrackPointExtension><gpxtpx:hr>95</gpxtpx:hr></gpxtpx:TrackPointExtension></extensions></trkpt><trkpt lat="64.701062" lon="24.476645"><ele>-5.6</ele><time>2026-07-12T08:34:18Z</time><extensions><gpxtpx:TrackPointExtension><gpxtpx:hr>93</gpxtpx:hr></gpxtpx:TrackPointExtension></extensions></trkpt><trkpt lat="64.701062" lon="24.476645"><ele>-5.6</ele><time>2026-07-12T08:34:19Z</time><extensions><gpxtpx:TrackPointExtension><gpxtpx:hr>93</gpxtpx:hr></gpxtpx:TrackPointExtension></extensions></trkpt><trkpt lat="64.701062" lon="24.476645"><ele>-5.6</ele><time>2026-07-12T08:34:27Z</time><extensions><gpxtpx:TrackPointExtension><gpxtpx:hr>95</gpxtpx:hr></gpxtpx:TrackPointExtension></extensions></trkpt><trkpt lat="64.701062" lon="24.476645"><ele>-5.6</ele><time>2026-07-12T08:34:33Z</time><extensions><gpxtpx:TrackPointExtension><gpxtpx:hr>96</gpxtpx:hr></gpxtpx:TrackPointExtension></extensions></trkpt><trkpt lat="64.701062" lon="24.476645"><ele>-5.6</ele><time>2026-07-12T08:34:34Z</time><extensions><gpxtpx:TrackPointExtension><gpxtpx:hr>97</gpxtpx:hr></gpxtpx:TrackPointExtension></extensions></trkpt><trkpt lat="64.701062" lon="24.476645"><ele>-5.6</ele><time>2026-07-12T08:34:39Z</time><extensions><gpxtpx:TrackPointExtension><gpxtpx:hr>97</gpxtpx:hr></gpxtpx:TrackPointExtension></extensions></trkpt><trkpt lat="64.701062" lon="24.476645"><ele>-5.6</ele><time>2026-07-12T08:34:48Z</time><extensions><gpxtpx:TrackPointExtension><gpxtpx:hr>99</gpxtpx:hr></gpxtpx:TrackPointExtension></extensions></trkpt><trkpt lat="64.701062" lon="24.476645"><ele>-5.6</ele><time>2026-07-12T08:34:53Z</time><extensions><gpxtpx:TrackPointExtension><gpxtpx:hr>97</gpxtpx:hr></gpxtpx:TrackPointExtension></extensions></trkpt><trkpt lat="64.701062" lon="24.476645"><ele>-5.6</ele><time>2026-07-12T08:34:54Z</time><extensions><gpxtpx:TrackPointExtension><gpxtpx:hr>97</gpxtpx:hr></gpxtpx:TrackPointExtension></extensions></trkpt><trkpt lat="64.701062" lon="24.476645"><ele>-5.6</ele><time>2026-07-12T08:34:59Z</time><extensions><gpxtpx:TrackPointExtension><gpxtpx:hr>101</gpxtpx:hr></gpxtpx:TrackPointExtension></extensions></trkpt><trkpt lat="64.701062" lon="24.476645"><ele>-5.6</ele><time>2026-07-12T08:35:04Z</time><extensions><gpxtpx:TrackPointExtension><gpxtpx:hr>110</gpxtpx:hr></gpxtpx:TrackPointExtension></extensions></trkpt><trkpt lat="64.701062" lon="24.476645"><ele>-5.6</ele><time>2026-07-12T08:35:11Z</time><extensions><gpxtpx:TrackPointExtension><gpxtpx:hr>117</gpxtpx:hr></gpxtpx:TrackPointExtension></extensions></trkpt><trkpt lat="64.701062" lon="24.476645"><ele>-5.6</ele><time>2026-07-12T08:35:18Z</time><extensions><gpxtpx:TrackPointExtension><gpxtpx:hr>110</gpxtpx:hr></gpxtpx:TrackPointExtension></extensions></trkpt><trkpt lat="64.701062" lon="24.476645"><ele>-5.6</ele><time>2026-07-12T08:35:22Z</time><extensions><gpxtpx:TrackPointExtension><gpxtpx:hr>108</gpxtpx:hr></gpxtpx:TrackPointExtension></extensions></trkpt><trkpt lat="64.701062" lon="24.476645"><ele>-5.6</ele><time>2026-07-12T08:35:28Z</time><extensions><gpxtpx:TrackPointExtension><gpxtpx:hr>104</gpxtpx:hr></gpxtpx:TrackPointExtension></extensions></trkpt><trkpt lat="64.701062" lon="24.476645"><ele>-5.6</ele><time>2026-07-12T08:35:33Z</time><extensions><gpxtpx:TrackPointExtension><gpxtpx:hr>101</gpxtpx:hr></gpxtpx:TrackPointExtension></extensions></trkpt><trkpt lat="64.701062" lon="24.476645"><ele>-5.6</ele><time>2026-07-12T08:35:36Z</time><extensions><gpxtpx:TrackPointExtension><gpxtpx:hr>101</gpxtpx:hr></gpxtpx:TrackPointExtension></extensions></trkpt><trkpt lat="64.701062" lon="24.476645"><ele>-5.6</ele><time>2026-07-12T08:35:43Z</time><extensions><gpxtpx:TrackPointExtension><gpxtpx:hr>99</gpxtpx:hr></gpxtpx:TrackPointExtension></extensions></trkpt><trkpt lat="64.701062" lon="24.476645"><ele>-5.6</ele><time>2026-07-12T08:35:44Z</time><extensions><gpxtpx:TrackPointExtension><gpxtpx:hr>99</gpxtpx:hr></gpxtpx:TrackPointExtension></extensions></trkpt><trkpt lat="64.701062" lon="24.476645"><ele>-5.6</ele><time>2026-07-12T08:35:49Z</time><extensions><gpxtpx:TrackPointExtension><gpxtpx:hr>97</gpxtpx:hr></gpxtpx:TrackPointExtension></extensions></trkpt><trkpt lat="64.701062" lon="24.476645"><ele>-5.6</ele><time>2026-07-12T08:35:58Z</time><extensions><gpxtpx:TrackPointExtension><gpxtpx:hr>84</gpxtpx:hr></gpxtpx:TrackPointExtension></extensions></trkpt><trkpt lat="64.701062" lon="24.476645"><ele>-5.6</ele><time>2026-07-12T08:36:03Z</time><extensions><gpxtpx:TrackPointExtension><gpxtpx:hr>75</gpxtpx:hr></gpxtpx:TrackPointExtension></extensions></trkpt><trkpt lat="64.701062" lon="24.476645"><ele>-5.6</ele><time>2026-07-12T08:36:08Z</time><extensions><gpxtpx:TrackPointExtension><gpxtpx:hr>75</gpxtpx:hr></gpxtpx:TrackPointExtension></extensions></trkpt><trkpt lat="64.701062" lon="24.476645"><ele>-5.6</ele><time>2026-07-12T08:36:09Z</time><extensions><gpxtpx:TrackPointExtension><gpxtpx:hr>75</gpxtpx:hr></gpxtpx:TrackPointExtension></extensions></trkpt><trkpt lat="64.701062" lon="24.476645"><ele>-5.6</ele><time>2026-07-12T08:36:14Z</time><extensions><gpxtpx:TrackPointExtension><gpxtpx:hr>80</gpxtpx:hr></gpxtpx:TrackPointExtension></extensions></trkpt><trkpt lat="64.701062" lon="24.476645"><ele>-5.6</ele><time>2026-07-12T08:36:19Z</time><extensions><gpxtpx:TrackPointExtension><gpxtpx:hr>89</gpxtpx:hr></gpxtpx:TrackPointExtension></extensions></trkpt><trkpt lat="64.701062" lon="24.476645"><ele>-5.6</ele><time>2026-07-12T08:36:24Z</time><extensions><gpxtpx:TrackPointExtension><gpxtpx:hr>97</gpxtpx:hr></gpxtpx:TrackPointExtension></extensions></trkpt><trkpt lat="64.701062" lon="24.476645"><ele>-5.6</ele><time>2026-07-12T08:36:29Z</time><extensions><gpxtpx:TrackPointExtension><gpxtpx:hr>106</gpxtpx:hr></gpxtpx:TrackPointExtension></extensions></trkpt><trkpt lat="64.701062" lon="24.476645"><ele>-5.6</ele><time>2026-07-12T08:36:38Z</time><extensions><gpxtpx:TrackPointExtension><gpxtpx:hr>120</gpxtpx:hr></gpxtpx:TrackPointExtension></extensions></trkpt><trkpt lat="64.701062" lon="24.476645"><ele>-5.6</ele><time>2026-07-12T08:36:40Z</time><extensions><gpxtpx:TrackPointExtension><gpxtpx:hr>120</gpxtpx:hr></gpxtpx:TrackPointExtension></extensions></trkpt><trkpt lat="64.701062" lon="24.476645"><ele>-5.6</ele><time>2026-07-12T08:36:47Z</time><extensions><gpxtpx:TrackPointExtension><gpxtpx:hr>118</gpxtpx:hr></gpxtpx:TrackPointExtension></extensions></trkpt><trkpt lat="64.701062" lon="24.476645"><ele>-5.6</ele><time>2026-07-12T08:36:52Z</time><extensions><gpxtpx:TrackPointExtension><gpxtpx:hr>113</gpxtpx:hr></gpxtpx:TrackPointExtension></extensions></trkpt><trkpt lat="64.701062" lon="24.476645"><ele>-5.6</ele><time>2026-07-12T08:36:55Z</time><extensions><gpxtpx:TrackPointExtension><gpxtpx:hr>111</gpxtpx:hr></gpxtpx:TrackPointExtension></extensions></trkpt><trkpt lat="64.701062" lon="24.476645"><ele>-5.6</ele><time>2026-07-12T08:37:03Z</time><extensions><gpxtpx:TrackPointExtension><gpxtpx:hr>110</gpxtpx:hr></gpxtpx:TrackPointExtension></extensions></trkpt><trkpt lat="64.701062" lon="24.476645"><ele>-5.6</ele><time>2026-07-12T08:37:07Z</time><extensions><gpxtpx:TrackPointExtension><gpxtpx:hr>109</gpxtpx:hr></gpxtpx:TrackPointExtension></extensions></trkpt><trkpt lat="64.701062" lon="24.476645"><ele>-5.6</ele><time>2026-07-12T08:37:12Z</time><extensions><gpxtpx:TrackPointExtension><gpxtpx:hr>108</gpxtpx:hr></gpxtpx:TrackPointExtension></extensions></trkpt><trkpt lat="64.701062" lon="24.476645"><ele>-5.6</ele><time>2026-07-12T08:37:18Z</time><extensions><gpxtpx:TrackPointExtension><gpxtpx:hr>107</gpxtpx:hr></gpxtpx:TrackPointExtension></extensions></trkpt><trkpt lat="64.701062" lon="24.476645"><ele>-5.6</ele><time>2026-07-12T08:37:23Z</time><extensions><gpxtpx:TrackPointExtension><gpxtpx:hr>104</gpxtpx:hr></gpxtpx:TrackPointExtension></extensions></trkpt><trkpt lat="64.701062" lon="24.476645"><ele>-5.6</ele><time>2026-07-12T08:37:28Z</time><extensions><gpxtpx:TrackPointExtension><gpxtpx:hr>103</gpxtpx:hr></gpxtpx:TrackPointExtension></extensions></trkpt><trkpt lat="64.701062" lon="24.476645"><ele>-5.6</ele><time>2026-07-12T08:37:29Z</time><extensions><gpxtpx:TrackPointExtension><gpxtpx:hr>103</gpxtpx:hr></gpxtpx:TrackPointExtension></extensions></trkpt><trkpt lat="64.701062" lon="24.476645"><ele>-5.6</ele><time>2026-07-12T08:37:38Z</time><extensions><gpxtpx:TrackPointExtension><gpxtpx:hr>102</gpxtpx:hr></gpxtpx:TrackPointExtension></extensions></trkpt><trkpt lat="64.701062" lon="24.476645"><ele>-5.6</ele><time>2026-07-12T08:37:41Z</time><extensions><gpxtpx:TrackPointExtension><gpxtpx:hr>102</gpxtpx:hr></gpxtpx:TrackPointExtension></extensions></trkpt><trkpt lat="64.701062" lon="24.476645"><ele>-5.6</ele><time>2026-07-12T08:37:46Z</time><extensions><gpxtpx:TrackPointExtension><gpxtpx:hr>101</gpxtpx:hr></gpxtpx:TrackPointExtension></extensions></trkpt><trkpt lat="64.701062" lon="24.476645"><ele>-5.6</ele><time>2026-07-12T08:37:50Z</time><extensions><gpxtpx:TrackPointExtension><gpxtpx:hr>99</gpxtpx:hr></gpxtpx:TrackPointExtension></extensions></trkpt><trkpt lat="64.701062" lon="24.476645"><ele>-5.6</ele><time>2026-07-12T08:37:56Z</time><extensions><gpxtpx:TrackPointExtension><gpxtpx:hr>100</gpxtpx:hr></gpxtpx:TrackPointExtension></extensions></trkpt><trkpt lat="64.701062" lon="24.476645"><ele>-5.6</ele><time>2026-07-12T08:38:01Z</time><extensions><gpxtpx:TrackPointExtension><gpxtpx:hr>102</gpxtpx:hr></gpxtpx:TrackPointExtension></extensions></trkpt><trkpt lat="64.701062" lon="24.476645"><ele>-5.6</ele><time>2026-07-12T08:38:08Z</time><extensions><gpxtpx:TrackPointExtension><gpxtpx:hr>96</gpxtpx:hr></gpxtpx:TrackPointExtension></extensions></trkpt><trkpt lat="64.701062" lon="24.476645"><ele>-5.6</ele><time>2026-07-12T08:38:12Z</time><extensions><gpxtpx:TrackPointExtension><gpxtpx:hr>96</gpxtpx:hr></gpxtpx:TrackPointExtension></extensions></trkpt><trkpt lat="64.701062" lon="24.476645"><ele>-5.6</ele><time>2026-07-12T08:38:14Z</time><extensions><gpxtpx:TrackPointExtension><gpxtpx:hr>96</gpxtpx:hr></gpxtpx:TrackPointExtension></extensions></trkpt><trkpt lat="64.701062" lon="24.476645"><ele>-5.6</ele><time>2026-07-12T08:38:20Z</time><extensions><gpxtpx:TrackPointExtension><gpxtpx:hr>92</gpxtpx:hr></gpxtpx:TrackPointExtension></extensions></trkpt><trkpt lat="64.701062" lon="24.476645"><ele>-5.6</ele><time>2026-07-12T08:38:28Z</time><extensions><gpxtpx:TrackPointExtension><gpxtpx:hr>88</gpxtpx:hr></gpxtpx:TrackPointExtension></extensions></trkpt><trkpt lat="64.701062" lon="24.476645"><ele>-5.6</ele><time>2026-07-12T08:38:29Z</time><extensions><gpxtpx:TrackPointExtension><gpxtpx:hr>88</gpxtpx:hr></gpxtpx:TrackPointExtension></extensions></trkpt><trkpt lat="64.701062" lon="24.476645"><ele>-5.6</ele><time>2026-07-12T08:38:37Z</time><extensions><gpxtpx:TrackPointExtension><gpxtpx:hr>95</gpxtpx:hr></gpxtpx:TrackPointExtension></extensions></trkpt><trkpt lat="64.701062" lon="24.476645"><ele>-5.6</ele><time>2026-07-12T08:38:41Z</time><extensions><gpxtpx:TrackPointExtension><gpxtpx:hr>95</gpxtpx:hr></gpxtpx:TrackPointExtension></extensions></trkpt><trkpt lat="64.701062" lon="24.476645"><ele>-5.6</ele><time>2026-07-12T08:38:46Z</time><extensions><gpxtpx:TrackPointExtension><gpxtpx:hr>93</gpxtpx:hr></gpxtpx:TrackPointExtension></extensions></trkpt><trkpt lat="64.701062" lon="24.476645"><ele>-5.6</ele><time>2026-07-12T08:38:50Z</time><extensions><gpxtpx:TrackPointExtension><gpxtpx:hr>92</gpxtpx:hr></gpxtpx:TrackPointExtension></extensions></trkpt><trkpt lat="64.701062" lon="24.476645"><ele>-5.6</ele><time>2026-07-12T08:38:55Z</time><extensions><gpxtpx:TrackPointExtension><gpxtpx:hr>91</gpxtpx:hr></gpxtpx:TrackPointExtension></extensions></trkpt><trkpt lat="64.701062" lon="24.476645"><ele>-5.6</ele><time>2026-07-12T08:38:59Z</time><extensions><gpxtpx:TrackPointExtension><gpxtpx:hr>88</gpxtpx:hr></gpxtpx:TrackPointExtension></extensions></trkpt><trkpt lat="64.701062" lon="24.476645"><ele>-5.6</ele><time>2026-07-12T08:39:04Z</time><extensions><gpxtpx:TrackPointExtension><gpxtpx:hr>92</gpxtpx:hr></gpxtpx:TrackPointExtension></extensions></trkpt><trkpt lat="64.701062" lon="24.476645"><ele>-5.6</ele><time>2026-07-12T08:39:09Z</time><extensions><gpxtpx:TrackPointExtension><gpxtpx:hr>90</gpxtpx:hr></gpxtpx:TrackPointExtension></extensions></trkpt><trkpt lat="64.701062" lon="24.476645"><ele>-5.6</ele><time>2026-07-12T08:39:14Z</time><extensions><gpxtpx:TrackPointExtension><gpxtpx:hr>95</gpxtpx:hr></gpxtpx:TrackPointExtension></extensions></trkpt><trkpt lat="64.701062" lon="24.476645"><ele>-5.6</ele><time>2026-07-12T08:39:20Z</time><extensions><gpxtpx:TrackPointExtension><gpxtpx:hr>105</gpxtpx:hr></gpxtpx:TrackPointExtension></extensions></trkpt><trkpt lat="64.701062" lon="24.476645"><ele>-5.6</ele><time>2026-07-12T08:39:26Z</time><extensions><gpxtpx:TrackPointExtension><gpxtpx:hr>114</gpxtpx:hr></gpxtpx:TrackPointExtension></extensions></trkpt><trkpt lat="64.701062" lon="24.476645"><ele>-5.6</ele><time>2026-07-12T08:39:29Z</time><extensions><gpxtpx:TrackPointExtension><gpxtpx:hr>121</gpxtpx:hr></gpxtpx:TrackPointExtension></extensions></trkpt><trkpt lat="64.701062" lon="24.476645"><ele>-5.6</ele><time>2026-07-12T08:39:34Z</time><extensions><gpxtpx:TrackPointExtension><gpxtpx:hr>125</gpxtpx:hr></gpxtpx:TrackPointExtension></extensions></trkpt><trkpt lat="64.701062" lon="24.476645"><ele>-5.6</ele><time>2026-07-12T08:39:41Z</time><extensions><gpxtpx:TrackPointExtension><gpxtpx:hr>126</gpxtpx:hr></gpxtpx:TrackPointExtension></extensions></trkpt><trkpt lat="64.701062" lon="24.476645"><ele>-5.6</ele><time>2026-07-12T08:39:48Z</time><extensions><gpxtpx:TrackPointExtension><gpxtpx:hr>118</gpxtpx:hr></gpxtpx:TrackPointExtension></extensions></trkpt><trkpt lat="64.701062" lon="24.476645"><ele>-5.6</ele><time>2026-07-12T08:39:51Z</time><extensions><gpxtpx:TrackPointExtension><gpxtpx:hr>114</gpxtpx:hr></gpxtpx:TrackPointExtension></extensions></trkpt><trkpt lat="64.701062" lon="24.476645"><ele>-5.6</ele><time>2026-07-12T08:39:58Z</time><extensions><gpxtpx:TrackPointExtension><gpxtpx:hr>112</gpxtpx:hr></gpxtpx:TrackPointExtension></extensions></trkpt><trkpt lat="64.701062" lon="24.476645"><ele>-5.6</ele><time>2026-07-12T08:40:01Z</time><extensions><gpxtpx:TrackPointExtension><gpxtpx:hr>112</gpxtpx:hr></gpxtpx:TrackPointExtension></extensions></trkpt><trkpt lat="64.701062" lon="24.476645"><ele>-5.6</ele><time>2026-07-12T08:40:08Z</time><extensions><gpxtpx:TrackPointExtension><gpxtpx:hr>109</gpxtpx:hr></gpxtpx:TrackPointExtension></extensions></trkpt><trkpt lat="64.701062" lon="24.476645"><ele>-5.6</ele><time>2026-07-12T08:40:09Z</time><extensions><gpxtpx:TrackPointExtension><gpxtpx:hr>109</gpxtpx:hr></gpxtpx:TrackPointExtension></extensions></trkpt><trkpt lat="64.701062" lon="24.476645"><ele>-5.6</ele><time>2026-07-12T08:40:15Z</time><extensions><gpxtpx:TrackPointExtension><gpxtpx:hr>113</gpxtpx:hr></gpxtpx:TrackPointExtension></extensions></trkpt><trkpt lat="64.701062" lon="24.476645"><ele>-5.6</ele><time>2026-07-12T08:40:23Z</time><extensions><gpxtpx:TrackPointExtension><gpxtpx:hr>111</gpxtpx:hr></gpxtpx:TrackPointExtension></extensions></trkpt><trkpt lat="64.701062" lon="24.476645"><ele>-5.6</ele><time>2026-07-12T08:40:27Z</time><extensions><gpxtpx:TrackPointExtension><gpxtpx:hr>111</gpxtpx:hr></gpxtpx:TrackPointExtension></extensions></trkpt><trkpt lat="64.701062" lon="24.476645"><ele>-5.6</ele><time>2026-07-12T08:40:29Z</time><extensions><gpxtpx:TrackPointExtension><gpxtpx:hr>112</gpxtpx:hr></gpxtpx:TrackPointExtension></extensions></trkpt><trkpt lat="64.701062" lon="24.476645"><ele>-5.6</ele><time>2026-07-12T08:40:34Z</time><extensions><gpxtpx:TrackPointExtension><gpxtpx:hr>110</gpxtpx:hr></gpxtpx:TrackPointExtension></extensions></trkpt><trkpt lat="64.701062" lon="24.476645"><ele>-5.6</ele><time>2026-07-12T08:40:39Z</time><extensions><gpxtpx:TrackPointExtension><gpxtpx:hr>109</gpxtpx:hr></gpxtpx:TrackPointExtension></extensions></trkpt><trkpt lat="64.701062" lon="24.476645"><ele>-5.6</ele><time>2026-07-12T08:40:45Z</time><extensions><gpxtpx:TrackPointExtension><gpxtpx:hr>107</gpxtpx:hr></gpxtpx:TrackPointExtension></extensions></trkpt><trkpt lat="64.701062" lon="24.476645"><ele>-5.6</ele><time>2026-07-12T08:40:49Z</time><extensions><gpxtpx:TrackPointExtension><gpxtpx:hr>107</gpxtpx:hr></gpxtpx:TrackPointExtension></extensions></trkpt><trkpt lat="64.701062" lon="24.476645"><ele>-5.6</ele><time>2026-07-12T08:40:54Z</time><extensions><gpxtpx:TrackPointExtension><gpxtpx:hr>106</gpxtpx:hr></gpxtpx:TrackPointExtension></extensions></trkpt><trkpt lat="64.701062" lon="24.476645"><ele>-5.6</ele><time>2026-07-12T08:40:59Z</time><extensions><gpxtpx:TrackPointExtension><gpxtpx:hr>103</gpxtpx:hr></gpxtpx:TrackPointExtension></extensions></trkpt><trkpt lat="64.701062" lon="24.476645"><ele>-5.6</ele><time>2026-07-12T08:41:04Z</time><extensions><gpxtpx:TrackPointExtension><gpxtpx:hr>101</gpxtpx:hr></gpxtpx:TrackPointExtension></extensions></trkpt><trkpt lat="64.701062" lon="24.476645"><ele>-5.6</ele><time>2026-07-12T08:41:09Z</time><extensions><gpxtpx:TrackPointExtension><gpxtpx:hr>99</gpxtpx:hr></gpxtpx:TrackPointExtension></extensions></trkpt><trkpt lat="64.701062" lon="24.476645"><ele>-5.6</ele><time>2026-07-12T08:41:18Z</time><extensions><gpxtpx:TrackPointExtension><gpxtpx:hr>94</gpxtpx:hr></gpxtpx:TrackPointExtension></extensions></trkpt><trkpt lat="64.701062" lon="24.476645"><ele>-5.6</ele><time>2026-07-12T08:41:23Z</time><extensions><gpxtpx:TrackPointExtension><gpxtpx:hr>91</gpxtpx:hr></gpxtpx:TrackPointExtension></extensions></trkpt><trkpt lat="64.701062" lon="24.476645"><ele>-5.6</ele><time>2026-07-12T08:41:24Z</time><extensions><gpxtpx:TrackPointExtension><gpxtpx:hr>90</gpxtpx:hr></gpxtpx:TrackPointExtension></extensions></trkpt><trkpt lat="64.701062" lon="24.476645"><ele>-5.6</ele><time>2026-07-12T08:41:33Z</time><extensions><gpxtpx:TrackPointExtension><gpxtpx:hr>83</gpxtpx:hr></gpxtpx:TrackPointExtension></extensions></trkpt><trkpt lat="64.701062" lon="24.476645"><ele>-5.6</ele><time>2026-07-12T08:41:38Z</time><extensions><gpxtpx:TrackPointExtension><gpxtpx:hr>82</gpxtpx:hr></gpxtpx:TrackPointExtension></extensions></trkpt><trkpt lat="64.701062" lon="24.476645"><ele>-5.6</ele><time>2026-07-12T08:41:42Z</time><extensions><gpxtpx:TrackPointExtension><gpxtpx:hr>83</gpxtpx:hr></gpxtpx:TrackPointExtension></extensions></trkpt><trkpt lat="64.701062" lon="24.476645"><ele>-5.6</ele><time>2026-07-12T08:41:45Z</time><extensions><gpxtpx:TrackPointExtension><gpxtpx:hr>82</gpxtpx:hr></gpxtpx:TrackPointExtension></extensions></trkpt><trkpt lat="64.701062" lon="24.476645"><ele>-5.6</ele><time>2026-07-12T08:41:50Z</time><extensions><gpxtpx:TrackPointExtension><gpxtpx:hr>86</gpxtpx:hr></gpxtpx:TrackPointExtension></extensions></trkpt><trkpt lat="64.701062" lon="24.476645"><ele>-5.6</ele><time>2026-07-12T08:41:54Z</time><extensions><gpxtpx:TrackPointExtension><gpxtpx:hr>88</gpxtpx:hr></gpxtpx:TrackPointExtension></extensions></trkpt><trkpt lat="64.701062" lon="24.476645"><ele>-5.6</ele><time>2026-07-12T08:42:03Z</time><extensions><gpxtpx:TrackPointExtension><gpxtpx:hr>91</gpxtpx:hr></gpxtpx:TrackPointExtension></extensions></trkpt><trkpt lat="64.701062" lon="24.476645"><ele>-5.6</ele><time>2026-07-12T08:42:06Z</time><extensions><gpxtpx:TrackPointExtension><gpxtpx:hr>90</gpxtpx:hr></gpxtpx:TrackPointExtension></extensions></trkpt><trkpt lat="64.701062" lon="24.476645"><ele>-5.6</ele><time>2026-07-12T08:42:11Z</time><extensions><gpxtpx:TrackPointExtension><gpxtpx:hr>88</gpxtpx:hr></gpxtpx:TrackPointExtension></extensions></trkpt><trkpt lat="64.701062" lon="24.476645"><ele>-5.6</ele><time>2026-07-12T08:42:15Z</time><extensions><gpxtpx:TrackPointExtension><gpxtpx:hr>86</gpxtpx:hr></gpxtpx:TrackPointExtension></extensions></trkpt><trkpt lat="64.701062" lon="24.476645"><ele>-5.6</ele><time>2026-07-12T08:42:19Z</time><extensions><gpxtpx:TrackPointExtension><gpxtpx:hr>87</gpxtpx:hr></gpxtpx:TrackPointExtension></extensions></trkpt><trkpt lat="64.701062" lon="24.476645"><ele>-5.6</ele><time>2026-07-12T08:42:24Z</time><extensions><gpxtpx:TrackPointExtension><gpxtpx:hr>87</gpxtpx:hr></gpxtpx:TrackPointExtension></extensions></trkpt><trkpt lat="64.701062" lon="24.476645"><ele>-5.6</ele><time>2026-07-12T08:42:33Z</time><extensions><gpxtpx:TrackPointExtension><gpxtpx:hr>80</gpxtpx:hr></gpxtpx:TrackPointExtension></extensions></trkpt><trkpt lat="64.701062" lon="24.476645"><ele>-5.6</ele><time>2026-07-12T08:42:38Z</time><extensions><gpxtpx:TrackPointExtension><gpxtpx:hr>84</gpxtpx:hr></gpxtpx:TrackPointExtension></extensions></trkpt><trkpt lat="64.701062" lon="24.476645"><ele>-5.6</ele><time>2026-07-12T08:42:43Z</time><extensions><gpxtpx:TrackPointExtension><gpxtpx:hr>91</gpxtpx:hr></gpxtpx:TrackPointExtension></extensions></trkpt><trkpt lat="64.701062" lon="24.476645"><ele>-5.6</ele><time>2026-07-12T08:42:47Z</time><extensions><gpxtpx:TrackPointExtension><gpxtpx:hr>92</gpxtpx:hr></gpxtpx:TrackPointExtension></extensions></trkpt><trkpt lat="64.701062" lon="24.476645"><ele>-5.6</ele><time>2026-07-12T08:42:49Z</time><extensions><gpxtpx:TrackPointExtension><gpxtpx:hr>92</gpxtpx:hr></gpxtpx:TrackPointExtension></extensions></trkpt><trkpt lat="64.701062" lon="24.476645"><ele>-5.6</ele><time>2026-07-12T08:42:54Z</time><extensions><gpxtpx:TrackPointExtension><gpxtpx:hr>99</gpxtpx:hr></gpxtpx:TrackPointExtension></extensions></trkpt><trkpt lat="64.701062" lon="24.476645"><ele>-5.6</ele><time>2026-07-12T08:42:59Z</time><extensions><gpxtpx:TrackPointExtension><gpxtpx:hr>108</gpxtpx:hr></gpxtpx:TrackPointExtension></extensions></trkpt><trkpt lat="64.701062" lon="24.476645"><ele>-5.6</ele><time>2026-07-12T08:43:04Z</time><extensions><gpxtpx:TrackPointExtension><gpxtpx:hr>117</gpxtpx:hr></gpxtpx:TrackPointExtension></extensions></trkpt><trkpt lat="64.701062" lon="24.476645"><ele>-5.6</ele><time>2026-07-12T08:43:13Z</time><extensions><gpxtpx:TrackPointExtension><gpxtpx:hr>119</gpxtpx:hr></gpxtpx:TrackPointExtension></extensions></trkpt><trkpt lat="64.701062" lon="24.476645"><ele>-5.6</ele><time>2026-07-12T08:43:14Z</time><extensions><gpxtpx:TrackPointExtension><gpxtpx:hr>118</gpxtpx:hr></gpxtpx:TrackPointExtension></extensions></trkpt><trkpt lat="64.701062" lon="24.476645"><ele>-5.6</ele><time>2026-07-12T08:43:23Z</time><extensions><gpxtpx:TrackPointExtension><gpxtpx:hr>112</gpxtpx:hr></gpxtpx:TrackPointExtension></extensions></trkpt><trkpt lat="64.701062" lon="24.476645"><ele>-5.6</ele><time>2026-07-12T08:43:25Z</time><extensions><gpxtpx:TrackPointExtension><gpxtpx:hr>110</gpxtpx:hr></gpxtpx:TrackPointExtension></extensions></trkpt><trkpt lat="64.701062" lon="24.476645"><ele>-5.6</ele><time>2026-07-12T08:43:32Z</time><extensions><gpxtpx:TrackPointExtension><gpxtpx:hr>107</gpxtpx:hr></gpxtpx:TrackPointExtension></extensions></trkpt><trkpt lat="64.701062" lon="24.476645"><ele>-5.6</ele><time>2026-07-12T08:43:34Z</time><extensions><gpxtpx:TrackPointExtension><gpxtpx:hr>107</gpxtpx:hr></gpxtpx:TrackPointExtension></extensions></trkpt><trkpt lat="64.701062" lon="24.476645"><ele>-5.6</ele><time>2026-07-12T08:43:42Z</time><extensions><gpxtpx:TrackPointExtension><gpxtpx:hr>106</gpxtpx:hr></gpxtpx:TrackPointExtension></extensions></trkpt><trkpt lat="64.701062" lon="24.476645"><ele>-5.6</ele><time>2026-07-12T08:43:48Z</time><extensions><gpxtpx:TrackPointExtension><gpxtpx:hr>104</gpxtpx:hr></gpxtpx:TrackPointExtension></extensions></trkpt><trkpt lat="64.701062" lon="24.476645"><ele>-5.6</ele><time>2026-07-12T08:43:52Z</time><extensions><gpxtpx:TrackPointExtension><gpxtpx:hr>104</gpxtpx:hr></gpxtpx:TrackPointExtension></extensions></trkpt><trkpt lat="64.701062" lon="24.476645"><ele>-5.6</ele><time>2026-07-12T08:43:54Z</time><extensions><gpxtpx:TrackPointExtension><gpxtpx:hr>103</gpxtpx:hr></gpxtpx:TrackPointExtension></extensions></trkpt><trkpt lat="64.701062" lon="24.476645"><ele>-5.6</ele><time>2026-07-12T08:44:03Z</time><extensions><gpxtpx:TrackPointExtension><gpxtpx:hr>105</gpxtpx:hr></gpxtpx:TrackPointExtension></extensions></trkpt><trkpt lat="64.701062" lon="24.476645"><ele>-5.6</ele><time>2026-07-12T08:44:04Z</time><extensions><gpxtpx:TrackPointExtension><gpxtpx:hr>105</gpxtpx:hr></gpxtpx:TrackPointExtension></extensions></trkpt><trkpt lat="64.701062" lon="24.476645"><ele>-5.6</ele><time>2026-07-12T08:44:09Z</time><extensions><gpxtpx:TrackPointExtension><gpxtpx:hr>105</gpxtpx:hr></gpxtpx:TrackPointExtension></extensions></trkpt><trkpt lat="64.701062" lon="24.476645"><ele>-5.6</ele><time>2026-07-12T08:44:14Z</time><extensions><gpxtpx:TrackPointExtension><gpxtpx:hr>105</gpxtpx:hr></gpxtpx:TrackPointExtension></extensions></trkpt><trkpt lat="64.701062" lon="24.476645"><ele>-5.6</ele><time>2026-07-12T08:44:23Z</time><extensions><gpxtpx:TrackPointExtension><gpxtpx:hr>104</gpxtpx:hr></gpxtpx:TrackPointExtension></extensions></trkpt><trkpt lat="64.701062" lon="24.476645"><ele>-5.6</ele><time>2026-07-12T08:44:27Z</time><extensions><gpxtpx:TrackPointExtension><gpxtpx:hr>105</gpxtpx:hr></gpxtpx:TrackPointExtension></extensions></trkpt><trkpt lat="64.701062" lon="24.476645"><ele>-5.6</ele><time>2026-07-12T08:44:29Z</time><extensions><gpxtpx:TrackPointExtension><gpxtpx:hr>105</gpxtpx:hr></gpxtpx:TrackPointExtension></extensions></trkpt><trkpt lat="64.701062" lon="24.476645"><ele>-5.6</ele><time>2026-07-12T08:44:37Z</time><extensions><gpxtpx:TrackPointExtension><gpxtpx:hr>108</gpxtpx:hr></gpxtpx:TrackPointExtension></extensions></trkpt><trkpt lat="64.701062" lon="24.476645"><ele>-5.6</ele><time>2026-07-12T08:44:39Z</time><extensions><gpxtpx:TrackPointExtension><gpxtpx:hr>107</gpxtpx:hr></gpxtpx:TrackPointExtension></extensions></trkpt><trkpt lat="64.701062" lon="24.476645"><ele>-5.6</ele><time>2026-07-12T08:44:44Z</time><extensions><gpxtpx:TrackPointExtension><gpxtpx:hr>104</gpxtpx:hr></gpxtpx:TrackPointExtension></extensions></trkpt><trkpt lat="64.701062" lon="24.476645"><ele>-5.6</ele><time>2026-07-12T08:44:53Z</time><extensions><gpxtpx:TrackPointExtension><gpxtpx:hr>98</gpxtpx:hr></gpxtpx:TrackPointExtension></extensions></trkpt><trkpt lat="64.701062" lon="24.476645"><ele>-5.6</ele><time>2026-07-12T08:44:58Z</time><extensions><gpxtpx:TrackPointExtension><gpxtpx:hr>93</gpxtpx:hr></gpxtpx:TrackPointExtension></extensions></trkpt><trkpt lat="64.701062" lon="24.476645"><ele>-5.6</ele><time>2026-07-12T08:45:03Z</time><extensions><gpxtpx:TrackPointExtension><gpxtpx:hr>89</gpxtpx:hr></gpxtpx:TrackPointExtension></extensions></trkpt><trkpt lat="64.701062" lon="24.476645"><ele>-5.6</ele><time>2026-07-12T08:45:07Z</time><extensions><gpxtpx:TrackPointExtension><gpxtpx:hr>87</gpxtpx:hr></gpxtpx:TrackPointExtension></extensions></trkpt><trkpt lat="64.701062" lon="24.476645"><ele>-5.6</ele><time>2026-07-12T08:45:12Z</time><extensions><gpxtpx:TrackPointExtension><gpxtpx:hr>85</gpxtpx:hr></gpxtpx:TrackPointExtension></extensions></trkpt><trkpt lat="64.701062" lon="24.476645"><ele>-5.6</ele><time>2026-07-12T08:45:16Z</time><extensions><gpxtpx:TrackPointExtension><gpxtpx:hr>85</gpxtpx:hr></gpxtpx:TrackPointExtension></extensions></trkpt><trkpt lat="64.701062" lon="24.476645"><ele>-5.6</ele><time>2026-07-12T08:45:23Z</time><extensions><gpxtpx:TrackPointExtension><gpxtpx:hr>83</gpxtpx:hr></gpxtpx:TrackPointExtension></extensions></trkpt><trkpt lat="64.701062" lon="24.476645"><ele>-5.6</ele><time>2026-07-12T08:45:24Z</time><extensions><gpxtpx:TrackPointExtension><gpxtpx:hr>84</gpxtpx:hr></gpxtpx:TrackPointExtension></extensions></trkpt><trkpt lat="64.701062" lon="24.476645"><ele>-5.6</ele><time>2026-07-12T08:45:29Z</time><extensions><gpxtpx:TrackPointExtension><gpxtpx:hr>86</gpxtpx:hr></gpxtpx:TrackPointExtension></extensions></trkpt><trkpt lat="64.701062" lon="24.476645"><ele>-5.6</ele><time>2026-07-12T08:45:34Z</time><extensions><gpxtpx:TrackPointExtension><gpxtpx:hr>85</gpxtpx:hr></gpxtpx:TrackPointExtension></extensions></trkpt><trkpt lat="64.701062" lon="24.476645"><ele>-5.6</ele><time>2026-07-12T08:45:43Z</time><extensions><gpxtpx:TrackPointExtension><gpxtpx:hr>82</gpxtpx:hr></gpxtpx:TrackPointExtension></extensions></trkpt><trkpt lat="64.701062" lon="24.476645"><ele>-5.6</ele><time>2026-07-12T08:45:45Z</time><extensions><gpxtpx:TrackPointExtension><gpxtpx:hr>81</gpxtpx:hr></gpxtpx:TrackPointExtension></extensions></trkpt><trkpt lat="64.701062" lon="24.476645"><ele>-5.6</ele><time>2026-07-12T08:45:49Z</time><extensions><gpxtpx:TrackPointExtension><gpxtpx:hr>84</gpxtpx:hr></gpxtpx:TrackPointExtension></extensions></trkpt><trkpt lat="64.701062" lon="24.476645"><ele>-5.6</ele><time>2026-07-12T08:45:58Z</time><extensions><gpxtpx:TrackPointExtension><gpxtpx:hr>87</gpxtpx:hr></gpxtpx:TrackPointExtension></extensions></trkpt><trkpt lat="64.701062" lon="24.476645"><ele>-5.6</ele><time>2026-07-12T08:45:59Z</time><extensions><gpxtpx:TrackPointExtension><gpxtpx:hr>88</gpxtpx:hr></gpxtpx:TrackPointExtension></extensions></trkpt><trkpt lat="64.701062" lon="24.476645"><ele>-5.6</ele><time>2026-07-12T08:46:04Z</time><extensions><gpxtpx:TrackPointExtension><gpxtpx:hr>89</gpxtpx:hr></gpxtpx:TrackPointExtension></extensions></trkpt><trkpt lat="64.701062" lon="24.476645"><ele>-5.6</ele><time>2026-07-12T08:46:09Z</time><extensions><gpxtpx:TrackPointExtension><gpxtpx:hr>91</gpxtpx:hr></gpxtpx:TrackPointExtension></extensions></trkpt><trkpt lat="64.701062" lon="24.476645"><ele>-5.6</ele><time>2026-07-12T08:46:18Z</time><extensions><gpxtpx:TrackPointExtension><gpxtpx:hr>91</gpxtpx:hr></gpxtpx:TrackPointExtension></extensions></trkpt><trkpt lat="64.701062" lon="24.476645"><ele>-5.6</ele><time>2026-07-12T08:46:23Z</time><extensions><gpxtpx:TrackPointExtension><gpxtpx:hr>92</gpxtpx:hr></gpxtpx:TrackPointExtension></extensions></trkpt><trkpt lat="64.701062" lon="24.476645"><ele>-5.6</ele><time>2026-07-12T08:46:28Z</time><extensions><gpxtpx:TrackPointExtension><gpxtpx:hr>93</gpxtpx:hr></gpxtpx:TrackPointExtension></extensions></trkpt><trkpt lat="64.701062" lon="24.476645"><ele>-5.6</ele><time>2026-07-12T08:46:30Z</time><extensions><gpxtpx:TrackPointExtension><gpxtpx:hr>93</gpxtpx:hr></gpxtpx:TrackPointExtension></extensions></trkpt><trkpt lat="64.701062" lon="24.476645"><ele>-5.6</ele><time>2026-07-12T08:46:34Z</time><extensions><gpxtpx:TrackPointExtension><gpxtpx:hr>95</gpxtpx:hr></gpxtpx:TrackPointExtension></extensions></trkpt><trkpt lat="64.701062" lon="24.476645"><ele>-5.6</ele><time>2026-07-12T08:46:43Z</time><extensions><gpxtpx:TrackPointExtension><gpxtpx:hr>113</gpxtpx:hr></gpxtpx:TrackPointExtension></extensions></trkpt><trkpt lat="64.701062" lon="24.476645"><ele>-5.6</ele><time>2026-07-12T08:46:47Z</time><extensions><gpxtpx:TrackPointExtension><gpxtpx:hr>120</gpxtpx:hr></gpxtpx:TrackPointExtension></extensions></trkpt><trkpt lat="64.701062" lon="24.476645"><ele>-5.6</ele><time>2026-07-12T08:46:52Z</time><extensions><gpxtpx:TrackPointExtension><gpxtpx:hr>124</gpxtpx:hr></gpxtpx:TrackPointExtension></extensions></trkpt><trkpt lat="64.701062" lon="24.476645"><ele>-5.6</ele><time>2026-07-12T08:46:55Z</time><extensions><gpxtpx:TrackPointExtension><gpxtpx:hr>123</gpxtpx:hr></gpxtpx:TrackPointExtension></extensions></trkpt><trkpt lat="64.701062" lon="24.476645"><ele>-5.6</ele><time>2026-07-12T08:47:01Z</time><extensions><gpxtpx:TrackPointExtension><gpxtpx:hr>116</gpxtpx:hr></gpxtpx:TrackPointExtension></extensions></trkpt><trkpt lat="64.701062" lon="24.476645"><ele>-5.6</ele><time>2026-07-12T08:47:05Z</time><extensions><gpxtpx:TrackPointExtension><gpxtpx:hr>112</gpxtpx:hr></gpxtpx:TrackPointExtension></extensions></trkpt><trkpt lat="64.701062" lon="24.476645"><ele>-5.6</ele><time>2026-07-12T08:47:09Z</time><extensions><gpxtpx:TrackPointExtension><gpxtpx:hr>113</gpxtpx:hr></gpxtpx:TrackPointExtension></extensions></trkpt><trkpt lat="64.701062" lon="24.476645"><ele>-5.6</ele><time>2026-07-12T08:47:14Z</time><extensions><gpxtpx:TrackPointExtension><gpxtpx:hr>111</gpxtpx:hr></gpxtpx:TrackPointExtension></extensions></trkpt><trkpt lat="64.701062" lon="24.476645"><ele>-5.6</ele><time>2026-07-12T08:47:19Z</time><extensions><gpxtpx:TrackPointExtension><gpxtpx:hr>114</gpxtpx:hr></gpxtpx:TrackPointExtension></extensions></trkpt><trkpt lat="64.701062" lon="24.476645"><ele>-5.6</ele><time>2026-07-12T08:47:24Z</time><extensions><gpxtpx:TrackPointExtension><gpxtpx:hr>120</gpxtpx:hr></gpxtpx:TrackPointExtension></extensions></trkpt><trkpt lat="64.701062" lon="24.476645"><ele>-5.6</ele><time>2026-07-12T08:47:29Z</time><extensions><gpxtpx:TrackPointExtension><gpxtpx:hr>124</gpxtpx:hr></gpxtpx:TrackPointExtension></extensions></trkpt><trkpt lat="64.701062" lon="24.476645"><ele>-5.6</ele><time>2026-07-12T08:47:38Z</time><extensions><gpxtpx:TrackPointExtension><gpxtpx:hr>127</gpxtpx:hr></gpxtpx:TrackPointExtension></extensions></trkpt><trkpt lat="64.701062" lon="24.476645"><ele>-5.6</ele><time>2026-07-12T08:47:40Z</time><extensions><gpxtpx:TrackPointExtension><gpxtpx:hr>127</gpxtpx:hr></gpxtpx:TrackPointExtension></extensions></trkpt><trkpt lat="64.701062" lon="24.476645"><ele>-5.6</ele><time>2026-07-12T08:47:44Z</time><extensions><gpxtpx:TrackPointExtension><gpxtpx:hr>127</gpxtpx:hr></gpxtpx:TrackPointExtension></extensions></trkpt><trkpt lat="64.701062" lon="24.476645"><ele>-5.6</ele><time>2026-07-12T08:47:52Z</time><extensions><gpxtpx:TrackPointExtension><gpxtpx:hr>128</gpxtpx:hr></gpxtpx:TrackPointExtension></extensions></trkpt><trkpt lat="64.701062" lon="24.476645"><ele>-5.6</ele><time>2026-07-12T08:48:03Z</time><extensions><gpxtpx:TrackPointExtension><gpxtpx:hr>116</gpxtpx:hr></gpxtpx:TrackPointExtension></extensions></trkpt><trkpt lat="64.701062" lon="24.476645"><ele>-5.6</ele><time>2026-07-12T08:48:07Z</time><extensions><gpxtpx:TrackPointExtension><gpxtpx:hr>112</gpxtpx:hr></gpxtpx:TrackPointExtension></extensions></trkpt><trkpt lat="64.701062" lon="24.476645"><ele>-5.6</ele><time>2026-07-12T08:48:13Z</time><extensions><gpxtpx:TrackPointExtension><gpxtpx:hr>108</gpxtpx:hr></gpxtpx:TrackPointExtension></extensions></trkpt><trkpt lat="64.701062" lon="24.476645"><ele>-5.6</ele><time>2026-07-12T08:48:15Z</time><extensions><gpxtpx:TrackPointExtension><gpxtpx:hr>104</gpxtpx:hr></gpxtpx:TrackPointExtension></extensions></trkpt><trkpt lat="64.701062" lon="24.476645"><ele>-5.6</ele><time>2026-07-12T08:48:23Z</time><extensions><gpxtpx:TrackPointExtension><gpxtpx:hr>106</gpxtpx:hr></gpxtpx:TrackPointExtension></extensions></trkpt><trkpt lat="64.701062" lon="24.476645"><ele>-5.6</ele><time>2026-07-12T08:48:24Z</time><extensions><gpxtpx:TrackPointExtension><gpxtpx:hr>106</gpxtpx:hr></gpxtpx:TrackPointExtension></extensions></trkpt><trkpt lat="64.701062" lon="24.476645"><ele>-5.6</ele><time>2026-07-12T08:48:29Z</time><extensions><gpxtpx:TrackPointExtension><gpxtpx:hr>105</gpxtpx:hr></gpxtpx:TrackPointExtension></extensions></trkpt><trkpt lat="64.701062" lon="24.476645"><ele>-5.6</ele><time>2026-07-12T08:48:34Z</time><extensions><gpxtpx:TrackPointExtension><gpxtpx:hr>105</gpxtpx:hr></gpxtpx:TrackPointExtension></extensions></trkpt><trkpt lat="64.701062" lon="24.476645"><ele>-5.6</ele><time>2026-07-12T08:48:39Z</time><extensions><gpxtpx:TrackPointExtension><gpxtpx:hr>108</gpxtpx:hr></gpxtpx:TrackPointExtension></extensions></trkpt><trkpt lat="64.701062" lon="24.476645"><ele>-5.6</ele><time>2026-07-12T08:48:44Z</time><extensions><gpxtpx:TrackPointExtension><gpxtpx:hr>112</gpxtpx:hr></gpxtpx:TrackPointExtension></extensions></trkpt><trkpt lat="64.701062" lon="24.476645"><ele>-5.6</ele><time>2026-07-12T08:48:53Z</time><extensions><gpxtpx:TrackPointExtension><gpxtpx:hr>114</gpxtpx:hr></gpxtpx:TrackPointExtension></extensions></trkpt><trkpt lat="64.701062" lon="24.476645"><ele>-5.6</ele><time>2026-07-12T08:48:58Z</time><extensions><gpxtpx:TrackPointExtension><gpxtpx:hr>114</gpxtpx:hr></gpxtpx:TrackPointExtension></extensions></trkpt><trkpt lat="64.701062" lon="24.476645"><ele>-5.6</ele><time>2026-07-12T08:49:00Z</time><extensions><gpxtpx:TrackPointExtension><gpxtpx:hr>111</gpxtpx:hr></gpxtpx:TrackPointExtension></extensions></trkpt><trkpt lat="64.701062" lon="24.476645"><ele>-5.6</ele><time>2026-07-12T08:49:07Z</time><extensions><gpxtpx:TrackPointExtension><gpxtpx:hr>104</gpxtpx:hr></gpxtpx:TrackPointExtension></extensions></trkpt><trkpt lat="64.701062" lon="24.476645"><ele>-5.6</ele><time>2026-07-12T08:49:09Z</time><extensions><gpxtpx:TrackPointExtension><gpxtpx:hr>108</gpxtpx:hr></gpxtpx:TrackPointExtension></extensions></trkpt><trkpt lat="64.701062" lon="24.476645"><ele>-5.6</ele><time>2026-07-12T08:49:17Z</time><extensions><gpxtpx:TrackPointExtension><gpxtpx:hr>112</gpxtpx:hr></gpxtpx:TrackPointExtension></extensions></trkpt><trkpt lat="64.701062" lon="24.476645"><ele>-5.6</ele><time>2026-07-12T08:49:23Z</time><extensions><gpxtpx:TrackPointExtension><gpxtpx:hr>113</gpxtpx:hr></gpxtpx:TrackPointExtension></extensions></trkpt><trkpt lat="64.701062" lon="24.476645"><ele>-5.6</ele><time>2026-07-12T08:49:26Z</time><extensions><gpxtpx:TrackPointExtension><gpxtpx:hr>113</gpxtpx:hr></gpxtpx:TrackPointExtension></extensions></trkpt><trkpt lat="64.701062" lon="24.476645"><ele>-5.6</ele><time>2026-07-12T08:49:33Z</time><extensions><gpxtpx:TrackPointExtension><gpxtpx:hr>110</gpxtpx:hr></gpxtpx:TrackPointExtension></extensions></trkpt><trkpt lat="64.701062" lon="24.476645"><ele>-5.6</ele><time>2026-07-12T08:49:37Z</time><extensions><gpxtpx:TrackPointExtension><gpxtpx:hr>110</gpxtpx:hr></gpxtpx:TrackPointExtension></extensions></trkpt><trkpt lat="64.701062" lon="24.476645"><ele>-5.6</ele><time>2026-07-12T08:49:39Z</time><extensions><gpxtpx:TrackPointExtension><gpxtpx:hr>109</gpxtpx:hr></gpxtpx:TrackPointExtension></extensions></trkpt><trkpt lat="64.701062" lon="24.476645"><ele>-5.6</ele><time>2026-07-12T08:49:44Z</time><extensions><gpxtpx:TrackPointExtension><gpxtpx:hr>106</gpxtpx:hr></gpxtpx:TrackPointExtension></extensions></trkpt><trkpt lat="64.701062" lon="24.476645"><ele>-5.6</ele><time>2026-07-12T08:49:51Z</time><extensions><gpxtpx:TrackPointExtension><gpxtpx:hr>104</gpxtpx:hr></gpxtpx:TrackPointExtension></extensions></trkpt><trkpt lat="64.701062" lon="24.476645"><ele>-5.6</ele><time>2026-07-12T08:49:54Z</time><extensions><gpxtpx:TrackPointExtension><gpxtpx:hr>104</gpxtpx:hr></gpxtpx:TrackPointExtension></extensions></trkpt><trkpt lat="64.701062" lon="24.476645"><ele>-5.6</ele><time>2026-07-12T08:50:03Z</time><extensions><gpxtpx:TrackPointExtension><gpxtpx:hr>100</gpxtpx:hr></gpxtpx:TrackPointExtension></extensions></trkpt><trkpt lat="64.701062" lon="24.476645"><ele>-5.6</ele><time>2026-07-12T08:50:08Z</time><extensions><gpxtpx:TrackPointExtension><gpxtpx:hr>98</gpxtpx:hr></gpxtpx:TrackPointExtension></extensions></trkpt><trkpt lat="64.701062" lon="24.476645"><ele>-5.6</ele><time>2026-07-12T08:50:13Z</time><extensions><gpxtpx:TrackPointExtension><gpxtpx:hr>102</gpxtpx:hr></gpxtpx:TrackPointExtension></extensions></trkpt><trkpt lat="64.701062" lon="24.476645"><ele>-5.6</ele><time>2026-07-12T08:50:16Z</time><extensions><gpxtpx:TrackPointExtension><gpxtpx:hr>102</gpxtpx:hr></gpxtpx:TrackPointExtension></extensions></trkpt><trkpt lat="64.701062" lon="24.476645"><ele>-5.6</ele><time>2026-07-12T08:50:23Z</time><extensions><gpxtpx:TrackPointExtension><gpxtpx:hr>103</gpxtpx:hr></gpxtpx:TrackPointExtension></extensions></trkpt><trkpt lat="64.701062" lon="24.476645"><ele>-5.6</ele><time>2026-07-12T08:50:24Z</time><extensions><gpxtpx:TrackPointExtension><gpxtpx:hr>104</gpxtpx:hr></gpxtpx:TrackPointExtension></extensions></trkpt><trkpt lat="64.701062" lon="24.476645"><ele>-5.6</ele><time>2026-07-12T08:50:30Z</time><extensions><gpxtpx:TrackPointExtension><gpxtpx:hr>102</gpxtpx:hr></gpxtpx:TrackPointExtension></extensions></trkpt><trkpt lat="64.701062" lon="24.476645"><ele>-5.6</ele><time>2026-07-12T08:50:35Z</time><extensions><gpxtpx:TrackPointExtension><gpxtpx:hr>102</gpxtpx:hr></gpxtpx:TrackPointExtension></extensions></trkpt><trkpt lat="64.701062" lon="24.476645"><ele>-5.6</ele><time>2026-07-12T08:50:39Z</time><extensions><gpxtpx:TrackPointExtension><gpxtpx:hr>102</gpxtpx:hr></gpxtpx:TrackPointExtension></extensions></trkpt><trkpt lat="64.701062" lon="24.476645"><ele>-5.6</ele><time>2026-07-12T08:50:48Z</time><extensions><gpxtpx:TrackPointExtension><gpxtpx:hr>103</gpxtpx:hr></gpxtpx:TrackPointExtension></extensions></trkpt><trkpt lat="64.701062" lon="24.476645"><ele>-5.6</ele><time>2026-07-12T08:50:53Z</time><extensions><gpxtpx:TrackPointExtension><gpxtpx:hr>103</gpxtpx:hr></gpxtpx:TrackPointExtension></extensions></trkpt><trkpt lat="64.701062" lon="24.476645"><ele>-5.6</ele><time>2026-07-12T08:50:54Z</time><extensions><gpxtpx:TrackPointExtension><gpxtpx:hr>102</gpxtpx:hr></gpxtpx:TrackPointExtension></extensions></trkpt><trkpt lat="64.701062" lon="24.476645"><ele>-5.6</ele><time>2026-07-12T08:51:00Z</time><extensions><gpxtpx:TrackPointExtension><gpxtpx:hr>102</gpxtpx:hr></gpxtpx:TrackPointExtension></extensions></trkpt><trkpt lat="64.701062" lon="24.476645"><ele>-5.6</ele><time>2026-07-12T08:51:07Z</time><extensions><gpxtpx:TrackPointExtension><gpxtpx:hr>99</gpxtpx:hr></gpxtpx:TrackPointExtension></extensions></trkpt><trkpt lat="64.701062" lon="24.476645"><ele>-5.6</ele><time>2026-07-12T08:51:10Z</time><extensions><gpxtpx:TrackPointExtension><gpxtpx:hr>99</gpxtpx:hr></gpxtpx:TrackPointExtension></extensions></trkpt><trkpt lat="64.701062" lon="24.476645"><ele>-5.6</ele><time>2026-07-12T08:51:14Z</time><extensions><gpxtpx:TrackPointExtension><gpxtpx:hr>103</gpxtpx:hr></gpxtpx:TrackPointExtension></extensions></trkpt><trkpt lat="64.701062" lon="24.476645"><ele>-5.6</ele><time>2026-07-12T08:51:22Z</time><extensions><gpxtpx:TrackPointExtension><gpxtpx:hr>104</gpxtpx:hr></gpxtpx:TrackPointExtension></extensions></trkpt><trkpt lat="64.701062" lon="24.476645"><ele>-5.6</ele><time>2026-07-12T08:51:24Z</time><extensions><gpxtpx:TrackPointExtension><gpxtpx:hr>103</gpxtpx:hr></gpxtpx:TrackPointExtension></extensions></trkpt><trkpt lat="64.701062" lon="24.476645"><ele>-5.6</ele><time>2026-07-12T08:51:33Z</time><extensions><gpxtpx:TrackPointExtension><gpxtpx:hr>102</gpxtpx:hr></gpxtpx:TrackPointExtension></extensions></trkpt><trkpt lat="64.701062" lon="24.476645"><ele>-5.6</ele><time>2026-07-12T08:51:38Z</time><extensions><gpxtpx:TrackPointExtension><gpxtpx:hr>102</gpxtpx:hr></gpxtpx:TrackPointExtension></extensions></trkpt><trkpt lat="64.701062" lon="24.476645"><ele>-5.6</ele><time>2026-07-12T08:51:41Z</time><extensions><gpxtpx:TrackPointExtension><gpxtpx:hr>103</gpxtpx:hr></gpxtpx:TrackPointExtension></extensions></trkpt><trkpt lat="64.701062" lon="24.476645"><ele>-5.6</ele><time>2026-07-12T08:51:44Z</time><extensions><gpxtpx:TrackPointExtension><gpxtpx:hr>102</gpxtpx:hr></gpxtpx:TrackPointExtension></extensions></trkpt><trkpt lat="64.701062" lon="24.476645"><ele>-5.6</ele><time>2026-07-12T08:51:52Z</time><extensions><gpxtpx:TrackPointExtension><gpxtpx:hr>104</gpxtpx:hr></gpxtpx:TrackPointExtension></extensions></trkpt><trkpt lat="64.701062" lon="24.476645"><ele>-5.6</ele><time>2026-07-12T08:51:55Z</time><extensions><gpxtpx:TrackPointExtension><gpxtpx:hr>105</gpxtpx:hr></gpxtpx:TrackPointExtension></extensions></trkpt><trkpt lat="64.701062" lon="24.476645"><ele>-5.6</ele><time>2026-07-12T08:51:59Z</time><extensions><gpxtpx:TrackPointExtension><gpxtpx:hr>104</gpxtpx:hr></gpxtpx:TrackPointExtension></extensions></trkpt><trkpt lat="64.701062" lon="24.476645"><ele>-5.6</ele><time>2026-07-12T08:52:07Z</time><extensions><gpxtpx:TrackPointExtension><gpxtpx:hr>104</gpxtpx:hr></gpxtpx:TrackPointExtension></extensions></trkpt><trkpt lat="64.701062" lon="24.476645"><ele>-5.6</ele><time>2026-07-12T08:52:10Z</time><extensions><gpxtpx:TrackPointExtension><gpxtpx:hr>103</gpxtpx:hr></gpxtpx:TrackPointExtension></extensions></trkpt><trkpt lat="64.701062" lon="24.476645"><ele>-5.6</ele><time>2026-07-12T08:52:15Z</time><extensions><gpxtpx:TrackPointExtension><gpxtpx:hr>105</gpxtpx:hr></gpxtpx:TrackPointExtension></extensions></trkpt><trkpt lat="64.701062" lon="24.476645"><ele>-5.6</ele><time>2026-07-12T08:52:19Z</time><extensions><gpxtpx:TrackPointExtension><gpxtpx:hr>104</gpxtpx:hr></gpxtpx:TrackPointExtension></extensions></trkpt><trkpt lat="64.701062" lon="24.476645"><ele>-5.6</ele><time>2026-07-12T08:52:28Z</time><extensions><gpxtpx:TrackPointExtension><gpxtpx:hr>104</gpxtpx:hr></gpxtpx:TrackPointExtension></extensions></trkpt><trkpt lat="64.701062" lon="24.476645"><ele>-5.6</ele><time>2026-07-12T08:52:33Z</time><extensions><gpxtpx:TrackPointExtension><gpxtpx:hr>108</gpxtpx:hr></gpxtpx:TrackPointExtension></extensions></trkpt><trkpt lat="64.701062" lon="24.476645"><ele>-5.6</ele><time>2026-07-12T08:52:37Z</time><extensions><gpxtpx:TrackPointExtension><gpxtpx:hr>110</gpxtpx:hr></gpxtpx:TrackPointExtension></extensions></trkpt><trkpt lat="64.701062" lon="24.476645"><ele>-5.6</ele><time>2026-07-12T08:52:43Z</time><extensions><gpxtpx:TrackPointExtension><gpxtpx:hr>109</gpxtpx:hr></gpxtpx:TrackPointExtension></extensions></trkpt><trkpt lat="64.701062" lon="24.476645"><ele>-5.6</ele><time>2026-07-12T08:52:44Z</time><extensions><gpxtpx:TrackPointExtension><gpxtpx:hr>109</gpxtpx:hr></gpxtpx:TrackPointExtension></extensions></trkpt><trkpt lat="64.701062" lon="24.476645"><ele>-5.6</ele><time>2026-07-12T08:52:49Z</time><extensions><gpxtpx:TrackPointExtension><gpxtpx:hr>110</gpxtpx:hr></gpxtpx:TrackPointExtension></extensions></trkpt><trkpt lat="64.701062" lon="24.476645"><ele>-5.6</ele><time>2026-07-12T08:52:58Z</time><extensions><gpxtpx:TrackPointExtension><gpxtpx:hr>108</gpxtpx:hr></gpxtpx:TrackPointExtension></extensions></trkpt><trkpt lat="64.701062" lon="24.476645"><ele>-5.6</ele><time>2026-07-12T08:52:59Z</time><extensions><gpxtpx:TrackPointExtension><gpxtpx:hr>108</gpxtpx:hr></gpxtpx:TrackPointExtension></extensions></trkpt><trkpt lat="64.701062" lon="24.476645"><ele>-5.6</ele><time>2026-07-12T08:53:06Z</time><extensions><gpxtpx:TrackPointExtension><gpxtpx:hr>108</gpxtpx:hr></gpxtpx:TrackPointExtension></extensions></trkpt><trkpt lat="64.701062" lon="24.476645"><ele>-5.6</ele><time>2026-07-12T08:53:09Z</time><extensions><gpxtpx:TrackPointExtension><gpxtpx:hr>108</gpxtpx:hr></gpxtpx:TrackPointExtension></extensions></trkpt><trkpt lat="64.701062" lon="24.476645"><ele>-5.6</ele><time>2026-07-12T08:53:14Z</time><extensions><gpxtpx:TrackPointExtension><gpxtpx:hr>109</gpxtpx:hr></gpxtpx:TrackPointExtension></extensions></trkpt><trkpt lat="64.701062" lon="24.476645"><ele>-5.6</ele><time>2026-07-12T08:53:19Z</time><extensions><gpxtpx:TrackPointExtension><gpxtpx:hr>108</gpxtpx:hr></gpxtpx:TrackPointExtension></extensions></trkpt><trkpt lat="64.701062" lon="24.476645"><ele>-5.6</ele><time>2026-07-12T08:53:27Z</time><extensions><gpxtpx:TrackPointExtension><gpxtpx:hr>110</gpxtpx:hr></gpxtpx:TrackPointExtension></extensions></trkpt><trkpt lat="64.701062" lon="24.476645"><ele>-5.6</ele><time>2026-07-12T08:53:33Z</time><extensions><gpxtpx:TrackPointExtension><gpxtpx:hr>107</gpxtpx:hr></gpxtpx:TrackPointExtension></extensions></trkpt><trkpt lat="64.701062" lon="24.476645"><ele>-5.6</ele><time>2026-07-12T08:53:37Z</time><extensions><gpxtpx:TrackPointExtension><gpxtpx:hr>105</gpxtpx:hr></gpxtpx:TrackPointExtension></extensions></trkpt><trkpt lat="64.701062" lon="24.476645"><ele>-5.6</ele><time>2026-07-12T08:53:43Z</time><extensions><gpxtpx:TrackPointExtension><gpxtpx:hr>110</gpxtpx:hr></gpxtpx:TrackPointExtension></extensions></trkpt><trkpt lat="64.701062" lon="24.476645"><ele>-5.6</ele><time>2026-07-12T08:53:48Z</time><extensions><gpxtpx:TrackPointExtension><gpxtpx:hr>110</gpxtpx:hr></gpxtpx:TrackPointExtension></extensions></trkpt><trkpt lat="64.701062" lon="24.476645"><ele>-5.6</ele><time>2026-07-12T08:53:51Z</time><extensions><gpxtpx:TrackPointExtension><gpxtpx:hr>110</gpxtpx:hr></gpxtpx:TrackPointExtension></extensions></trkpt><trkpt lat="64.701062" lon="24.476645"><ele>-5.6</ele><time>2026-07-12T08:53:54Z</time><extensions><gpxtpx:TrackPointExtension><gpxtpx:hr>107</gpxtpx:hr></gpxtpx:TrackPointExtension></extensions></trkpt><trkpt lat="64.701062" lon="24.476645"><ele>-5.6</ele><time>2026-07-12T08:54:02Z</time><extensions><gpxtpx:TrackPointExtension><gpxtpx:hr>100</gpxtpx:hr></gpxtpx:TrackPointExtension></extensions></trkpt><trkpt lat="64.701062" lon="24.476645"><ele>-5.6</ele><time>2026-07-12T08:54:05Z</time><extensions><gpxtpx:TrackPointExtension><gpxtpx:hr>99</gpxtpx:hr></gpxtpx:TrackPointExtension></extensions></trkpt><trkpt lat="64.701062" lon="24.476645"><ele>-5.6</ele><time>2026-07-12T08:54:12Z</time><extensions><gpxtpx:TrackPointExtension><gpxtpx:hr>95</gpxtpx:hr></gpxtpx:TrackPointExtension></extensions></trkpt><trkpt lat="64.701062" lon="24.476645"><ele>-5.6</ele><time>2026-07-12T08:54:14Z</time><extensions><gpxtpx:TrackPointExtension><gpxtpx:hr>96</gpxtpx:hr></gpxtpx:TrackPointExtension></extensions></trkpt><trkpt lat="64.701062" lon="24.476645"><ele>-5.6</ele><time>2026-07-12T08:54:23Z</time><extensions><gpxtpx:TrackPointExtension><gpxtpx:hr>98</gpxtpx:hr></gpxtpx:TrackPointExtension></extensions></trkpt><trkpt lat="64.701062" lon="24.476645"><ele>-5.6</ele><time>2026-07-12T08:54:26Z</time><extensions><gpxtpx:TrackPointExtension><gpxtpx:hr>98</gpxtpx:hr></gpxtpx:TrackPointExtension></extensions></trkpt><trkpt lat="64.701062" lon="24.476645"><ele>-5.6</ele><time>2026-07-12T08:54:29Z</time><extensions><gpxtpx:TrackPointExtension><gpxtpx:hr>99</gpxtpx:hr></gpxtpx:TrackPointExtension></extensions></trkpt><trkpt lat="64.701062" lon="24.476645"><ele>-5.6</ele><time>2026-07-12T08:54:35Z</time><extensions><gpxtpx:TrackPointExtension><gpxtpx:hr>98</gpxtpx:hr></gpxtpx:TrackPointExtension></extensions></trkpt><trkpt lat="64.701062" lon="24.476645"><ele>-5.6</ele><time>2026-07-12T08:54:39Z</time><extensions><gpxtpx:TrackPointExtension><gpxtpx:hr>99</gpxtpx:hr></gpxtpx:TrackPointExtension></extensions></trkpt><trkpt lat="64.701062" lon="24.476645"><ele>-5.6</ele><time>2026-07-12T08:54:44Z</time><extensions><gpxtpx:TrackPointExtension><gpxtpx:hr>100</gpxtpx:hr></gpxtpx:TrackPointExtension></extensions></trkpt><trkpt lat="64.701062" lon="24.476645"><ele>-5.6</ele><time>2026-07-12T08:54:53Z</time><extensions><gpxtpx:TrackPointExtension><gpxtpx:hr>102</gpxtpx:hr></gpxtpx:TrackPointExtension></extensions></trkpt><trkpt lat="64.701062" lon="24.476645"><ele>-5.6</ele><time>2026-07-12T08:54:55Z</time><extensions><gpxtpx:TrackPointExtension><gpxtpx:hr>102</gpxtpx:hr></gpxtpx:TrackPointExtension></extensions></trkpt><trkpt lat="64.701062" lon="24.476645"><ele>-5.6</ele><time>2026-07-12T08:55:03Z</time><extensions><gpxtpx:TrackPointExtension><gpxtpx:hr>104</gpxtpx:hr></gpxtpx:TrackPointExtension></extensions></trkpt><trkpt lat="64.701062" lon="24.476645"><ele>-5.6</ele><time>2026-07-12T08:55:08Z</time><extensions><gpxtpx:TrackPointExtension><gpxtpx:hr>104</gpxtpx:hr></gpxtpx:TrackPointExtension></extensions></trkpt><trkpt lat="64.701062" lon="24.476645"><ele>-5.6</ele><time>2026-07-12T08:55:11Z</time><extensions><gpxtpx:TrackPointExtension><gpxtpx:hr>103</gpxtpx:hr></gpxtpx:TrackPointExtension></extensions></trkpt><trkpt lat="64.701062" lon="24.476645"><ele>-5.6</ele><time>2026-07-12T08:55:14Z</time><extensions><gpxtpx:TrackPointExtension><gpxtpx:hr>101</gpxtpx:hr></gpxtpx:TrackPointExtension></extensions></trkpt><trkpt lat="64.701062" lon="24.476645"><ele>-5.6</ele><time>2026-07-12T08:55:23Z</time><extensions><gpxtpx:TrackPointExtension><gpxtpx:hr>99</gpxtpx:hr></gpxtpx:TrackPointExtension></extensions></trkpt><trkpt lat="64.701062" lon="24.476645"><ele>-5.6</ele><time>2026-07-12T08:55:28Z</time><extensions><gpxtpx:TrackPointExtension><gpxtpx:hr>99</gpxtpx:hr></gpxtpx:TrackPointExtension></extensions></trkpt><trkpt lat="64.701062" lon="24.476645"><ele>-5.6</ele><time>2026-07-12T08:55:33Z</time><extensions><gpxtpx:TrackPointExtension><gpxtpx:hr>102</gpxtpx:hr></gpxtpx:TrackPointExtension></extensions></trkpt><trkpt lat="64.701062" lon="24.476645"><ele>-5.6</ele><time>2026-07-12T08:55:36Z</time><extensions><gpxtpx:TrackPointExtension><gpxtpx:hr>102</gpxtpx:hr></gpxtpx:TrackPointExtension></extensions></trkpt><trkpt lat="64.701062" lon="24.476645"><ele>-5.6</ele><time>2026-07-12T08:55:39Z</time><extensions><gpxtpx:TrackPointExtension><gpxtpx:hr>102</gpxtpx:hr></gpxtpx:TrackPointExtension></extensions></trkpt><trkpt lat="64.701062" lon="24.476645"><ele>-5.6</ele><time>2026-07-12T08:55:44Z</time><extensions><gpxtpx:TrackPointExtension><gpxtpx:hr>102</gpxtpx:hr></gpxtpx:TrackPointExtension></extensions></trkpt><trkpt lat="64.701062" lon="24.476645"><ele>-5.6</ele><time>2026-07-12T08:55:49Z</time><extensions><gpxtpx:TrackPointExtension><gpxtpx:hr>102</gpxtpx:hr></gpxtpx:TrackPointExtension></extensions></trkpt><trkpt lat="64.701062" lon="24.476645"><ele>-5.6</ele><time>2026-07-12T08:55:55Z</time><extensions><gpxtpx:TrackPointExtension><gpxtpx:hr>106</gpxtpx:hr></gpxtpx:TrackPointExtension></extensions></trkpt><trkpt lat="64.701062" lon="24.476645"><ele>-5.6</ele><time>2026-07-12T08:56:03Z</time><extensions><gpxtpx:TrackPointExtension><gpxtpx:hr>116</gpxtpx:hr></gpxtpx:TrackPointExtension></extensions></trkpt><trkpt lat="64.701062" lon="24.476645"><ele>-5.6</ele><time>2026-07-12T08:56:06Z</time><extensions><gpxtpx:TrackPointExtension><gpxtpx:hr>115</gpxtpx:hr></gpxtpx:TrackPointExtension></extensions></trkpt><trkpt lat="64.701062" lon="24.476645"><ele>-5.6</ele><time>2026-07-12T08:56:13Z</time><extensions><gpxtpx:TrackPointExtension><gpxtpx:hr>109</gpxtpx:hr></gpxtpx:TrackPointExtension></extensions></trkpt><trkpt lat="64.701062" lon="24.476645"><ele>-5.6</ele><time>2026-07-12T08:56:15Z</time><extensions><gpxtpx:TrackPointExtension><gpxtpx:hr>108</gpxtpx:hr></gpxtpx:TrackPointExtension></extensions></trkpt><trkpt lat="64.701062" lon="24.476645"><ele>-5.6</ele><time>2026-07-12T08:56:19Z</time><extensions><gpxtpx:TrackPointExtension><gpxtpx:hr>107</gpxtpx:hr></gpxtpx:TrackPointExtension></extensions></trkpt></trkseg></trk></gpx>