<?xml version="1.0" encoding="UTF-8" standalone="no"?><gpx xmlns="http://www.topografix.com/GPX/1/1" xmlns:gpxtpx="http://www.garmin.com/xmlschemas/TrackPointExtension/v1" xmlns:xsi="http://www.w3.org/2001/XMLSchema-instance" creator="Sports Tracker" version="1.1" xsi:schemaLocation="http://www.topografix.com/GPX/1/1 http://www.topografix.com/GPX/1/1/gpx.xsd http://www.garmin.com/xmlschemas/TrackPointExtension/v1 http://www.garmin.com/xmlschemas/TrackPointExtensionv1.xsd"><metadata><name/><desc/><author><name>anttipehkonen240</name></author></metadata><trk><name/><trkseg><trkpt lat="0.0" lon="0.0"><time>2026-08-05T13:28:55Z</time><extensions><gpxtpx:TrackPointExtension><gpxtpx:hr>75</gpxtpx:hr></gpxtpx:TrackPointExtension></extensions></trkpt><trkpt lat="0.0" lon="0.0"><time>2026-08-05T13:32:42Z</time><extensions><gpxtpx:TrackPointExtension><gpxtpx:hr>73</gpxtpx:hr></gpxtpx:TrackPointExtension></extensions></trkpt><trkpt lat="0.0" lon="0.0"><time>2026-08-05T13:34:55Z</time><extensions><gpxtpx:TrackPointExtension><gpxtpx:hr>72</gpxtpx:hr></gpxtpx:TrackPointExtension></extensions></trkpt><trkpt lat="0.0" lon="0.0"><time>2026-08-05T13:43:42Z</time><extensions><gpxtpx:TrackPointExtension><gpxtpx:hr>77</gpxtpx:hr></gpxtpx:TrackPointExtension></extensions></trkpt><trkpt lat="0.0" lon="0.0"><time>2026-08-05T13:47:49Z</time><extensions><gpxtpx:TrackPointExtension><gpxtpx:hr>70</gpxtpx:hr></gpxtpx:TrackPointExtension></extensions></trkpt><trkpt lat="0.0" lon="0.0"><time>2026-08-05T13:49:04Z</time><extensions><gpxtpx:TrackPointExtension><gpxtpx:hr>70</gpxtpx:hr></gpxtpx:TrackPointExtension></extensions></trkpt><trkpt lat="0.0" lon="0.0"><time>2026-08-05T13:58:45Z</time><extensions><gpxtpx:TrackPointExtension><gpxtpx:hr>77</gpxtpx:hr></gpxtpx:TrackPointExtension></extensions></trkpt><trkpt lat="0.0" lon="0.0"><time>2026-08-05T14:05:32Z</time><extensions><gpxtpx:TrackPointExtension><gpxtpx:hr>76</gpxtpx:hr></gpxtpx:TrackPointExtension></extensions></trkpt><trkpt lat="0.0" lon="0.0"><time>2026-08-05T14:25:06Z</time><extensions><gpxtpx:TrackPointExtension><gpxtpx:hr>82</gpxtpx:hr></gpxtpx:TrackPointExtension></extensions></trkpt><trkpt lat="0.0" lon="0.0"><time>2026-08-05T14:29:00Z</time><extensions><gpxtpx:TrackPointExtension><gpxtpx:hr>88</gpxtpx:hr></gpxtpx:TrackPointExtension></extensions></trkpt><trkpt lat="0.0" lon="0.0"><time>2026-08-05T14:29:02Z</time><extensions><gpxtpx:TrackPointExtension><gpxtpx:hr>87</gpxtpx:hr></gpxtpx:TrackPointExtension></extensions></trkpt><trkpt lat="0.0" lon="0.0"><time>2026-08-05T14:29:06Z</time><extensions><gpxtpx:TrackPointExtension><gpxtpx:hr>90</gpxtpx:hr></gpxtpx:TrackPointExtension></extensions></trkpt><trkpt lat="0.0" lon="0.0"><time>2026-08-05T14:29:15Z</time><extensions><gpxtpx:TrackPointExtension><gpxtpx:hr>89</gpxtpx:hr></gpxtpx:TrackPointExtension></extensions></trkpt><trkpt lat="0.0" lon="0.0"><time>2026-08-05T14:29:20Z</time><extensions><gpxtpx:TrackPointExtension><gpxtpx:hr>84</gpxtpx:hr></gpxtpx:TrackPointExtension></extensions></trkpt><trkpt lat="0.0" lon="0.0"><time>2026-08-05T14:29:21Z</time><extensions><gpxtpx:TrackPointExtension><gpxtpx:hr>83</gpxtpx:hr></gpxtpx:TrackPointExtension></extensions></trkpt><trkpt lat="0.0" lon="0.0"><time>2026-08-05T14:29:26Z</time><extensions><gpxtpx:TrackPointExtension><gpxtpx:hr>82</gpxtpx:hr></gpxtpx:TrackPointExtension></extensions></trkpt><trkpt lat="0.0" lon="0.0"><time>2026-08-05T14:29:35Z</time><extensions><gpxtpx:TrackPointExtension><gpxtpx:hr>79</gpxtpx:hr></gpxtpx:TrackPointExtension></extensions></trkpt><trkpt lat="0.0" lon="0.0"><time>2026-08-05T14:29:40Z</time><extensions><gpxtpx:TrackPointExtension><gpxtpx:hr>76</gpxtpx:hr></gpxtpx:TrackPointExtension></extensions></trkpt><trkpt lat="0.0" lon="0.0"><time>2026-08-05T14:29:45Z</time><extensions><gpxtpx:TrackPointExtension><gpxtpx:hr>76</gpxtpx:hr></gpxtpx:TrackPointExtension></extensions></trkpt><trkpt lat="0.0" lon="0.0"><time>2026-08-05T14:29:46Z</time><extensions><gpxtpx:TrackPointExtension><gpxtpx:hr>76</gpxtpx:hr></gpxtpx:TrackPointExtension></extensions></trkpt><trkpt lat="0.0" lon="0.0"><time>2026-08-05T14:29:51Z</time><extensions><gpxtpx:TrackPointExtension><gpxtpx:hr>78</gpxtpx:hr></gpxtpx:TrackPointExtension></extensions></trkpt><trkpt lat="0.0" lon="0.0"><time>2026-08-05T14:30:49Z</time><extensions><gpxtpx:TrackPointExtension><gpxtpx:hr>74</gpxtpx:hr></gpxtpx:TrackPointExtension></extensions></trkpt><trkpt lat="0.0" lon="0.0"><time>2026-08-05T14:34:59Z</time><extensions><gpxtpx:TrackPointExtension><gpxtpx:hr>72</gpxtpx:hr></gpxtpx:TrackPointExtension></extensions></trkpt><trkpt lat="0.0" lon="0.0"><time>2026-08-05T14:42:41Z</time><extensions><gpxtpx:TrackPointExtension><gpxtpx:hr>97</gpxtpx:hr></gpxtpx:TrackPointExtension></extensions></trkpt><trkpt lat="0.0" lon="0.0"><time>2026-08-05T14:48:51Z</time><extensions><gpxtpx:TrackPointExtension><gpxtpx:hr>71</gpxtpx:hr></gpxtpx:TrackPointExtension></extensions></trkpt><trkpt lat="0.0" lon="0.0"><time>2026-08-05T14:49:17Z</time><extensions><gpxtpx:TrackPointExtension><gpxtpx:hr>66</gpxtpx:hr></gpxtpx:TrackPointExtension></extensions></trkpt><trkpt lat="0.0" lon="0.0"><time>2026-08-05T14:49:27Z</time><extensions><gpxtpx:TrackPointExtension><gpxtpx:hr>73</gpxtpx:hr></gpxtpx:TrackPointExtension></extensions></trkpt><trkpt lat="0.0" lon="0.0"><time>2026-08-05T14:50:28Z</time><extensions><gpxtpx:TrackPointExtension><gpxtpx:hr>66</gpxtpx:hr></gpxtpx:TrackPointExtension></extensions></trkpt><trkpt lat="0.0" lon="0.0"><time>2026-08-05T14:54:07Z</time><extensions><gpxtpx:TrackPointExtension><gpxtpx:hr>66</gpxtpx:hr></gpxtpx:TrackPointExtension></extensions></trkpt><trkpt lat="0.0" lon="0.0"><time>2026-08-05T15:01:11Z</time><extensions><gpxtpx:TrackPointExtension><gpxtpx:hr>68</gpxtpx:hr></gpxtpx:TrackPointExtension></extensions></trkpt><trkpt lat="0.0" lon="0.0"><time>2026-08-05T15:04:38Z</time><extensions><gpxtpx:TrackPointExtension><gpxtpx:hr>67</gpxtpx:hr></gpxtpx:TrackPointExtension></extensions></trkpt><trkpt lat="0.0" lon="0.0"><time>2026-08-05T15:08:56Z</time><extensions><gpxtpx:TrackPointExtension><gpxtpx:hr>66</gpxtpx:hr></gpxtpx:TrackPointExtension></extensions></trkpt><trkpt lat="0.0" lon="0.0"><time>2026-08-05T15:15:18Z</time><extensions><gpxtpx:TrackPointExtension><gpxtpx:hr>67</gpxtpx:hr></gpxtpx:TrackPointExtension></extensions></trkpt><trkpt lat="0.0" lon="0.0"><time>2026-08-05T15:22:13Z</time><extensions><gpxtpx:TrackPointExtension><gpxtpx:hr>70</gpxtpx:hr></gpxtpx:TrackPointExtension></extensions></trkpt><trkpt lat="0.0" lon="0.0"><time>2026-08-05T15:23:27Z</time><extensions><gpxtpx:TrackPointExtension><gpxtpx:hr>70</gpxtpx:hr></gpxtpx:TrackPointExtension></extensions></trkpt><trkpt lat="0.0" lon="0.0"><time>2026-08-05T15:26:41Z</time><extensions><gpxtpx:TrackPointExtension><gpxtpx:hr>70</gpxtpx:hr></gpxtpx:TrackPointExtension></extensions></trkpt><trkpt lat="0.0" lon="0.0"><time>2026-08-05T15:28:34Z</time><extensions><gpxtpx:TrackPointExtension><gpxtpx:hr>66</gpxtpx:hr></gpxtpx:TrackPointExtension></extensions></trkpt><trkpt lat="0.0" lon="0.0"><time>2026-08-05T15:30:27Z</time><extensions><gpxtpx:TrackPointExtension><gpxtpx:hr>67</gpxtpx:hr></gpxtpx:TrackPointExtension></extensions></trkpt><trkpt lat="0.0" lon="0.0"><time>2026-08-05T15:35:43Z</time><extensions><gpxtpx:TrackPointExtension><gpxtpx:hr>71</gpxtpx:hr></gpxtpx:TrackPointExtension></extensions></trkpt><trkpt lat="0.0" lon="0.0"><time>2026-08-05T15:39:37Z</time><extensions><gpxtpx:TrackPointExtension><gpxtpx:hr>67</gpxtpx:hr></gpxtpx:TrackPointExtension></extensions></trkpt><trkpt lat="0.0" lon="0.0"><time>2026-08-05T15:44:05Z</time><extensions><gpxtpx:TrackPointExtension><gpxtpx:hr>69</gpxtpx:hr></gpxtpx:TrackPointExtension></extensions></trkpt><trkpt lat="0.0" lon="0.0"><time>2026-08-05T15:48:59Z</time><extensions><gpxtpx:TrackPointExtension><gpxtpx:hr>72</gpxtpx:hr></gpxtpx:TrackPointExtension></extensions></trkpt><trkpt lat="0.0" lon="0.0"><time>2026-08-05T15:55:11Z</time><extensions><gpxtpx:TrackPointExtension><gpxtpx:hr>86</gpxtpx:hr></gpxtpx:TrackPointExtension></extensions></trkpt><trkpt lat="0.0" lon="0.0"><time>2026-08-05T16:03:22Z</time><extensions><gpxtpx:TrackPointExtension><gpxtpx:hr>83</gpxtpx:hr></gpxtpx:TrackPointExtension></extensions></trkpt><trkpt lat="0.0" lon="0.0"><time>2026-08-05T16:04:56Z</time><extensions><gpxtpx:TrackPointExtension><gpxtpx:hr>74</gpxtpx:hr></gpxtpx:TrackPointExtension></extensions></trkpt><trkpt lat="0.0" lon="0.0"><time>2026-08-05T16:10:47Z</time><extensions><gpxtpx:TrackPointExtension><gpxtpx:hr>71</gpxtpx:hr></gpxtpx:TrackPointExtension></extensions></trkpt><trkpt lat="0.0" lon="0.0"><time>2026-08-05T16:18:51Z</time><extensions><gpxtpx:TrackPointExtension><gpxtpx:hr>71</gpxtpx:hr></gpxtpx:TrackPointExtension></extensions></trkpt><trkpt lat="0.0" lon="0.0"><time>2026-08-05T16:20:00Z</time><extensions><gpxtpx:TrackPointExtension><gpxtpx:hr>73</gpxtpx:hr></gpxtpx:TrackPointExtension></extensions></trkpt><trkpt lat="0.0" lon="0.0"><time>2026-08-05T16:23:17Z</time><extensions><gpxtpx:TrackPointExtension><gpxtpx:hr>75</gpxtpx:hr></gpxtpx:TrackPointExtension></extensions></trkpt><trkpt lat="0.0" lon="0.0"><time>2026-08-05T16:25:13Z</time><extensions><gpxtpx:TrackPointExtension><gpxtpx:hr>72</gpxtpx:hr></gpxtpx:TrackPointExtension></extensions></trkpt><trkpt lat="0.0" lon="0.0"><time>2026-08-05T16:34:14Z</time><extensions><gpxtpx:TrackPointExtension><gpxtpx:hr>84</gpxtpx:hr></gpxtpx:TrackPointExtension></extensions></trkpt></trkseg></trk></gpx>