<?xml version="1.0" encoding="UTF-8" standalone="no"?><gpx xmlns="http://www.topografix.com/GPX/1/1" xmlns:gpxtpx="http://www.garmin.com/xmlschemas/TrackPointExtension/v1" xmlns:xsi="http://www.w3.org/2001/XMLSchema-instance" creator="Sports Tracker" version="1.1" xsi:schemaLocation="http://www.topografix.com/GPX/1/1 http://www.topografix.com/GPX/1/1/gpx.xsd http://www.garmin.com/xmlschemas/TrackPointExtension/v1 http://www.garmin.com/xmlschemas/TrackPointExtensionv1.xsd"><metadata><name/><desc/><author><name>anttipehkonen240</name></author></metadata><trk><name/><trkseg><trkpt lat="60.235285" lon="24.959777"><ele>32.7</ele><time>2026-09-30T15:09:06Z</time><extensions><gpxtpx:TrackPointExtension><gpxtpx:hr>98</gpxtpx:hr></gpxtpx:TrackPointExtension></extensions></trkpt><trkpt lat="60.235285" lon="24.959777"><ele>32.7</ele><time>2026-09-30T15:09:07Z</time></trkpt><trkpt lat="60.235298" lon="24.959803"><ele>33.5</ele><time>2026-09-30T15:09:08Z</time></trkpt><trkpt lat="60.23531" lon="24.959853"><ele>32.9</ele><time>2026-09-30T15:09:09Z</time></trkpt><trkpt lat="60.23532" lon="24.959897"><ele>33.0</ele><time>2026-09-30T15:09:10Z</time></trkpt><trkpt lat="60.235327" lon="24.959945"><ele>32.6</ele><time>2026-09-30T15:09:11Z</time></trkpt><trkpt lat="60.235342" lon="24.95998"><ele>32.3</ele><time>2026-09-30T15:09:12Z</time></trkpt><trkpt lat="60.23535" lon="24.960025"><ele>32.3</ele><time>2026-09-30T15:09:13Z</time></trkpt><trkpt lat="60.235362" lon="24.960083"><ele>31.6</ele><time>2026-09-30T15:09:14Z</time><extensions><gpxtpx:TrackPointExtension><gpxtpx:hr>104</gpxtpx:hr></gpxtpx:TrackPointExtension></extensions></trkpt><trkpt lat="60.235368" lon="24.960127"><ele>31.6</ele><time>2026-09-30T15:09:14Z</time></trkpt><trkpt lat="60.235377" lon="24.960182"><ele>31.6</ele><time>2026-09-30T15:09:15Z</time></trkpt><trkpt lat="60.235385" lon="24.96024"><ele>31.8</ele><time>2026-09-30T15:09:16Z</time></trkpt><trkpt lat="60.235393" lon="24.960282"><ele>31.6</ele><time>2026-09-30T15:09:17Z</time></trkpt><trkpt lat="60.235402" lon="24.960332"><ele>31.5</ele><time>2026-09-30T15:09:18Z</time><extensions><gpxtpx:TrackPointExtension><gpxtpx:hr>110</gpxtpx:hr></gpxtpx:TrackPointExtension></extensions></trkpt><trkpt lat="60.235407" lon="24.960383"><ele>31.5</ele><time>2026-09-30T15:09:19Z</time></trkpt><trkpt lat="60.235413" lon="24.960428"><ele>31.1</ele><time>2026-09-30T15:09:20Z</time></trkpt><trkpt lat="60.235417" lon="24.960482"><ele>30.9</ele><time>2026-09-30T15:09:21Z</time></trkpt><trkpt lat="60.235425" lon="24.960528"><ele>30.9</ele><time>2026-09-30T15:09:22Z</time></trkpt><trkpt lat="60.235443" lon="24.960608"><ele>31.4</ele><time>2026-09-30T15:09:24Z</time></trkpt><trkpt lat="60.23545" lon="24.96065"><ele>31.4</ele><time>2026-09-30T15:09:25Z</time><extensions><gpxtpx:TrackPointExtension><gpxtpx:hr>111</gpxtpx:hr></gpxtpx:TrackPointExtension></extensions></trkpt><trkpt lat="60.235457" lon="24.960688"><ele>31.9</ele><time>2026-09-30T15:09:26Z</time></trkpt><trkpt lat="60.235462" lon="24.960732"><ele>31.9</ele><time>2026-09-30T15:09:27Z</time></trkpt><trkpt lat="60.235473" lon="24.960797"><ele>31.7</ele><time>2026-09-30T15:09:29Z</time></trkpt><trkpt lat="60.235478" lon="24.960837"><ele>31.9</ele><time>2026-09-30T15:09:30Z</time><extensions><gpxtpx:TrackPointExtension><gpxtpx:hr>117</gpxtpx:hr></gpxtpx:TrackPointExtension></extensions></trkpt><trkpt lat="60.235487" lon="24.96088"><ele>32.1</ele><time>2026-09-30T15:09:31Z</time><extensions><gpxtpx:TrackPointExtension><gpxtpx:hr>117</gpxtpx:hr></gpxtpx:TrackPointExtension></extensions></trkpt><trkpt lat="60.2355" lon="24.960928"><ele>32.1</ele><time>2026-09-30T15:09:32Z</time></trkpt><trkpt lat="60.235508" lon="24.960973"><ele>32.4</ele><time>2026-09-30T15:09:33Z</time></trkpt><trkpt lat="60.235515" lon="24.961007"><ele>32.5</ele><time>2026-09-30T15:09:34Z</time></trkpt><trkpt lat="60.235522" lon="24.961045"><ele>32.6</ele><time>2026-09-30T15:09:35Z</time></trkpt><trkpt lat="60.235527" lon="24.961088"><ele>32.8</ele><time>2026-09-30T15:09:36Z</time></trkpt><trkpt lat="60.235532" lon="24.961143"><ele>33.5</ele><time>2026-09-30T15:09:37Z</time><extensions><gpxtpx:TrackPointExtension><gpxtpx:hr>121</gpxtpx:hr></gpxtpx:TrackPointExtension></extensions></trkpt><trkpt lat="60.235542" lon="24.961197"><ele>34.0</ele><time>2026-09-30T15:09:38Z</time></trkpt><trkpt lat="60.23556" lon="24.961265"><ele>36.9</ele><time>2026-09-30T15:09:39Z</time></trkpt><trkpt lat="60.235578" lon="24.96131"><ele>36.1</ele><time>2026-09-30T15:09:40Z</time></trkpt><trkpt lat="60.235605" lon="24.96137"><ele>35.9</ele><time>2026-09-30T15:09:42Z</time></trkpt><trkpt lat="60.235613" lon="24.961432"><ele>37.0</ele><time>2026-09-30T15:09:43Z</time></trkpt><trkpt lat="60.235622" lon="24.96147"><ele>37.3</ele><time>2026-09-30T15:09:44Z</time><extensions><gpxtpx:TrackPointExtension><gpxtpx:hr>125</gpxtpx:hr></gpxtpx:TrackPointExtension></extensions></trkpt><trkpt lat="60.235643" lon="24.961512"><ele>36.6</ele><time>2026-09-30T15:09:45Z</time></trkpt><trkpt lat="60.235662" lon="24.961543"><ele>36.8</ele><time>2026-09-30T15:09:46Z</time></trkpt><trkpt lat="60.235673" lon="24.961577"><ele>36.3</ele><time>2026-09-30T15:09:47Z</time><extensions><gpxtpx:TrackPointExtension><gpxtpx:hr>127</gpxtpx:hr></gpxtpx:TrackPointExtension></extensions></trkpt><trkpt lat="60.2357" lon="24.961607"><ele>35.2</ele><time>2026-09-30T15:09:48Z</time></trkpt><trkpt lat="60.235728" lon="24.961618"><ele>35.1</ele><time>2026-09-30T15:09:49Z</time></trkpt><trkpt lat="60.235757" lon="24.9616"><ele>34.8</ele><time>2026-09-30T15:09:50Z</time></trkpt><trkpt lat="60.23578" lon="24.961583"><ele>35.4</ele><time>2026-09-30T15:09:51Z</time></trkpt><trkpt lat="60.235815" lon="24.961567"><ele>36.7</ele><time>2026-09-30T15:09:53Z</time><extensions><gpxtpx:TrackPointExtension><gpxtpx:hr>131</gpxtpx:hr></gpxtpx:TrackPointExtension></extensions></trkpt><trkpt lat="60.235838" lon="24.961557"><ele>36.7</ele><time>2026-09-30T15:09:54Z</time></trkpt><trkpt lat="60.235858" lon="24.961545"><ele>36.5</ele><time>2026-09-30T15:09:55Z</time></trkpt><trkpt lat="60.235883" lon="24.961527"><ele>36.3</ele><time>2026-09-30T15:09:56Z</time></trkpt><trkpt lat="60.235903" lon="24.961503"><ele>36.0</ele><time>2026-09-30T15:09:57Z</time></trkpt><trkpt lat="60.235927" lon="24.961495"><ele>36.3</ele><time>2026-09-30T15:09:58Z</time></trkpt><trkpt lat="60.235955" lon="24.96147"><ele>35.8</ele><time>2026-09-30T15:09:59Z</time></trkpt><trkpt lat="60.235973" lon="24.961457"><ele>36.1</ele><time>2026-09-30T15:10:00Z</time><extensions><gpxtpx:TrackPointExtension><gpxtpx:hr>130</gpxtpx:hr></gpxtpx:TrackPointExtension></extensions></trkpt><trkpt lat="60.235998" lon="24.961443"><ele>36.5</ele><time>2026-09-30T15:10:01Z</time></trkpt><trkpt lat="60.236022" lon="24.961445"><ele>37.3</ele><time>2026-09-30T15:10:02Z</time></trkpt><trkpt lat="60.23606" lon="24.961413"><ele>38.5</ele><time>2026-09-30T15:10:04Z</time><extensions><gpxtpx:TrackPointExtension><gpxtpx:hr>125</gpxtpx:hr></gpxtpx:TrackPointExtension></extensions></trkpt><trkpt lat="60.236088" lon="24.961395"><ele>39.3</ele><time>2026-09-30T15:10:06Z</time><extensions><gpxtpx:TrackPointExtension><gpxtpx:hr>127</gpxtpx:hr></gpxtpx:TrackPointExtension></extensions></trkpt><trkpt lat="60.23611" lon="24.96139"><ele>38.9</ele><time>2026-09-30T15:10:07Z</time></trkpt><trkpt lat="60.236138" lon="24.961358"><ele>40.1</ele><time>2026-09-30T15:10:09Z</time></trkpt><trkpt lat="60.236155" lon="24.961317"><ele>40.9</ele><time>2026-09-30T15:10:10Z</time></trkpt><trkpt lat="60.236172" lon="24.961287"><ele>40.6</ele><time>2026-09-30T15:10:11Z</time></trkpt><trkpt lat="60.236197" lon="24.961242"><ele>40.4</ele><time>2026-09-30T15:10:12Z</time></trkpt><trkpt lat="60.236217" lon="24.961215"><ele>42.0</ele><time>2026-09-30T15:10:13Z</time><extensions><gpxtpx:TrackPointExtension><gpxtpx:hr>126</gpxtpx:hr></gpxtpx:TrackPointExtension></extensions></trkpt><trkpt lat="60.236253" lon="24.961157"><ele>42.4</ele><time>2026-09-30T15:10:15Z</time></trkpt><trkpt lat="60.236287" lon="24.961112"><ele>43.8</ele><time>2026-09-30T15:10:17Z</time></trkpt><trkpt lat="60.236303" lon="24.961083"><ele>43.6</ele><time>2026-09-30T15:10:18Z</time></trkpt><trkpt lat="60.236333" lon="24.961062"><ele>43.4</ele><time>2026-09-30T15:10:20Z</time><extensions><gpxtpx:TrackPointExtension><gpxtpx:hr>129</gpxtpx:hr></gpxtpx:TrackPointExtension></extensions></trkpt><trkpt lat="60.236352" lon="24.961048"><ele>43.2</ele><time>2026-09-30T15:10:21Z</time><extensions><gpxtpx:TrackPointExtension><gpxtpx:hr>129</gpxtpx:hr></gpxtpx:TrackPointExtension></extensions></trkpt><trkpt lat="60.236378" lon="24.961055"><ele>46.0</ele><time>2026-09-30T15:10:24Z</time></trkpt><trkpt lat="60.236413" lon="24.961078"><ele>46.7</ele><time>2026-09-30T15:10:26Z</time><extensions><gpxtpx:TrackPointExtension><gpxtpx:hr>129</gpxtpx:hr></gpxtpx:TrackPointExtension></extensions></trkpt><trkpt lat="60.236443" lon="24.961077"><ele>46.2</ele><time>2026-09-30T15:10:28Z</time></trkpt><trkpt lat="60.236467" lon="24.961115"><ele>47.1</ele><time>2026-09-30T15:10:30Z</time></trkpt><trkpt lat="60.236488" lon="24.961125"><ele>46.0</ele><time>2026-09-30T15:10:31Z</time></trkpt><trkpt lat="60.236507" lon="24.961152"><ele>45.5</ele><time>2026-09-30T15:10:32Z</time></trkpt><trkpt lat="60.236537" lon="24.961193"><ele>45.5</ele><time>2026-09-30T15:10:34Z</time></trkpt><trkpt lat="60.236552" lon="24.96123"><ele>44.8</ele><time>2026-09-30T15:10:35Z</time><extensions><gpxtpx:TrackPointExtension><gpxtpx:hr>130</gpxtpx:hr></gpxtpx:TrackPointExtension></extensions></trkpt><trkpt lat="60.236558" lon="24.961268"><ele>44.2</ele><time>2026-09-30T15:10:36Z</time></trkpt><trkpt lat="60.236562" lon="24.961318"><ele>44.5</ele><time>2026-09-30T15:10:37Z</time></trkpt><trkpt lat="60.236568" lon="24.961362"><ele>44.0</ele><time>2026-09-30T15:10:38Z</time><extensions><gpxtpx:TrackPointExtension><gpxtpx:hr>130</gpxtpx:hr></gpxtpx:TrackPointExtension></extensions></trkpt><trkpt lat="60.23658" lon="24.961437"><ele>43.7</ele><time>2026-09-30T15:10:40Z</time></trkpt><trkpt lat="60.236572" lon="24.9615"><ele>42.3</ele><time>2026-09-30T15:10:42Z</time><extensions><gpxtpx:TrackPointExtension><gpxtpx:hr>130</gpxtpx:hr></gpxtpx:TrackPointExtension></extensions></trkpt><trkpt lat="60.23657" lon="24.96155"><ele>42.0</ele><time>2026-09-30T15:10:43Z</time></trkpt><trkpt lat="60.236567" lon="24.961615"><ele>40.9</ele><time>2026-09-30T15:10:45Z</time></trkpt><trkpt lat="60.236567" lon="24.961657"><ele>40.7</ele><time>2026-09-30T15:10:46Z</time></trkpt><trkpt lat="60.23657" lon="24.961707"><ele>42.5</ele><time>2026-09-30T15:10:47Z</time></trkpt><trkpt lat="60.23658" lon="24.961753"><ele>42.8</ele><time>2026-09-30T15:10:48Z</time></trkpt><trkpt lat="60.236595" lon="24.961783"><ele>43.5</ele><time>2026-09-30T15:10:49Z</time></trkpt><trkpt lat="60.236607" lon="24.96183"><ele>43.5</ele><time>2026-09-30T15:10:50Z</time><extensions><gpxtpx:TrackPointExtension><gpxtpx:hr>129</gpxtpx:hr></gpxtpx:TrackPointExtension></extensions></trkpt><trkpt lat="60.236635" lon="24.961853"><ele>43.6</ele><time>2026-09-30T15:10:51Z</time></trkpt><trkpt lat="60.236655" lon="24.961883"><ele>43.0</ele><time>2026-09-30T15:10:52Z</time><extensions><gpxtpx:TrackPointExtension><gpxtpx:hr>129</gpxtpx:hr></gpxtpx:TrackPointExtension></extensions></trkpt><trkpt lat="60.236675" lon="24.96193"><ele>42.6</ele><time>2026-09-30T15:10:53Z</time></trkpt><trkpt lat="60.2367" lon="24.961953"><ele>42.7</ele><time>2026-09-30T15:10:54Z</time></trkpt><trkpt lat="60.236722" lon="24.96199"><ele>43.0</ele><time>2026-09-30T15:10:55Z</time></trkpt><trkpt lat="60.236745" lon="24.96202"><ele>42.9</ele><time>2026-09-30T15:10:56Z</time><extensions><gpxtpx:TrackPointExtension><gpxtpx:hr>129</gpxtpx:hr></gpxtpx:TrackPointExtension></extensions></trkpt><trkpt lat="60.236765" lon="24.96204"><ele>42.7</ele><time>2026-09-30T15:10:57Z</time></trkpt><trkpt lat="60.236787" lon="24.962068"><ele>41.2</ele><time>2026-09-30T15:10:58Z</time></trkpt><trkpt lat="60.23681" lon="24.962082"><ele>40.6</ele><time>2026-09-30T15:10:59Z</time></trkpt><trkpt lat="60.236832" lon="24.962093"><ele>41.1</ele><time>2026-09-30T15:11:00Z</time></trkpt><trkpt lat="60.236853" lon="24.962108"><ele>41.4</ele><time>2026-09-30T15:11:01Z</time></trkpt><trkpt lat="60.236873" lon="24.962112"><ele>41.0</ele><time>2026-09-30T15:11:02Z</time></trkpt><trkpt lat="60.236903" lon="24.962108"><ele>40.3</ele><time>2026-09-30T15:11:03Z</time></trkpt><trkpt lat="60.23693" lon="24.96208"><ele>40.6</ele><time>2026-09-30T15:11:04Z</time></trkpt><trkpt lat="60.236948" lon="24.962063"><ele>41.4</ele><time>2026-09-30T15:11:05Z</time><extensions><gpxtpx:TrackPointExtension><gpxtpx:hr>130</gpxtpx:hr></gpxtpx:TrackPointExtension></extensions></trkpt><trkpt lat="60.236962" lon="24.962032"><ele>41.4</ele><time>2026-09-30T15:11:06Z</time><extensions><gpxtpx:TrackPointExtension><gpxtpx:hr>130</gpxtpx:hr></gpxtpx:TrackPointExtension></extensions></trkpt><trkpt lat="60.23698" lon="24.961995"><ele>41.0</ele><time>2026-09-30T15:11:07Z</time></trkpt><trkpt lat="60.236998" lon="24.961957"><ele>41.2</ele><time>2026-09-30T15:11:08Z</time></trkpt><trkpt lat="60.237015" lon="24.961917"><ele>40.7</ele><time>2026-09-30T15:11:09Z</time></trkpt><trkpt lat="60.237027" lon="24.961885"><ele>40.6</ele><time>2026-09-30T15:11:10Z</time></trkpt><trkpt lat="60.237047" lon="24.961845"><ele>41.5</ele><time>2026-09-30T15:11:11Z</time></trkpt><trkpt lat="60.237065" lon="24.9618"><ele>41.8</ele><time>2026-09-30T15:11:12Z</time></trkpt><trkpt lat="60.23707" lon="24.96176"><ele>41.4</ele><time>2026-09-30T15:11:13Z</time></trkpt><trkpt lat="60.237087" lon="24.961717"><ele>41.1</ele><time>2026-09-30T15:11:14Z</time></trkpt><trkpt lat="60.237102" lon="24.961673"><ele>41.6</ele><time>2026-09-30T15:11:15Z</time><extensions><gpxtpx:TrackPointExtension><gpxtpx:hr>130</gpxtpx:hr></gpxtpx:TrackPointExtension></extensions></trkpt><trkpt lat="60.237113" lon="24.961635"><ele>41.7</ele><time>2026-09-30T15:11:16Z</time></trkpt><trkpt lat="60.237138" lon="24.961608"><ele>41.5</ele><time>2026-09-30T15:11:17Z</time></trkpt><trkpt lat="60.237153" lon="24.961577"><ele>42.2</ele><time>2026-09-30T15:11:18Z</time></trkpt><trkpt lat="60.237167" lon="24.961537"><ele>42.0</ele><time>2026-09-30T15:11:19Z</time></trkpt><trkpt lat="60.237192" lon="24.961523"><ele>41.3</ele><time>2026-09-30T15:11:20Z</time><extensions><gpxtpx:TrackPointExtension><gpxtpx:hr>131</gpxtpx:hr></gpxtpx:TrackPointExtension></extensions></trkpt><trkpt lat="60.237203" lon="24.961492"><ele>41.8</ele><time>2026-09-30T15:11:21Z</time></trkpt><trkpt lat="60.237223" lon="24.961462"><ele>42.7</ele><time>2026-09-30T15:11:22Z</time></trkpt><trkpt lat="60.237242" lon="24.96146"><ele>43.3</ele><time>2026-09-30T15:11:23Z</time></trkpt><trkpt lat="60.237263" lon="24.961455"><ele>42.8</ele><time>2026-09-30T15:11:24Z</time><extensions><gpxtpx:TrackPointExtension><gpxtpx:hr>131</gpxtpx:hr></gpxtpx:TrackPointExtension></extensions></trkpt><trkpt lat="60.23729" lon="24.961448"><ele>42.2</ele><time>2026-09-30T15:11:25Z</time></trkpt><trkpt lat="60.237328" lon="24.961437"><ele>40.8</ele><time>2026-09-30T15:11:27Z</time></trkpt><trkpt lat="60.237353" lon="24.961437"><ele>40.4</ele><time>2026-09-30T15:11:28Z</time></trkpt><trkpt lat="60.237387" lon="24.961472"><ele>42.8</ele><time>2026-09-30T15:11:30Z</time><extensions><gpxtpx:TrackPointExtension><gpxtpx:hr>131</gpxtpx:hr></gpxtpx:TrackPointExtension></extensions></trkpt><trkpt lat="60.237407" lon="24.961477"><ele>43.3</ele><time>2026-09-30T15:11:31Z</time><extensions><gpxtpx:TrackPointExtension><gpxtpx:hr>131</gpxtpx:hr></gpxtpx:TrackPointExtension></extensions></trkpt><trkpt lat="60.237417" lon="24.961508"><ele>44.0</ele><time>2026-09-30T15:11:32Z</time></trkpt><trkpt lat="60.237433" lon="24.96153"><ele>43.9</ele><time>2026-09-30T15:11:33Z</time></trkpt><trkpt lat="60.237467" lon="24.96154"><ele>44.6</ele><time>2026-09-30T15:11:35Z</time></trkpt><trkpt lat="60.237487" lon="24.961573"><ele>43.9</ele><time>2026-09-30T15:11:36Z</time><extensions><gpxtpx:TrackPointExtension><gpxtpx:hr>130</gpxtpx:hr></gpxtpx:TrackPointExtension></extensions></trkpt><trkpt lat="60.237528" lon="24.96161"><ele>43.3</ele><time>2026-09-30T15:11:38Z</time></trkpt><trkpt lat="60.237557" lon="24.96162"><ele>42.0</ele><time>2026-09-30T15:11:39Z</time></trkpt><trkpt lat="60.237578" lon="24.961642"><ele>41.3</ele><time>2026-09-30T15:11:40Z</time></trkpt><trkpt lat="60.237597" lon="24.961667"><ele>41.5</ele><time>2026-09-30T15:11:41Z</time></trkpt><trkpt lat="60.237613" lon="24.961687"><ele>41.6</ele><time>2026-09-30T15:11:42Z</time></trkpt><trkpt lat="60.237635" lon="24.96171"><ele>41.5</ele><time>2026-09-30T15:11:43Z</time></trkpt><trkpt lat="60.23766" lon="24.961733"><ele>40.8</ele><time>2026-09-30T15:11:44Z</time></trkpt><trkpt lat="60.237695" lon="24.96176"><ele>40.0</ele><time>2026-09-30T15:11:46Z</time><extensions><gpxtpx:TrackPointExtension><gpxtpx:hr>130</gpxtpx:hr></gpxtpx:TrackPointExtension></extensions></trkpt><trkpt lat="60.237695" lon="24.96176"><ele>40.0</ele><time>2026-09-30T15:11:46Z</time><extensions><gpxtpx:TrackPointExtension><gpxtpx:hr>129</gpxtpx:hr></gpxtpx:TrackPointExtension></extensions></trkpt><trkpt lat="60.23771" lon="24.961782"><ele>39.9</ele><time>2026-09-30T15:11:47Z</time></trkpt><trkpt lat="60.23773" lon="24.961797"><ele>39.6</ele><time>2026-09-30T15:11:48Z</time></trkpt><trkpt lat="60.237758" lon="24.961825"><ele>40.0</ele><time>2026-09-30T15:11:49Z</time></trkpt><trkpt lat="60.237775" lon="24.961842"><ele>40.5</ele><time>2026-09-30T15:11:50Z</time></trkpt><trkpt lat="60.237793" lon="24.961848"><ele>40.3</ele><time>2026-09-30T15:11:51Z</time></trkpt><trkpt lat="60.237812" lon="24.961875"><ele>39.6</ele><time>2026-09-30T15:11:52Z</time></trkpt><trkpt lat="60.237832" lon="24.961877"><ele>39.5</ele><time>2026-09-30T15:11:53Z</time></trkpt><trkpt lat="60.237857" lon="24.961883"><ele>39.7</ele><time>2026-09-30T15:11:54Z</time></trkpt><trkpt lat="60.237873" lon="24.961927"><ele>39.5</ele><time>2026-09-30T15:11:55Z</time><extensions><gpxtpx:TrackPointExtension><gpxtpx:hr>130</gpxtpx:hr></gpxtpx:TrackPointExtension></extensions></trkpt><trkpt lat="60.23789" lon="24.961958"><ele>39.7</ele><time>2026-09-30T15:11:56Z</time><extensions><gpxtpx:TrackPointExtension><gpxtpx:hr>129</gpxtpx:hr></gpxtpx:TrackPointExtension></extensions></trkpt><trkpt lat="60.237918" lon="24.96197"><ele>40.6</ele><time>2026-09-30T15:11:57Z</time></trkpt><trkpt lat="60.237937" lon="24.961965"><ele>40.2</ele><time>2026-09-30T15:11:58Z</time></trkpt><trkpt lat="60.237958" lon="24.961965"><ele>39.8</ele><time>2026-09-30T15:11:59Z</time></trkpt><trkpt lat="60.23798" lon="24.962008"><ele>39.5</ele><time>2026-09-30T15:12:00Z</time></trkpt><trkpt lat="60.238005" lon="24.962022"><ele>40.1</ele><time>2026-09-30T15:12:01Z</time><extensions><gpxtpx:TrackPointExtension><gpxtpx:hr>128</gpxtpx:hr></gpxtpx:TrackPointExtension></extensions></trkpt><trkpt lat="60.238033" lon="24.962018"><ele>40.0</ele><time>2026-09-30T15:12:02Z</time></trkpt><trkpt lat="60.238053" lon="24.962048"><ele>39.8</ele><time>2026-09-30T15:12:03Z</time></trkpt><trkpt lat="60.238078" lon="24.962062"><ele>40.1</ele><time>2026-09-30T15:12:04Z</time></trkpt><trkpt lat="60.238113" lon="24.962037"><ele>40.3</ele><time>2026-09-30T15:12:05Z</time></trkpt><trkpt lat="60.238135" lon="24.962015"><ele>41.4</ele><time>2026-09-30T15:12:06Z</time></trkpt><trkpt lat="60.238147" lon="24.961975"><ele>41.4</ele><time>2026-09-30T15:12:07Z</time></trkpt><trkpt lat="60.23817" lon="24.96192"><ele>41.4</ele><time>2026-09-30T15:12:08Z</time></trkpt><trkpt lat="60.238195" lon="24.961888"><ele>41.8</ele><time>2026-09-30T15:12:09Z</time><extensions><gpxtpx:TrackPointExtension><gpxtpx:hr>128</gpxtpx:hr></gpxtpx:TrackPointExtension></extensions></trkpt><trkpt lat="60.238217" lon="24.961842"><ele>40.8</ele><time>2026-09-30T15:12:10Z</time></trkpt><trkpt lat="60.238232" lon="24.96179"><ele>41.0</ele><time>2026-09-30T15:12:11Z</time></trkpt><trkpt lat="60.238253" lon="24.961747"><ele>41.8</ele><time>2026-09-30T15:12:12Z</time><extensions><gpxtpx:TrackPointExtension><gpxtpx:hr>128</gpxtpx:hr></gpxtpx:TrackPointExtension></extensions></trkpt><trkpt lat="60.238273" lon="24.961708"><ele>42.4</ele><time>2026-09-30T15:12:13Z</time></trkpt><trkpt lat="60.238283" lon="24.96165"><ele>41.3</ele><time>2026-09-30T15:12:14Z</time></trkpt><trkpt lat="60.238295" lon="24.961602"><ele>41.5</ele><time>2026-09-30T15:12:15Z</time></trkpt><trkpt lat="60.23831" lon="24.96155"><ele>42.2</ele><time>2026-09-30T15:12:16Z</time></trkpt><trkpt lat="60.238323" lon="24.96152"><ele>43.2</ele><time>2026-09-30T15:12:17Z</time></trkpt><trkpt lat="60.238337" lon="24.961475"><ele>42.7</ele><time>2026-09-30T15:12:18Z</time></trkpt><trkpt lat="60.23836" lon="24.961442"><ele>43.1</ele><time>2026-09-30T15:12:19Z</time><extensions><gpxtpx:TrackPointExtension><gpxtpx:hr>127</gpxtpx:hr></gpxtpx:TrackPointExtension></extensions></trkpt><trkpt lat="60.238373" lon="24.961407"><ele>42.6</ele><time>2026-09-30T15:12:20Z</time></trkpt><trkpt lat="60.238395" lon="24.961373"><ele>43.0</ele><time>2026-09-30T15:12:21Z</time><extensions><gpxtpx:TrackPointExtension><gpxtpx:hr>128</gpxtpx:hr></gpxtpx:TrackPointExtension></extensions></trkpt><trkpt lat="60.238402" lon="24.961327"><ele>42.1</ele><time>2026-09-30T15:12:22Z</time></trkpt><trkpt lat="60.238417" lon="24.961282"><ele>42.6</ele><time>2026-09-30T15:12:23Z</time></trkpt><trkpt lat="60.23844" lon="24.96126"><ele>42.2</ele><time>2026-09-30T15:12:24Z</time></trkpt><trkpt lat="60.238445" lon="24.961213"><ele>41.2</ele><time>2026-09-30T15:12:25Z</time></trkpt><trkpt lat="60.238462" lon="24.961172"><ele>41.6</ele><time>2026-09-30T15:12:26Z</time><extensions><gpxtpx:TrackPointExtension><gpxtpx:hr>129</gpxtpx:hr></gpxtpx:TrackPointExtension></extensions></trkpt><trkpt lat="60.238478" lon="24.961142"><ele>42.3</ele><time>2026-09-30T15:12:27Z</time></trkpt><trkpt lat="60.238495" lon="24.961115"><ele>42.3</ele><time>2026-09-30T15:12:28Z</time></trkpt><trkpt lat="60.238517" lon="24.961067"><ele>40.8</ele><time>2026-09-30T15:12:30Z</time></trkpt><trkpt lat="60.238533" lon="24.961028"><ele>40.3</ele><time>2026-09-30T15:12:31Z</time><extensions><gpxtpx:TrackPointExtension><gpxtpx:hr>131</gpxtpx:hr></gpxtpx:TrackPointExtension></extensions></trkpt><trkpt lat="60.23855" lon="24.960985"><ele>41.3</ele><time>2026-09-30T15:12:32Z</time></trkpt><trkpt lat="60.238563" lon="24.960942"><ele>42.0</ele><time>2026-09-30T15:12:33Z</time></trkpt><trkpt lat="60.238578" lon="24.9609"><ele>41.8</ele><time>2026-09-30T15:12:34Z</time></trkpt><trkpt lat="60.238582" lon="24.96086"><ele>41.3</ele><time>2026-09-30T15:12:35Z</time></trkpt><trkpt lat="60.23859" lon="24.96081"><ele>42.1</ele><time>2026-09-30T15:12:36Z</time></trkpt><trkpt lat="60.238603" lon="24.960775"><ele>42.1</ele><time>2026-09-30T15:12:37Z</time></trkpt><trkpt lat="60.23861" lon="24.960723"><ele>41.8</ele><time>2026-09-30T15:12:38Z</time></trkpt><trkpt lat="60.238618" lon="24.960675"><ele>42.1</ele><time>2026-09-30T15:12:39Z</time></trkpt><trkpt lat="60.238617" lon="24.960637"><ele>42.2</ele><time>2026-09-30T15:12:40Z</time><extensions><gpxtpx:TrackPointExtension><gpxtpx:hr>130</gpxtpx:hr></gpxtpx:TrackPointExtension></extensions></trkpt><trkpt lat="60.238622" lon="24.960588"><ele>42.4</ele><time>2026-09-30T15:12:41Z</time></trkpt><trkpt lat="60.238632" lon="24.960547"><ele>42.4</ele><time>2026-09-30T15:12:42Z</time></trkpt><trkpt lat="60.23863" lon="24.96051"><ele>43.5</ele><time>2026-09-30T15:12:43Z</time></trkpt><trkpt lat="60.238637" lon="24.960472"><ele>44.1</ele><time>2026-09-30T15:12:44Z</time><extensions><gpxtpx:TrackPointExtension><gpxtpx:hr>132</gpxtpx:hr></gpxtpx:TrackPointExtension></extensions></trkpt><trkpt lat="60.23864" lon="24.960433"><ele>44.5</ele><time>2026-09-30T15:12:45Z</time></trkpt><trkpt lat="60.238648" lon="24.960397"><ele>44.6</ele><time>2026-09-30T15:12:46Z</time></trkpt><trkpt lat="60.238655" lon="24.960355"><ele>44.9</ele><time>2026-09-30T15:12:47Z</time></trkpt><trkpt lat="60.238663" lon="24.96032"><ele>45.7</ele><time>2026-09-30T15:12:48Z</time></trkpt><trkpt lat="60.23866" lon="24.960275"><ele>44.5</ele><time>2026-09-30T15:12:49Z</time></trkpt><trkpt lat="60.238662" lon="24.96022"><ele>43.6</ele><time>2026-09-30T15:12:50Z</time><extensions><gpxtpx:TrackPointExtension><gpxtpx:hr>132</gpxtpx:hr></gpxtpx:TrackPointExtension></extensions></trkpt><trkpt lat="60.238672" lon="24.960148"><ele>44.0</ele><time>2026-09-30T15:12:52Z</time></trkpt><trkpt lat="60.238677" lon="24.960095"><ele>43.5</ele><time>2026-09-30T15:12:53Z</time><extensions><gpxtpx:TrackPointExtension><gpxtpx:hr>132</gpxtpx:hr></gpxtpx:TrackPointExtension></extensions></trkpt><trkpt lat="60.23868" lon="24.960055"><ele>43.8</ele><time>2026-09-30T15:12:54Z</time></trkpt><trkpt lat="60.238678" lon="24.96"><ele>43.1</ele><time>2026-09-30T15:12:55Z</time></trkpt><trkpt lat="60.238682" lon="24.959943"><ele>42.7</ele><time>2026-09-30T15:12:56Z</time><extensions><gpxtpx:TrackPointExtension><gpxtpx:hr>133</gpxtpx:hr></gpxtpx:TrackPointExtension></extensions></trkpt><trkpt lat="60.238687" lon="24.959907"><ele>42.7</ele><time>2026-09-30T15:12:57Z</time></trkpt><trkpt lat="60.238695" lon="24.959857"><ele>42.3</ele><time>2026-09-30T15:12:58Z</time></trkpt><trkpt lat="60.238697" lon="24.959812"><ele>42.6</ele><time>2026-09-30T15:12:59Z</time></trkpt><trkpt lat="60.238705" lon="24.959762"><ele>43.3</ele><time>2026-09-30T15:13:00Z</time></trkpt><trkpt lat="60.23871" lon="24.959717"><ele>42.5</ele><time>2026-09-30T15:13:01Z</time><extensions><gpxtpx:TrackPointExtension><gpxtpx:hr>133</gpxtpx:hr></gpxtpx:TrackPointExtension></extensions></trkpt><trkpt lat="60.23871" lon="24.959677"><ele>43.0</ele><time>2026-09-30T15:13:02Z</time></trkpt><trkpt lat="60.238715" lon="24.959625"><ele>43.6</ele><time>2026-09-30T15:13:03Z</time></trkpt><trkpt lat="60.238718" lon="24.95955"><ele>43.1</ele><time>2026-09-30T15:13:05Z</time></trkpt><trkpt lat="60.238732" lon="24.959495"><ele>43.1</ele><time>2026-09-30T15:13:06Z</time></trkpt><trkpt lat="60.238742" lon="24.959428"><ele>45.2</ele><time>2026-09-30T15:13:08Z</time><extensions><gpxtpx:TrackPointExtension><gpxtpx:hr>133</gpxtpx:hr></gpxtpx:TrackPointExtension></extensions></trkpt><trkpt lat="60.238753" lon="24.959387"><ele>45.0</ele><time>2026-09-30T15:13:09Z</time></trkpt><trkpt lat="60.238757" lon="24.959348"><ele>44.7</ele><time>2026-09-30T15:13:10Z</time></trkpt><trkpt lat="60.238767" lon="24.959312"><ele>44.8</ele><time>2026-09-30T15:13:11Z</time></trkpt><trkpt lat="60.238765" lon="24.959262"><ele>44.7</ele><time>2026-09-30T15:13:12Z</time><extensions><gpxtpx:TrackPointExtension><gpxtpx:hr>134</gpxtpx:hr></gpxtpx:TrackPointExtension></extensions></trkpt><trkpt lat="60.238768" lon="24.959218"><ele>44.3</ele><time>2026-09-30T15:13:13Z</time></trkpt><trkpt lat="60.238768" lon="24.959168"><ele>43.8</ele><time>2026-09-30T15:13:14Z</time></trkpt><trkpt lat="60.238775" lon="24.959112"><ele>44.1</ele><time>2026-09-30T15:13:16Z</time></trkpt><trkpt lat="60.238783" lon="24.95906"><ele>44.1</ele><time>2026-09-30T15:13:17Z</time></trkpt><trkpt lat="60.238783" lon="24.95901"><ele>43.1</ele><time>2026-09-30T15:13:18Z</time></trkpt><trkpt lat="60.238788" lon="24.958965"><ele>43.1</ele><time>2026-09-30T15:13:19Z</time></trkpt><trkpt lat="60.238798" lon="24.958923"><ele>42.7</ele><time>2026-09-30T15:13:20Z</time><extensions><gpxtpx:TrackPointExtension><gpxtpx:hr>133</gpxtpx:hr></gpxtpx:TrackPointExtension></extensions></trkpt><trkpt lat="60.238797" lon="24.958887"><ele>41.5</ele><time>2026-09-30T15:13:21Z</time></trkpt><trkpt lat="60.238805" lon="24.958843"><ele>41.6</ele><time>2026-09-30T15:13:22Z</time></trkpt><trkpt lat="60.238805" lon="24.95879"><ele>40.7</ele><time>2026-09-30T15:13:23Z</time></trkpt><trkpt lat="60.238805" lon="24.95874"><ele>40.5</ele><time>2026-09-30T15:13:25Z</time><extensions><gpxtpx:TrackPointExtension><gpxtpx:hr>134</gpxtpx:hr></gpxtpx:TrackPointExtension></extensions></trkpt><trkpt lat="60.23881" lon="24.958682"><ele>40.6</ele><time>2026-09-30T15:13:26Z</time></trkpt><trkpt lat="60.238818" lon="24.958643"><ele>40.0</ele><time>2026-09-30T15:13:27Z</time></trkpt><trkpt lat="60.23883" lon="24.95861"><ele>40.0</ele><time>2026-09-30T15:13:28Z</time></trkpt><trkpt lat="60.238832" lon="24.958545"><ele>39.6</ele><time>2026-09-30T15:13:29Z</time></trkpt><trkpt lat="60.238828" lon="24.958508"><ele>38.9</ele><time>2026-09-30T15:13:30Z</time></trkpt><trkpt lat="60.238832" lon="24.95846"><ele>37.8</ele><time>2026-09-30T15:13:31Z</time><extensions><gpxtpx:TrackPointExtension><gpxtpx:hr>135</gpxtpx:hr></gpxtpx:TrackPointExtension></extensions></trkpt><trkpt lat="60.23884" lon="24.95841"><ele>38.6</ele><time>2026-09-30T15:13:32Z</time><extensions><gpxtpx:TrackPointExtension><gpxtpx:hr>135</gpxtpx:hr></gpxtpx:TrackPointExtension></extensions></trkpt><trkpt lat="60.23885" lon="24.958317"><ele>38.2</ele><time>2026-09-30T15:13:34Z</time></trkpt><trkpt lat="60.238863" lon="24.958237"><ele>38.1</ele><time>2026-09-30T15:13:36Z</time></trkpt><trkpt lat="60.238863" lon="24.958185"><ele>38.5</ele><time>2026-09-30T15:13:37Z</time></trkpt><trkpt lat="60.238867" lon="24.958147"><ele>38.2</ele><time>2026-09-30T15:13:38Z</time></trkpt><trkpt lat="60.23887" lon="24.958085"><ele>38.6</ele><time>2026-09-30T15:13:39Z</time></trkpt><trkpt lat="60.238867" lon="24.958042"><ele>39.2</ele><time>2026-09-30T15:13:40Z</time></trkpt><trkpt lat="60.238865" lon="24.958"><ele>39.0</ele><time>2026-09-30T15:13:41Z</time><extensions><gpxtpx:TrackPointExtension><gpxtpx:hr>133</gpxtpx:hr></gpxtpx:TrackPointExtension></extensions></trkpt><trkpt lat="60.238865" lon="24.957955"><ele>38.2</ele><time>2026-09-30T15:13:42Z</time></trkpt><trkpt lat="60.23887" lon="24.957912"><ele>37.9</ele><time>2026-09-30T15:13:43Z</time></trkpt><trkpt lat="60.238873" lon="24.957858"><ele>38.5</ele><time>2026-09-30T15:13:43Z</time></trkpt><trkpt lat="60.238863" lon="24.957787"><ele>39.2</ele><time>2026-09-30T15:13:45Z</time><extensions><gpxtpx:TrackPointExtension><gpxtpx:hr>133</gpxtpx:hr></gpxtpx:TrackPointExtension></extensions></trkpt><trkpt lat="60.238872" lon="24.95775"><ele>39.3</ele><time>2026-09-30T15:13:46Z</time><extensions><gpxtpx:TrackPointExtension><gpxtpx:hr>133</gpxtpx:hr></gpxtpx:TrackPointExtension></extensions></trkpt><trkpt lat="60.238883" lon="24.957718"><ele>39.3</ele><time>2026-09-30T15:13:47Z</time></trkpt><trkpt lat="60.238883" lon="24.957663"><ele>40.3</ele><time>2026-09-30T15:13:48Z</time></trkpt><trkpt lat="60.238887" lon="24.957605"><ele>42.2</ele><time>2026-09-30T15:13:50Z</time></trkpt><trkpt lat="60.238888" lon="24.957553"><ele>43.0</ele><time>2026-09-30T15:13:51Z</time><extensions><gpxtpx:TrackPointExtension><gpxtpx:hr>133</gpxtpx:hr></gpxtpx:TrackPointExtension></extensions></trkpt><trkpt lat="60.238887" lon="24.957478"><ele>43.5</ele><time>2026-09-30T15:13:53Z</time></trkpt><trkpt lat="60.238892" lon="24.957433"><ele>43.7</ele><time>2026-09-30T15:13:54Z</time></trkpt><trkpt lat="60.23889" lon="24.957395"><ele>43.6</ele><time>2026-09-30T15:13:55Z</time></trkpt><trkpt lat="60.2389" lon="24.957352"><ele>44.8</ele><time>2026-09-30T15:13:56Z</time></trkpt><trkpt lat="60.238908" lon="24.957318"><ele>45.9</ele><time>2026-09-30T15:13:57Z</time><extensions><gpxtpx:TrackPointExtension><gpxtpx:hr>134</gpxtpx:hr></gpxtpx:TrackPointExtension></extensions></trkpt><trkpt lat="60.23891" lon="24.957257"><ele>46.8</ele><time>2026-09-30T15:13:59Z</time></trkpt><trkpt lat="60.238917" lon="24.957217"><ele>47.2</ele><time>2026-09-30T15:14:00Z</time></trkpt><trkpt lat="60.238922" lon="24.957133"><ele>47.6</ele><time>2026-09-30T15:14:02Z</time><extensions><gpxtpx:TrackPointExtension><gpxtpx:hr>134</gpxtpx:hr></gpxtpx:TrackPointExtension></extensions></trkpt><trkpt lat="60.23892" lon="24.957065"><ele>46.9</ele><time>2026-09-30T15:14:04Z</time></trkpt><trkpt lat="60.238922" lon="24.95702"><ele>47.7</ele><time>2026-09-30T15:14:05Z</time></trkpt><trkpt lat="60.238925" lon="24.956953"><ele>47.6</ele><time>2026-09-30T15:14:07Z</time><extensions><gpxtpx:TrackPointExtension><gpxtpx:hr>133</gpxtpx:hr></gpxtpx:TrackPointExtension></extensions></trkpt><trkpt lat="60.23893" lon="24.956913"><ele>47.5</ele><time>2026-09-30T15:14:08Z</time></trkpt><trkpt lat="60.238933" lon="24.956873"><ele>47.8</ele><time>2026-09-30T15:14:09Z</time></trkpt><trkpt lat="60.238937" lon="24.956825"><ele>47.4</ele><time>2026-09-30T15:14:10Z</time></trkpt><trkpt lat="60.23894" lon="24.956775"><ele>48.0</ele><time>2026-09-30T15:14:11Z</time><extensions><gpxtpx:TrackPointExtension><gpxtpx:hr>134</gpxtpx:hr></gpxtpx:TrackPointExtension></extensions></trkpt><trkpt lat="60.23894" lon="24.956698"><ele>47.7</ele><time>2026-09-30T15:14:13Z</time></trkpt><trkpt lat="60.238943" lon="24.95665"><ele>47.6</ele><time>2026-09-30T15:14:14Z</time></trkpt><trkpt lat="60.238947" lon="24.956578"><ele>48.8</ele><time>2026-09-30T15:14:16Z</time></trkpt><trkpt lat="60.238948" lon="24.956537"><ele>49.3</ele><time>2026-09-30T15:14:17Z</time></trkpt><trkpt lat="60.238952" lon="24.956497"><ele>50.1</ele><time>2026-09-30T15:14:18Z</time></trkpt><trkpt lat="60.238953" lon="24.956453"><ele>50.7</ele><time>2026-09-30T15:14:19Z</time></trkpt><trkpt lat="60.238958" lon="24.956388"><ele>51.3</ele><time>2026-09-30T15:14:21Z</time><extensions><gpxtpx:TrackPointExtension><gpxtpx:hr>135</gpxtpx:hr></gpxtpx:TrackPointExtension></extensions></trkpt><trkpt lat="60.238963" lon="24.95634"><ele>51.5</ele><time>2026-09-30T15:14:22Z</time></trkpt><trkpt lat="60.23897" lon="24.956263"><ele>50.8</ele><time>2026-09-30T15:14:24Z</time><extensions><gpxtpx:TrackPointExtension><gpxtpx:hr>135</gpxtpx:hr></gpxtpx:TrackPointExtension></extensions></trkpt><trkpt lat="60.238968" lon="24.956215"><ele>50.9</ele><time>2026-09-30T15:14:25Z</time></trkpt><trkpt lat="60.238962" lon="24.95618"><ele>51.0</ele><time>2026-09-30T15:14:26Z</time><extensions><gpxtpx:TrackPointExtension><gpxtpx:hr>135</gpxtpx:hr></gpxtpx:TrackPointExtension></extensions></trkpt><trkpt lat="60.238962" lon="24.956133"><ele>51.2</ele><time>2026-09-30T15:14:27Z</time></trkpt><trkpt lat="60.238962" lon="24.956087"><ele>49.9</ele><time>2026-09-30T15:14:28Z</time></trkpt><trkpt lat="60.23897" lon="24.95601"><ele>50.3</ele><time>2026-09-30T15:14:30Z</time></trkpt><trkpt lat="60.238972" lon="24.955967"><ele>50.2</ele><time>2026-09-30T15:14:31Z</time></trkpt><trkpt lat="60.23898" lon="24.955893"><ele>51.0</ele><time>2026-09-30T15:14:33Z</time></trkpt><trkpt lat="60.23898" lon="24.955855"><ele>51.0</ele><time>2026-09-30T15:14:34Z</time></trkpt><trkpt lat="60.23897" lon="24.955808"><ele>50.5</ele><time>2026-09-30T15:14:35Z</time><extensions><gpxtpx:TrackPointExtension><gpxtpx:hr>134</gpxtpx:hr></gpxtpx:TrackPointExtension></extensions></trkpt><trkpt lat="60.238977" lon="24.955768"><ele>49.6</ele><time>2026-09-30T15:14:36Z</time></trkpt><trkpt lat="60.238977" lon="24.955688"><ele>51.1</ele><time>2026-09-30T15:14:38Z</time></trkpt><trkpt lat="60.238983" lon="24.955647"><ele>51.0</ele><time>2026-09-30T15:14:39Z</time></trkpt><trkpt lat="60.238982" lon="24.95561"><ele>50.4</ele><time>2026-09-30T15:14:40Z</time><extensions><gpxtpx:TrackPointExtension><gpxtpx:hr>136</gpxtpx:hr></gpxtpx:TrackPointExtension></extensions></trkpt><trkpt lat="60.238987" lon="24.955537"><ele>50.7</ele><time>2026-09-30T15:14:42Z</time><extensions><gpxtpx:TrackPointExtension><gpxtpx:hr>137</gpxtpx:hr></gpxtpx:TrackPointExtension></extensions></trkpt><trkpt lat="60.238987" lon="24.955498"><ele>50.8</ele><time>2026-09-30T15:14:43Z</time></trkpt><trkpt lat="60.23899" lon="24.95545"><ele>50.2</ele><time>2026-09-30T15:14:44Z</time></trkpt><trkpt lat="60.238995" lon="24.955412"><ele>49.5</ele><time>2026-09-30T15:14:45Z</time></trkpt><trkpt lat="60.238992" lon="24.955375"><ele>49.6</ele><time>2026-09-30T15:14:46Z</time></trkpt><trkpt lat="60.238995" lon="24.955323"><ele>50.0</ele><time>2026-09-30T15:14:47Z</time></trkpt><trkpt lat="60.238985" lon="24.955285"><ele>50.3</ele><time>2026-09-30T15:14:48Z</time></trkpt><trkpt lat="60.238982" lon="24.955237"><ele>49.8</ele><time>2026-09-30T15:14:49Z</time></trkpt><trkpt lat="60.238983" lon="24.955187"><ele>49.1</ele><time>2026-09-30T15:14:50Z</time><extensions><gpxtpx:TrackPointExtension><gpxtpx:hr>139</gpxtpx:hr></gpxtpx:TrackPointExtension></extensions></trkpt><trkpt lat="60.238977" lon="24.955115"><ele>49.3</ele><time>2026-09-30T15:14:52Z</time></trkpt><trkpt lat="60.238967" lon="24.955063"><ele>48.6</ele><time>2026-09-30T15:14:53Z</time></trkpt><trkpt lat="60.238957" lon="24.955022"><ele>47.5</ele><time>2026-09-30T15:14:54Z</time></trkpt><trkpt lat="60.238955" lon="24.95497"><ele>47.3</ele><time>2026-09-30T15:14:55Z</time><extensions><gpxtpx:TrackPointExtension><gpxtpx:hr>141</gpxtpx:hr></gpxtpx:TrackPointExtension></extensions></trkpt><trkpt lat="60.238947" lon="24.954933"><ele>46.8</ele><time>2026-09-30T15:14:56Z</time></trkpt><trkpt lat="60.23894" lon="24.954887"><ele>46.4</ele><time>2026-09-30T15:14:57Z</time><extensions><gpxtpx:TrackPointExtension><gpxtpx:hr>141</gpxtpx:hr></gpxtpx:TrackPointExtension></extensions></trkpt><trkpt lat="60.238945" lon="24.954837"><ele>46.7</ele><time>2026-09-30T15:14:58Z</time></trkpt><trkpt lat="60.238937" lon="24.954803"><ele>46.8</ele><time>2026-09-30T15:14:59Z</time></trkpt><trkpt lat="60.238922" lon="24.954758"><ele>46.9</ele><time>2026-09-30T15:15:00Z</time></trkpt><trkpt lat="60.238917" lon="24.954723"><ele>46.7</ele><time>2026-09-30T15:15:01Z</time><extensions><gpxtpx:TrackPointExtension><gpxtpx:hr>141</gpxtpx:hr></gpxtpx:TrackPointExtension></extensions></trkpt><trkpt lat="60.238905" lon="24.954695"><ele>46.4</ele><time>2026-09-30T15:15:02Z</time></trkpt><trkpt lat="60.238888" lon="24.95465"><ele>46.8</ele><time>2026-09-30T15:15:03Z</time></trkpt><trkpt lat="60.23886" lon="24.9546"><ele>48.2</ele><time>2026-09-30T15:15:05Z</time></trkpt><trkpt lat="60.238852" lon="24.954555"><ele>47.9</ele><time>2026-09-30T15:15:06Z</time><extensions><gpxtpx:TrackPointExtension><gpxtpx:hr>141</gpxtpx:hr></gpxtpx:TrackPointExtension></extensions></trkpt><trkpt lat="60.238835" lon="24.95453"><ele>47.4</ele><time>2026-09-30T15:15:07Z</time></trkpt><trkpt lat="60.23881" lon="24.954488"><ele>48.4</ele><time>2026-09-30T15:15:08Z</time></trkpt><trkpt lat="60.238795" lon="24.954462"><ele>48.5</ele><time>2026-09-30T15:15:09Z</time></trkpt><trkpt lat="60.238778" lon="24.95443"><ele>47.2</ele><time>2026-09-30T15:15:10Z</time></trkpt><trkpt lat="60.238758" lon="24.954398"><ele>47.7</ele><time>2026-09-30T15:15:11Z</time><extensions><gpxtpx:TrackPointExtension><gpxtpx:hr>140</gpxtpx:hr></gpxtpx:TrackPointExtension></extensions></trkpt><trkpt lat="60.238745" lon="24.954372"><ele>47.2</ele><time>2026-09-30T15:15:12Z</time></trkpt><trkpt lat="60.238728" lon="24.954353"><ele>48.6</ele><time>2026-09-30T15:15:13Z</time></trkpt><trkpt lat="60.238705" lon="24.954307"><ele>49.0</ele><time>2026-09-30T15:15:15Z</time></trkpt><trkpt lat="60.238683" lon="24.954272"><ele>48.7</ele><time>2026-09-30T15:15:16Z</time></trkpt><trkpt lat="60.238655" lon="24.95426"><ele>47.6</ele><time>2026-09-30T15:15:17Z</time></trkpt><trkpt lat="60.238623" lon="24.95422"><ele>48.7</ele><time>2026-09-30T15:15:19Z</time></trkpt><trkpt lat="60.238607" lon="24.954207"><ele>48.0</ele><time>2026-09-30T15:15:20Z</time><extensions><gpxtpx:TrackPointExtension><gpxtpx:hr>140</gpxtpx:hr></gpxtpx:TrackPointExtension></extensions></trkpt><trkpt lat="60.238585" lon="24.954193"><ele>47.7</ele><time>2026-09-30T15:15:21Z</time></trkpt><trkpt lat="60.238562" lon="24.95418"><ele>47.9</ele><time>2026-09-30T15:15:22Z</time></trkpt><trkpt lat="60.238523" lon="24.954155"><ele>47.8</ele><time>2026-09-30T15:15:24Z</time></trkpt><trkpt lat="60.238507" lon="24.954127"><ele>48.2</ele><time>2026-09-30T15:15:25Z</time><extensions><gpxtpx:TrackPointExtension><gpxtpx:hr>140</gpxtpx:hr></gpxtpx:TrackPointExtension></extensions></trkpt><trkpt lat="60.238487" lon="24.954108"><ele>48.1</ele><time>2026-09-30T15:15:26Z</time></trkpt><trkpt lat="60.238467" lon="24.954092"><ele>47.8</ele><time>2026-09-30T15:15:27Z</time><extensions><gpxtpx:TrackPointExtension><gpxtpx:hr>140</gpxtpx:hr></gpxtpx:TrackPointExtension></extensions></trkpt><trkpt lat="60.238432" lon="24.954063"><ele>46.9</ele><time>2026-09-30T15:15:29Z</time></trkpt><trkpt lat="60.238408" lon="24.954035"><ele>46.8</ele><time>2026-09-30T15:15:31Z</time></trkpt><trkpt lat="60.238373" lon="24.953995"><ele>46.4</ele><time>2026-09-30T15:15:33Z</time><extensions><gpxtpx:TrackPointExtension><gpxtpx:hr>140</gpxtpx:hr></gpxtpx:TrackPointExtension></extensions></trkpt><trkpt lat="60.238347" lon="24.953978"><ele>46.6</ele><time>2026-09-30T15:15:34Z</time></trkpt><trkpt lat="60.238328" lon="24.953973"><ele>47.2</ele><time>2026-09-30T15:15:35Z</time></trkpt><trkpt lat="60.238312" lon="24.95396"><ele>47.2</ele><time>2026-09-30T15:15:36Z</time></trkpt><trkpt lat="60.238293" lon="24.953933"><ele>46.2</ele><time>2026-09-30T15:15:37Z</time></trkpt><trkpt lat="60.238252" lon="24.9539"><ele>45.5</ele><time>2026-09-30T15:15:39Z</time></trkpt><trkpt lat="60.238235" lon="24.953885"><ele>45.9</ele><time>2026-09-30T15:15:40Z</time><extensions><gpxtpx:TrackPointExtension><gpxtpx:hr>138</gpxtpx:hr></gpxtpx:TrackPointExtension></extensions></trkpt><trkpt lat="60.238203" lon="24.95384"><ele>46.0</ele><time>2026-09-30T15:15:42Z</time></trkpt><trkpt lat="60.238175" lon="24.953798"><ele>46.2</ele><time>2026-09-30T15:15:44Z</time></trkpt><trkpt lat="60.238152" lon="24.953778"><ele>46.5</ele><time>2026-09-30T15:15:45Z</time></trkpt><trkpt lat="60.238123" lon="24.953743"><ele>45.9</ele><time>2026-09-30T15:15:47Z</time><extensions><gpxtpx:TrackPointExtension><gpxtpx:hr>136</gpxtpx:hr></gpxtpx:TrackPointExtension></extensions></trkpt><trkpt lat="60.238123" lon="24.953743"><ele>45.9</ele><time>2026-09-30T15:15:46Z</time><extensions><gpxtpx:TrackPointExtension><gpxtpx:hr>135</gpxtpx:hr></gpxtpx:TrackPointExtension></extensions></trkpt><trkpt lat="60.238107" lon="24.95371"><ele>45.8</ele><time>2026-09-30T15:15:48Z</time></trkpt><trkpt lat="60.238078" lon="24.953657"><ele>46.5</ele><time>2026-09-30T15:15:50Z</time></trkpt><trkpt lat="60.238055" lon="24.953632"><ele>45.4</ele><time>2026-09-30T15:15:51Z</time></trkpt><trkpt lat="60.238025" lon="24.953583"><ele>45.2</ele><time>2026-09-30T15:15:53Z</time><extensions><gpxtpx:TrackPointExtension><gpxtpx:hr>135</gpxtpx:hr></gpxtpx:TrackPointExtension></extensions></trkpt><trkpt lat="60.238005" lon="24.953567"><ele>45.1</ele><time>2026-09-30T15:15:54Z</time></trkpt><trkpt lat="60.23799" lon="24.953537"><ele>45.0</ele><time>2026-09-30T15:15:55Z</time></trkpt><trkpt lat="60.237967" lon="24.953505"><ele>45.7</ele><time>2026-09-30T15:15:56Z</time></trkpt><trkpt lat="60.237957" lon="24.953473"><ele>46.3</ele><time>2026-09-30T15:15:57Z</time><extensions><gpxtpx:TrackPointExtension><gpxtpx:hr>133</gpxtpx:hr></gpxtpx:TrackPointExtension></extensions></trkpt><trkpt lat="60.237932" lon="24.953423"><ele>48.8</ele><time>2026-09-30T15:15:59Z</time></trkpt><trkpt lat="60.237912" lon="24.953407"><ele>48.6</ele><time>2026-09-30T15:16:00Z</time></trkpt><trkpt lat="60.237885" lon="24.953387"><ele>48.1</ele><time>2026-09-30T15:16:01Z</time></trkpt><trkpt lat="60.237858" lon="24.953377"><ele>47.8</ele><time>2026-09-30T15:16:02Z</time></trkpt><trkpt lat="60.237838" lon="24.95336"><ele>47.1</ele><time>2026-09-30T15:16:03Z</time></trkpt><trkpt lat="60.237817" lon="24.953337"><ele>46.7</ele><time>2026-09-30T15:16:04Z</time></trkpt><trkpt lat="60.237797" lon="24.953328"><ele>45.4</ele><time>2026-09-30T15:16:05Z</time><extensions><gpxtpx:TrackPointExtension><gpxtpx:hr>132</gpxtpx:hr></gpxtpx:TrackPointExtension></extensions></trkpt><trkpt lat="60.237773" lon="24.95331"><ele>45.7</ele><time>2026-09-30T15:16:06Z</time></trkpt><trkpt lat="60.237743" lon="24.953283"><ele>45.6</ele><time>2026-09-30T15:16:07Z</time><extensions><gpxtpx:TrackPointExtension><gpxtpx:hr>133</gpxtpx:hr></gpxtpx:TrackPointExtension></extensions></trkpt><trkpt lat="60.23772" lon="24.953272"><ele>46.0</ele><time>2026-09-30T15:16:08Z</time></trkpt><trkpt lat="60.237692" lon="24.953268"><ele>45.0</ele><time>2026-09-30T15:16:09Z</time></trkpt><trkpt lat="60.237668" lon="24.953237"><ele>44.6</ele><time>2026-09-30T15:16:10Z</time></trkpt><trkpt lat="60.237647" lon="24.953218"><ele>44.9</ele><time>2026-09-30T15:16:11Z</time></trkpt><trkpt lat="60.237618" lon="24.953182"><ele>44.5</ele><time>2026-09-30T15:16:12Z</time><extensions><gpxtpx:TrackPointExtension><gpxtpx:hr>131</gpxtpx:hr></gpxtpx:TrackPointExtension></extensions></trkpt><trkpt lat="60.2376" lon="24.953172"><ele>44.4</ele><time>2026-09-30T15:16:13Z</time></trkpt><trkpt lat="60.237578" lon="24.953145"><ele>44.0</ele><time>2026-09-30T15:16:14Z</time></trkpt><trkpt lat="60.237553" lon="24.953102"><ele>43.1</ele><time>2026-09-30T15:16:15Z</time></trkpt><trkpt lat="60.237528" lon="24.953038"><ele>43.4</ele><time>2026-09-30T15:16:17Z</time></trkpt><trkpt lat="60.23751" lon="24.95301"><ele>43.9</ele><time>2026-09-30T15:16:18Z</time><extensions><gpxtpx:TrackPointExtension><gpxtpx:hr>133</gpxtpx:hr></gpxtpx:TrackPointExtension></extensions></trkpt><trkpt lat="60.237483" lon="24.95295"><ele>45.4</ele><time>2026-09-30T15:16:20Z</time></trkpt><trkpt lat="60.237468" lon="24.952895"><ele>46.2</ele><time>2026-09-30T15:16:22Z</time></trkpt><trkpt lat="60.237458" lon="24.952848"><ele>46.2</ele><time>2026-09-30T15:16:23Z</time></trkpt><trkpt lat="60.23744" lon="24.952787"><ele>47.4</ele><time>2026-09-30T15:16:25Z</time></trkpt><trkpt lat="60.237442" lon="24.952735"><ele>47.5</ele><time>2026-09-30T15:16:26Z</time><extensions><gpxtpx:TrackPointExtension><gpxtpx:hr>132</gpxtpx:hr></gpxtpx:TrackPointExtension></extensions></trkpt><trkpt lat="60.23743" lon="24.952707"><ele>47.6</ele><time>2026-09-30T15:16:27Z</time></trkpt><trkpt lat="60.237423" lon="24.952662"><ele>47.3</ele><time>2026-09-30T15:16:28Z</time><extensions><gpxtpx:TrackPointExtension><gpxtpx:hr>132</gpxtpx:hr></gpxtpx:TrackPointExtension></extensions></trkpt><trkpt lat="60.23741" lon="24.952623"><ele>47.9</ele><time>2026-09-30T15:16:29Z</time></trkpt><trkpt lat="60.2374" lon="24.95258"><ele>48.5</ele><time>2026-09-30T15:16:30Z</time></trkpt><trkpt lat="60.237398" lon="24.952525"><ele>48.9</ele><time>2026-09-30T15:16:31Z</time></trkpt><trkpt lat="60.237387" lon="24.952495"><ele>48.3</ele><time>2026-09-30T15:16:32Z</time></trkpt><trkpt lat="60.237368" lon="24.952458"><ele>48.1</ele><time>2026-09-30T15:16:33Z</time></trkpt><trkpt lat="60.237348" lon="24.952427"><ele>47.7</ele><time>2026-09-30T15:16:34Z</time><extensions><gpxtpx:TrackPointExtension><gpxtpx:hr>132</gpxtpx:hr></gpxtpx:TrackPointExtension></extensions></trkpt><trkpt lat="60.23733" lon="24.952393"><ele>47.8</ele><time>2026-09-30T15:16:35Z</time></trkpt><trkpt lat="60.23731" lon="24.952358"><ele>48.2</ele><time>2026-09-30T15:16:36Z</time></trkpt><trkpt lat="60.237288" lon="24.952338"><ele>48.6</ele><time>2026-09-30T15:16:37Z</time></trkpt><trkpt lat="60.237263" lon="24.952303"><ele>47.6</ele><time>2026-09-30T15:16:38Z</time></trkpt><trkpt lat="60.23725" lon="24.952262"><ele>47.1</ele><time>2026-09-30T15:16:39Z</time></trkpt><trkpt lat="60.237233" lon="24.952228"><ele>46.4</ele><time>2026-09-30T15:16:40Z</time><extensions><gpxtpx:TrackPointExtension><gpxtpx:hr>132</gpxtpx:hr></gpxtpx:TrackPointExtension></extensions></trkpt><trkpt lat="60.237208" lon="24.952195"><ele>45.8</ele><time>2026-09-30T15:16:41Z</time></trkpt><trkpt lat="60.237172" lon="24.952143"><ele>44.2</ele><time>2026-09-30T15:16:43Z</time></trkpt><trkpt lat="60.237143" lon="24.952112"><ele>42.9</ele><time>2026-09-30T15:16:44Z</time><extensions><gpxtpx:TrackPointExtension><gpxtpx:hr>132</gpxtpx:hr></gpxtpx:TrackPointExtension></extensions></trkpt><trkpt lat="60.237108" lon="24.952063"><ele>42.3</ele><time>2026-09-30T15:16:46Z</time></trkpt><trkpt lat="60.23708" lon="24.952047"><ele>41.2</ele><time>2026-09-30T15:16:47Z</time></trkpt><trkpt lat="60.237062" lon="24.95203"><ele>39.7</ele><time>2026-09-30T15:16:48Z</time></trkpt><trkpt lat="60.237042" lon="24.951997"><ele>39.6</ele><time>2026-09-30T15:16:49Z</time></trkpt><trkpt lat="60.237025" lon="24.951978"><ele>40.0</ele><time>2026-09-30T15:16:50Z</time></trkpt><trkpt lat="60.237002" lon="24.951955"><ele>39.0</ele><time>2026-09-30T15:16:50Z</time><extensions><gpxtpx:TrackPointExtension><gpxtpx:hr>133</gpxtpx:hr></gpxtpx:TrackPointExtension></extensions></trkpt><trkpt lat="60.236982" lon="24.951915"><ele>39.4</ele><time>2026-09-30T15:16:52Z</time></trkpt><trkpt lat="60.236962" lon="24.951892"><ele>39.5</ele><time>2026-09-30T15:16:52Z</time></trkpt><trkpt lat="60.236932" lon="24.951863"><ele>39.3</ele><time>2026-09-30T15:16:53Z</time></trkpt><trkpt lat="60.236912" lon="24.951858"><ele>39.2</ele><time>2026-09-30T15:16:54Z</time><extensions><gpxtpx:TrackPointExtension><gpxtpx:hr>129</gpxtpx:hr></gpxtpx:TrackPointExtension></extensions></trkpt><trkpt lat="60.23689" lon="24.951827"><ele>39.3</ele><time>2026-09-30T15:16:55Z</time></trkpt><trkpt lat="60.236863" lon="24.951802"><ele>38.9</ele><time>2026-09-30T15:16:56Z</time><extensions><gpxtpx:TrackPointExtension><gpxtpx:hr>129</gpxtpx:hr></gpxtpx:TrackPointExtension></extensions></trkpt><trkpt lat="60.236827" lon="24.95177"><ele>38.8</ele><time>2026-09-30T15:16:58Z</time></trkpt><trkpt lat="60.236807" lon="24.951745"><ele>39.1</ele><time>2026-09-30T15:16:59Z</time></trkpt><trkpt lat="60.236787" lon="24.951742"><ele>38.6</ele><time>2026-09-30T15:17:00Z</time></trkpt><trkpt lat="60.236762" lon="24.95172"><ele>38.4</ele><time>2026-09-30T15:17:01Z</time><extensions><gpxtpx:TrackPointExtension><gpxtpx:hr>129</gpxtpx:hr></gpxtpx:TrackPointExtension></extensions></trkpt><trkpt lat="60.236742" lon="24.951695"><ele>38.8</ele><time>2026-09-30T15:17:02Z</time></trkpt><trkpt lat="60.236693" lon="24.951703"><ele>39.0</ele><time>2026-09-30T15:17:04Z</time></trkpt><trkpt lat="60.236668" lon="24.951717"><ele>39.0</ele><time>2026-09-30T15:17:05Z</time></trkpt><trkpt lat="60.236645" lon="24.951725"><ele>39.0</ele><time>2026-09-30T15:17:06Z</time><extensions><gpxtpx:TrackPointExtension><gpxtpx:hr>130</gpxtpx:hr></gpxtpx:TrackPointExtension></extensions></trkpt><trkpt lat="60.236618" lon="24.951745"><ele>38.8</ele><time>2026-09-30T15:17:07Z</time></trkpt><trkpt lat="60.2366" lon="24.951762"><ele>38.8</ele><time>2026-09-30T15:17:08Z</time></trkpt><trkpt lat="60.236587" lon="24.951788"><ele>39.6</ele><time>2026-09-30T15:17:09Z</time></trkpt><trkpt lat="60.236563" lon="24.951798"><ele>39.8</ele><time>2026-09-30T15:17:10Z</time></trkpt><trkpt lat="60.236547" lon="24.95182"><ele>40.0</ele><time>2026-09-30T15:17:11Z</time></trkpt><trkpt lat="60.23652" lon="24.951835"><ele>39.6</ele><time>2026-09-30T15:17:12Z</time></trkpt><trkpt lat="60.236495" lon="24.95184"><ele>38.9</ele><time>2026-09-30T15:17:13Z</time></trkpt><trkpt lat="60.236457" lon="24.951853"><ele>39.4</ele><time>2026-09-30T15:17:15Z</time><extensions><gpxtpx:TrackPointExtension><gpxtpx:hr>130</gpxtpx:hr></gpxtpx:TrackPointExtension></extensions></trkpt><trkpt lat="60.236432" lon="24.95187"><ele>38.2</ele><time>2026-09-30T15:17:16Z</time></trkpt><trkpt lat="60.23639" lon="24.95188"><ele>38.8</ele><time>2026-09-30T15:17:18Z</time></trkpt><trkpt lat="60.236348" lon="24.951862"><ele>38.6</ele><time>2026-09-30T15:17:20Z</time><extensions><gpxtpx:TrackPointExtension><gpxtpx:hr>130</gpxtpx:hr></gpxtpx:TrackPointExtension></extensions></trkpt><trkpt lat="60.236317" lon="24.951858"><ele>39.0</ele><time>2026-09-30T15:17:21Z</time></trkpt><trkpt lat="60.236297" lon="24.95186"><ele>38.8</ele><time>2026-09-30T15:17:22Z</time><extensions><gpxtpx:TrackPointExtension><gpxtpx:hr>129</gpxtpx:hr></gpxtpx:TrackPointExtension></extensions></trkpt><trkpt lat="60.236275" lon="24.95186"><ele>38.6</ele><time>2026-09-30T15:17:23Z</time></trkpt><trkpt lat="60.236255" lon="24.951858"><ele>38.8</ele><time>2026-09-30T15:17:24Z</time></trkpt><trkpt lat="60.236213" lon="24.951867"><ele>39.5</ele><time>2026-09-30T15:17:26Z</time><extensions><gpxtpx:TrackPointExtension><gpxtpx:hr>129</gpxtpx:hr></gpxtpx:TrackPointExtension></extensions></trkpt><trkpt lat="60.236177" lon="24.951898"><ele>39.8</ele><time>2026-09-30T15:17:28Z</time></trkpt><trkpt lat="60.236152" lon="24.95191"><ele>39.9</ele><time>2026-09-30T15:17:29Z</time></trkpt><trkpt lat="60.236133" lon="24.951938"><ele>39.7</ele><time>2026-09-30T15:17:30Z</time></trkpt><trkpt lat="60.236118" lon="24.951962"><ele>40.5</ele><time>2026-09-30T15:17:31Z</time></trkpt><trkpt lat="60.236093" lon="24.95197"><ele>40.1</ele><time>2026-09-30T15:17:32Z</time><extensions><gpxtpx:TrackPointExtension><gpxtpx:hr>130</gpxtpx:hr></gpxtpx:TrackPointExtension></extensions></trkpt><trkpt lat="60.23608" lon="24.952"><ele>38.8</ele><time>2026-09-30T15:17:33Z</time></trkpt><trkpt lat="60.236065" lon="24.952025"><ele>40.4</ele><time>2026-09-30T15:17:34Z</time></trkpt><trkpt lat="60.23605" lon="24.952058"><ele>41.8</ele><time>2026-09-30T15:17:35Z</time></trkpt><trkpt lat="60.236045" lon="24.952092"><ele>42.5</ele><time>2026-09-30T15:17:37Z</time><extensions><gpxtpx:TrackPointExtension><gpxtpx:hr>131</gpxtpx:hr></gpxtpx:TrackPointExtension></extensions></trkpt><trkpt lat="60.236032" lon="24.952138"><ele>42.5</ele><time>2026-09-30T15:17:38Z</time></trkpt><trkpt lat="60.236015" lon="24.952158"><ele>41.7</ele><time>2026-09-30T15:17:39Z</time></trkpt><trkpt lat="60.236012" lon="24.952198"><ele>41.9</ele><time>2026-09-30T15:17:40Z</time></trkpt><trkpt lat="60.235998" lon="24.95226"><ele>42.8</ele><time>2026-09-30T15:17:41Z</time></trkpt><trkpt lat="60.235995" lon="24.95231"><ele>43.5</ele><time>2026-09-30T15:17:42Z</time></trkpt><trkpt lat="60.236005" lon="24.952375"><ele>43.7</ele><time>2026-09-30T15:17:43Z</time></trkpt><trkpt lat="60.236005" lon="24.952432"><ele>42.2</ele><time>2026-09-30T15:17:44Z</time><extensions><gpxtpx:TrackPointExtension><gpxtpx:hr>131</gpxtpx:hr></gpxtpx:TrackPointExtension></extensions></trkpt><trkpt lat="60.236013" lon="24.952465"><ele>40.9</ele><time>2026-09-30T15:17:45Z</time></trkpt><trkpt lat="60.236032" lon="24.952515"><ele>41.7</ele><time>2026-09-30T15:17:46Z</time></trkpt><trkpt lat="60.236038" lon="24.952565"><ele>42.7</ele><time>2026-09-30T15:17:47Z</time></trkpt><trkpt lat="60.236057" lon="24.952592"><ele>43.3</ele><time>2026-09-30T15:17:48Z</time><extensions><gpxtpx:TrackPointExtension><gpxtpx:hr>132</gpxtpx:hr></gpxtpx:TrackPointExtension></extensions></trkpt><trkpt lat="60.236072" lon="24.952637"><ele>43.9</ele><time>2026-09-30T15:17:49Z</time></trkpt><trkpt lat="60.23609" lon="24.95267"><ele>43.5</ele><time>2026-09-30T15:17:50Z</time></trkpt><trkpt lat="60.236108" lon="24.952713"><ele>43.7</ele><time>2026-09-30T15:17:51Z</time></trkpt><trkpt lat="60.236113" lon="24.952768"><ele>42.5</ele><time>2026-09-30T15:17:52Z</time><extensions><gpxtpx:TrackPointExtension><gpxtpx:hr>135</gpxtpx:hr></gpxtpx:TrackPointExtension></extensions></trkpt><trkpt lat="60.23612" lon="24.952807"><ele>41.7</ele><time>2026-09-30T15:17:53Z</time></trkpt><trkpt lat="60.236125" lon="24.952867"><ele>42.2</ele><time>2026-09-30T15:17:54Z</time></trkpt><trkpt lat="60.23613" lon="24.952907"><ele>42.0</ele><time>2026-09-30T15:17:55Z</time></trkpt><trkpt lat="60.236148" lon="24.952942"><ele>42.7</ele><time>2026-09-30T15:17:56Z</time></trkpt><trkpt lat="60.236152" lon="24.952982"><ele>43.2</ele><time>2026-09-30T15:17:57Z</time></trkpt><trkpt lat="60.236163" lon="24.953035"><ele>43.1</ele><time>2026-09-30T15:17:58Z</time></trkpt><trkpt lat="60.236163" lon="24.953088"><ele>44.3</ele><time>2026-09-30T15:17:59Z</time></trkpt><trkpt lat="60.236165" lon="24.953145"><ele>43.8</ele><time>2026-09-30T15:18:00Z</time></trkpt><trkpt lat="60.236168" lon="24.953228"><ele>42.7</ele><time>2026-09-30T15:18:02Z</time><extensions><gpxtpx:TrackPointExtension><gpxtpx:hr>134</gpxtpx:hr></gpxtpx:TrackPointExtension></extensions></trkpt><trkpt lat="60.236168" lon="24.953228"><ele>42.7</ele><time>2026-09-30T15:18:01Z</time><extensions><gpxtpx:TrackPointExtension><gpxtpx:hr>134</gpxtpx:hr></gpxtpx:TrackPointExtension></extensions></trkpt><trkpt lat="60.236173" lon="24.953268"><ele>42.4</ele><time>2026-09-30T15:18:03Z</time></trkpt><trkpt lat="60.23617" lon="24.953313"><ele>42.3</ele><time>2026-09-30T15:18:04Z</time></trkpt><trkpt lat="60.23617" lon="24.953362"><ele>42.3</ele><time>2026-09-30T15:18:05Z</time></trkpt><trkpt lat="60.236175" lon="24.953435"><ele>41.4</ele><time>2026-09-30T15:18:07Z</time></trkpt><trkpt lat="60.23618" lon="24.953493"><ele>41.7</ele><time>2026-09-30T15:18:08Z</time></trkpt><trkpt lat="60.236192" lon="24.95354"><ele>42.3</ele><time>2026-09-30T15:18:09Z</time><extensions><gpxtpx:TrackPointExtension><gpxtpx:hr>133</gpxtpx:hr></gpxtpx:TrackPointExtension></extensions></trkpt><trkpt lat="60.236197" lon="24.95358"><ele>42.6</ele><time>2026-09-30T15:18:10Z</time></trkpt><trkpt lat="60.236212" lon="24.953627"><ele>42.4</ele><time>2026-09-30T15:18:11Z</time></trkpt><trkpt lat="60.236223" lon="24.953688"><ele>43.0</ele><time>2026-09-30T15:18:13Z</time><extensions><gpxtpx:TrackPointExtension><gpxtpx:hr>133</gpxtpx:hr></gpxtpx:TrackPointExtension></extensions></trkpt><trkpt lat="60.236228" lon="24.953748"><ele>42.5</ele><time>2026-09-30T15:18:14Z</time></trkpt><trkpt lat="60.236235" lon="24.953802"><ele>42.1</ele><time>2026-09-30T15:18:15Z</time></trkpt><trkpt lat="60.236238" lon="24.953863"><ele>41.9</ele><time>2026-09-30T15:18:16Z</time></trkpt><trkpt lat="60.236255" lon="24.953908"><ele>40.9</ele><time>2026-09-30T15:18:17Z</time></trkpt><trkpt lat="60.236258" lon="24.953955"><ele>41.3</ele><time>2026-09-30T15:18:18Z</time></trkpt><trkpt lat="60.236268" lon="24.954013"><ele>40.8</ele><time>2026-09-30T15:18:19Z</time></trkpt><trkpt lat="60.236282" lon="24.95408"><ele>40.1</ele><time>2026-09-30T15:18:21Z</time><extensions><gpxtpx:TrackPointExtension><gpxtpx:hr>133</gpxtpx:hr></gpxtpx:TrackPointExtension></extensions></trkpt><trkpt lat="60.23628" lon="24.954142"><ele>39.2</ele><time>2026-09-30T15:18:22Z</time></trkpt><trkpt lat="60.236285" lon="24.954207"><ele>39.0</ele><time>2026-09-30T15:18:23Z</time></trkpt><trkpt lat="60.236285" lon="24.954272"><ele>37.2</ele><time>2026-09-30T15:18:24Z</time></trkpt><trkpt lat="60.236285" lon="24.954338"><ele>36.9</ele><time>2026-09-30T15:18:26Z</time><extensions><gpxtpx:TrackPointExtension><gpxtpx:hr>135</gpxtpx:hr></gpxtpx:TrackPointExtension></extensions></trkpt><trkpt lat="60.236298" lon="24.9544"><ele>36.7</ele><time>2026-09-30T15:18:27Z</time></trkpt><trkpt lat="60.236307" lon="24.954438"><ele>37.1</ele><time>2026-09-30T15:18:28Z</time></trkpt><trkpt lat="60.23631" lon="24.954495"><ele>36.4</ele><time>2026-09-30T15:18:29Z</time></trkpt><trkpt lat="60.236313" lon="24.95455"><ele>35.3</ele><time>2026-09-30T15:18:30Z</time></trkpt><trkpt lat="60.23631" lon="24.954597"><ele>35.3</ele><time>2026-09-30T15:18:31Z</time><extensions><gpxtpx:TrackPointExtension><gpxtpx:hr>135</gpxtpx:hr></gpxtpx:TrackPointExtension></extensions></trkpt><trkpt lat="60.23631" lon="24.954652"><ele>36.1</ele><time>2026-09-30T15:18:32Z</time></trkpt><trkpt lat="60.236315" lon="24.954723"><ele>35.7</ele><time>2026-09-30T15:18:34Z</time></trkpt><trkpt lat="60.236312" lon="24.954778"><ele>35.8</ele><time>2026-09-30T15:18:35Z</time></trkpt><trkpt lat="60.236313" lon="24.954823"><ele>35.6</ele><time>2026-09-30T15:18:36Z</time><extensions><gpxtpx:TrackPointExtension><gpxtpx:hr>136</gpxtpx:hr></gpxtpx:TrackPointExtension></extensions></trkpt><trkpt lat="60.236307" lon="24.95486"><ele>35.8</ele><time>2026-09-30T15:18:37Z</time></trkpt><trkpt lat="60.236302" lon="24.95491"><ele>36.3</ele><time>2026-09-30T15:18:38Z</time></trkpt><trkpt lat="60.23631" lon="24.954962"><ele>35.7</ele><time>2026-09-30T15:18:39Z</time></trkpt><trkpt lat="60.236308" lon="24.955003"><ele>35.8</ele><time>2026-09-30T15:18:40Z</time><extensions><gpxtpx:TrackPointExtension><gpxtpx:hr>137</gpxtpx:hr></gpxtpx:TrackPointExtension></extensions></trkpt><trkpt lat="60.236303" lon="24.955045"><ele>35.2</ele><time>2026-09-30T15:18:41Z</time></trkpt><trkpt lat="60.236305" lon="24.955148"><ele>35.8</ele><time>2026-09-30T15:18:43Z</time><extensions><gpxtpx:TrackPointExtension><gpxtpx:hr>137</gpxtpx:hr></gpxtpx:TrackPointExtension></extensions></trkpt><trkpt lat="60.236308" lon="24.955193"><ele>35.7</ele><time>2026-09-30T15:18:44Z</time></trkpt><trkpt lat="60.236302" lon="24.95524"><ele>35.4</ele><time>2026-09-30T15:18:45Z</time></trkpt><trkpt lat="60.2363" lon="24.95529"><ele>35.8</ele><time>2026-09-30T15:18:46Z</time></trkpt><trkpt lat="60.23631" lon="24.955323"><ele>35.8</ele><time>2026-09-30T15:18:47Z</time></trkpt><trkpt lat="60.236312" lon="24.955372"><ele>35.1</ele><time>2026-09-30T15:18:48Z</time></trkpt><trkpt lat="60.23631" lon="24.95542"><ele>35.7</ele><time>2026-09-30T15:18:49Z</time><extensions><gpxtpx:TrackPointExtension><gpxtpx:hr>137</gpxtpx:hr></gpxtpx:TrackPointExtension></extensions></trkpt><trkpt lat="60.236303" lon="24.955455"><ele>36.3</ele><time>2026-09-30T15:18:50Z</time></trkpt><trkpt lat="60.236298" lon="24.9555"><ele>36.3</ele><time>2026-09-30T15:18:51Z</time></trkpt><trkpt lat="60.236305" lon="24.955573"><ele>35.1</ele><time>2026-09-30T15:18:53Z</time><extensions><gpxtpx:TrackPointExtension><gpxtpx:hr>138</gpxtpx:hr></gpxtpx:TrackPointExtension></extensions></trkpt><trkpt lat="60.236303" lon="24.955618"><ele>35.1</ele><time>2026-09-30T15:18:54Z</time></trkpt><trkpt lat="60.236307" lon="24.95567"><ele>34.7</ele><time>2026-09-30T15:18:55Z</time></trkpt><trkpt lat="60.236315" lon="24.95572"><ele>34.6</ele><time>2026-09-30T15:18:56Z</time></trkpt><trkpt lat="60.236303" lon="24.95577"><ele>34.5</ele><time>2026-09-30T15:18:57Z</time></trkpt><trkpt lat="60.236288" lon="24.955855"><ele>36.3</ele><time>2026-09-30T15:18:59Z</time><extensions><gpxtpx:TrackPointExtension><gpxtpx:hr>140</gpxtpx:hr></gpxtpx:TrackPointExtension></extensions></trkpt><trkpt lat="60.236275" lon="24.955897"><ele>35.3</ele><time>2026-09-30T15:19:00Z</time></trkpt><trkpt lat="60.236257" lon="24.955967"><ele>36.5</ele><time>2026-09-30T15:19:02Z</time></trkpt><trkpt lat="60.236253" lon="24.956015"><ele>37.2</ele><time>2026-09-30T15:19:03Z</time></trkpt><trkpt lat="60.236242" lon="24.956047"><ele>37.1</ele><time>2026-09-30T15:19:04Z</time><extensions><gpxtpx:TrackPointExtension><gpxtpx:hr>140</gpxtpx:hr></gpxtpx:TrackPointExtension></extensions></trkpt><trkpt lat="60.236223" lon="24.956065"><ele>37.7</ele><time>2026-09-30T15:19:05Z</time></trkpt><trkpt lat="60.236195" lon="24.956113"><ele>38.0</ele><time>2026-09-30T15:19:07Z</time></trkpt><trkpt lat="60.236177" lon="24.956152"><ele>38.9</ele><time>2026-09-30T15:19:08Z</time></trkpt><trkpt lat="60.236158" lon="24.956203"><ele>40.4</ele><time>2026-09-30T15:19:10Z</time><extensions><gpxtpx:TrackPointExtension><gpxtpx:hr>141</gpxtpx:hr></gpxtpx:TrackPointExtension></extensions></trkpt><trkpt lat="60.236137" lon="24.956218"><ele>40.5</ele><time>2026-09-30T15:19:11Z</time></trkpt><trkpt lat="60.236113" lon="24.956268"><ele>40.5</ele><time>2026-09-30T15:19:13Z</time><extensions><gpxtpx:TrackPointExtension><gpxtpx:hr>140</gpxtpx:hr></gpxtpx:TrackPointExtension></extensions></trkpt><trkpt lat="60.236097" lon="24.956322"><ele>40.3</ele><time>2026-09-30T15:19:13Z</time></trkpt><trkpt lat="60.236095" lon="24.956358"><ele>40.9</ele><time>2026-09-30T15:19:14Z</time></trkpt><trkpt lat="60.23608" lon="24.9564"><ele>40.3</ele><time>2026-09-30T15:19:15Z</time></trkpt><trkpt lat="60.236068" lon="24.956443"><ele>39.8</ele><time>2026-09-30T15:19:16Z</time></trkpt><trkpt lat="60.236067" lon="24.956483"><ele>40.1</ele><time>2026-09-30T15:19:17Z</time></trkpt><trkpt lat="60.236065" lon="24.956535"><ele>39.6</ele><time>2026-09-30T15:19:18Z</time></trkpt><trkpt lat="60.236062" lon="24.956585"><ele>39.7</ele><time>2026-09-30T15:19:19Z</time></trkpt><trkpt lat="60.236063" lon="24.956633"><ele>39.4</ele><time>2026-09-30T15:19:20Z</time><extensions><gpxtpx:TrackPointExtension><gpxtpx:hr>142</gpxtpx:hr></gpxtpx:TrackPointExtension></extensions></trkpt><trkpt lat="60.236052" lon="24.956678"><ele>39.4</ele><time>2026-09-30T15:19:21Z</time><extensions><gpxtpx:TrackPointExtension><gpxtpx:hr>142</gpxtpx:hr></gpxtpx:TrackPointExtension></extensions></trkpt><trkpt lat="60.236045" lon="24.956715"><ele>40.1</ele><time>2026-09-30T15:19:22Z</time></trkpt><trkpt lat="60.236038" lon="24.956788"><ele>40.3</ele><time>2026-09-30T15:19:24Z</time></trkpt><trkpt lat="60.23603" lon="24.956843"><ele>40.6</ele><time>2026-09-30T15:19:26Z</time><extensions><gpxtpx:TrackPointExtension><gpxtpx:hr>142</gpxtpx:hr></gpxtpx:TrackPointExtension></extensions></trkpt><trkpt lat="60.236008" lon="24.956908"><ele>39.8</ele><time>2026-09-30T15:19:28Z</time></trkpt><trkpt lat="60.235988" lon="24.956953"><ele>39.8</ele><time>2026-09-30T15:19:30Z</time></trkpt><trkpt lat="60.235973" lon="24.956988"><ele>40.4</ele><time>2026-09-30T15:19:31Z</time></trkpt><trkpt lat="60.235963" lon="24.957025"><ele>41.0</ele><time>2026-09-30T15:19:32Z</time></trkpt><trkpt lat="60.235947" lon="24.957062"><ele>41.3</ele><time>2026-09-30T15:19:33Z</time></trkpt><trkpt lat="60.235933" lon="24.957102"><ele>40.9</ele><time>2026-09-30T15:19:34Z</time><extensions><gpxtpx:TrackPointExtension><gpxtpx:hr>144</gpxtpx:hr></gpxtpx:TrackPointExtension></extensions></trkpt><trkpt lat="60.235915" lon="24.957182"><ele>41.5</ele><time>2026-09-30T15:19:36Z</time><extensions><gpxtpx:TrackPointExtension><gpxtpx:hr>144</gpxtpx:hr></gpxtpx:TrackPointExtension></extensions></trkpt><trkpt lat="60.235907" lon="24.957242"><ele>41.8</ele><time>2026-09-30T15:19:37Z</time></trkpt><trkpt lat="60.235908" lon="24.957295"><ele>41.4</ele><time>2026-09-30T15:19:38Z</time></trkpt><trkpt lat="60.235897" lon="24.957352"><ele>41.3</ele><time>2026-09-30T15:19:39Z</time></trkpt><trkpt lat="60.235888" lon="24.957445"><ele>41.3</ele><time>2026-09-30T15:19:41Z</time><extensions><gpxtpx:TrackPointExtension><gpxtpx:hr>144</gpxtpx:hr></gpxtpx:TrackPointExtension></extensions></trkpt><trkpt lat="60.235877" lon="24.9575"><ele>40.8</ele><time>2026-09-30T15:19:42Z</time></trkpt><trkpt lat="60.235877" lon="24.957547"><ele>40.7</ele><time>2026-09-30T15:19:43Z</time></trkpt><trkpt lat="60.235865" lon="24.9576"><ele>40.5</ele><time>2026-09-30T15:19:44Z</time></trkpt><trkpt lat="60.235853" lon="24.95765"><ele>40.3</ele><time>2026-09-30T15:19:45Z</time></trkpt><trkpt lat="60.235845" lon="24.957695"><ele>40.3</ele><time>2026-09-30T15:19:46Z</time><extensions><gpxtpx:TrackPointExtension><gpxtpx:hr>145</gpxtpx:hr></gpxtpx:TrackPointExtension></extensions></trkpt><trkpt lat="60.235822" lon="24.957728"><ele>40.3</ele><time>2026-09-30T15:19:47Z</time></trkpt><trkpt lat="60.235815" lon="24.957767"><ele>40.4</ele><time>2026-09-30T15:19:48Z</time></trkpt><trkpt lat="60.235805" lon="24.957832"><ele>40.0</ele><time>2026-09-30T15:19:49Z</time></trkpt><trkpt lat="60.235787" lon="24.957873"><ele>40.0</ele><time>2026-09-30T15:19:50Z</time></trkpt><trkpt lat="60.235782" lon="24.957908"><ele>40.3</ele><time>2026-09-30T15:19:51Z</time></trkpt><trkpt lat="60.235765" lon="24.957955"><ele>41.4</ele><time>2026-09-30T15:19:52Z</time></trkpt><trkpt lat="60.235758" lon="24.958"><ele>41.4</ele><time>2026-09-30T15:19:53Z</time></trkpt><trkpt lat="60.235767" lon="24.958052"><ele>41.2</ele><time>2026-09-30T15:19:54Z</time></trkpt><trkpt lat="60.23577" lon="24.958118"><ele>41.8</ele><time>2026-09-30T15:19:55Z</time><extensions><gpxtpx:TrackPointExtension><gpxtpx:hr>145</gpxtpx:hr></gpxtpx:TrackPointExtension></extensions></trkpt><trkpt lat="60.235778" lon="24.95816"><ele>42.6</ele><time>2026-09-30T15:19:56Z</time></trkpt><trkpt lat="60.235792" lon="24.958208"><ele>43.4</ele><time>2026-09-30T15:19:57Z</time></trkpt><trkpt lat="60.235807" lon="24.958255"><ele>43.7</ele><time>2026-09-30T15:19:58Z</time></trkpt><trkpt lat="60.235812" lon="24.95829"><ele>44.4</ele><time>2026-09-30T15:19:59Z</time></trkpt><trkpt lat="60.235827" lon="24.958327"><ele>44.1</ele><time>2026-09-30T15:20:00Z</time><extensions><gpxtpx:TrackPointExtension><gpxtpx:hr>144</gpxtpx:hr></gpxtpx:TrackPointExtension></extensions></trkpt><trkpt lat="60.235848" lon="24.958357"><ele>43.6</ele><time>2026-09-30T15:20:01Z</time></trkpt><trkpt lat="60.235862" lon="24.958382"><ele>43.2</ele><time>2026-09-30T15:20:02Z</time><extensions><gpxtpx:TrackPointExtension><gpxtpx:hr>145</gpxtpx:hr></gpxtpx:TrackPointExtension></extensions></trkpt><trkpt lat="60.235875" lon="24.95843"><ele>43.3</ele><time>2026-09-30T15:20:03Z</time></trkpt><trkpt lat="60.235895" lon="24.958462"><ele>42.8</ele><time>2026-09-30T15:20:04Z</time></trkpt><trkpt lat="60.235908" lon="24.958502"><ele>43.1</ele><time>2026-09-30T15:20:05Z</time></trkpt><trkpt lat="60.235922" lon="24.958548"><ele>42.0</ele><time>2026-09-30T15:20:06Z</time></trkpt><trkpt lat="60.235927" lon="24.958585"><ele>41.5</ele><time>2026-09-30T15:20:07Z</time></trkpt><trkpt lat="60.235938" lon="24.958623"><ele>40.5</ele><time>2026-09-30T15:20:08Z</time><extensions><gpxtpx:TrackPointExtension><gpxtpx:hr>145</gpxtpx:hr></gpxtpx:TrackPointExtension></extensions></trkpt><trkpt lat="60.235935" lon="24.958685"><ele>41.5</ele><time>2026-09-30T15:20:09Z</time></trkpt><trkpt lat="60.235927" lon="24.958718"><ele>42.4</ele><time>2026-09-30T15:20:10Z</time></trkpt><trkpt lat="60.235903" lon="24.958728"><ele>42.4</ele><time>2026-09-30T15:20:11Z</time><extensions><gpxtpx:TrackPointExtension><gpxtpx:hr>145</gpxtpx:hr></gpxtpx:TrackPointExtension></extensions></trkpt><trkpt lat="60.235875" lon="24.958733"><ele>42.6</ele><time>2026-09-30T15:20:12Z</time></trkpt><trkpt lat="60.235843" lon="24.958743"><ele>42.5</ele><time>2026-09-30T15:20:14Z</time></trkpt><trkpt lat="60.235825" lon="24.958762"><ele>42.6</ele><time>2026-09-30T15:20:15Z</time></trkpt><trkpt lat="60.235808" lon="24.958782"><ele>42.0</ele><time>2026-09-30T15:20:16Z</time></trkpt><trkpt lat="60.235788" lon="24.9588"><ele>42.0</ele><time>2026-09-30T15:20:17Z</time><extensions><gpxtpx:TrackPointExtension><gpxtpx:hr>144</gpxtpx:hr></gpxtpx:TrackPointExtension></extensions></trkpt><trkpt lat="60.23576" lon="24.958818"><ele>42.1</ele><time>2026-09-30T15:20:18Z</time></trkpt><trkpt lat="60.235738" lon="24.958827"><ele>42.2</ele><time>2026-09-30T15:20:19Z</time></trkpt><trkpt lat="60.23572" lon="24.958865"><ele>41.6</ele><time>2026-09-30T15:20:20Z</time></trkpt><trkpt lat="60.235695" lon="24.958868"><ele>41.3</ele><time>2026-09-30T15:20:21Z</time></trkpt><trkpt lat="60.235655" lon="24.95889"><ele>41.9</ele><time>2026-09-30T15:20:23Z</time><extensions><gpxtpx:TrackPointExtension><gpxtpx:hr>144</gpxtpx:hr></gpxtpx:TrackPointExtension></extensions></trkpt><trkpt lat="60.235632" lon="24.958922"><ele>42.1</ele><time>2026-09-30T15:20:24Z</time></trkpt><trkpt lat="60.235613" lon="24.958953"><ele>41.9</ele><time>2026-09-30T15:20:25Z</time></trkpt><trkpt lat="60.235587" lon="24.95899"><ele>42.3</ele><time>2026-09-30T15:20:26Z</time></trkpt><trkpt lat="60.235567" lon="24.959023"><ele>42.5</ele><time>2026-09-30T15:20:27Z</time></trkpt><trkpt lat="60.235547" lon="24.959037"><ele>41.3</ele><time>2026-09-30T15:20:28Z</time></trkpt><trkpt lat="60.235527" lon="24.959057"><ele>40.9</ele><time>2026-09-30T15:20:29Z</time></trkpt><trkpt lat="60.235503" lon="24.959083"><ele>40.8</ele><time>2026-09-30T15:20:30Z</time><extensions><gpxtpx:TrackPointExtension><gpxtpx:hr>143</gpxtpx:hr></gpxtpx:TrackPointExtension></extensions></trkpt><trkpt lat="60.235488" lon="24.959122"><ele>40.6</ele><time>2026-09-30T15:20:31Z</time></trkpt><trkpt lat="60.23546" lon="24.959147"><ele>39.7</ele><time>2026-09-30T15:20:32Z</time></trkpt><trkpt lat="60.23544" lon="24.959173"><ele>39.4</ele><time>2026-09-30T15:20:33Z</time></trkpt><trkpt lat="60.235418" lon="24.959198"><ele>39.3</ele><time>2026-09-30T15:20:34Z</time></trkpt><trkpt lat="60.235397" lon="24.959243"><ele>39.7</ele><time>2026-09-30T15:20:35Z</time><extensions><gpxtpx:TrackPointExtension><gpxtpx:hr>143</gpxtpx:hr></gpxtpx:TrackPointExtension></extensions></trkpt><trkpt lat="60.235388" lon="24.959282"><ele>39.8</ele><time>2026-09-30T15:20:36Z</time></trkpt><trkpt lat="60.23537" lon="24.959318"><ele>40.3</ele><time>2026-09-30T15:20:37Z</time></trkpt><trkpt lat="60.235345" lon="24.959345"><ele>39.3</ele><time>2026-09-30T15:20:38Z</time></trkpt><trkpt lat="60.23532" lon="24.959412"><ele>38.3</ele><time>2026-09-30T15:20:40Z</time><extensions><gpxtpx:TrackPointExtension><gpxtpx:hr>144</gpxtpx:hr></gpxtpx:TrackPointExtension></extensions></trkpt><trkpt lat="60.235308" lon="24.95946"><ele>37.7</ele><time>2026-09-30T15:20:42Z</time></trkpt><trkpt lat="60.235308" lon="24.95946"><ele>37.7</ele><time>2026-09-30T15:20:43Z</time><extensions><gpxtpx:TrackPointExtension><gpxtpx:hr>144</gpxtpx:hr></gpxtpx:TrackPointExtension></extensions></trkpt></trkseg></trk></gpx>