<?xml version="1.0" encoding="UTF-8" standalone="no"?><gpx xmlns="http://www.topografix.com/GPX/1/1" xmlns:gpxtpx="http://www.garmin.com/xmlschemas/TrackPointExtension/v1" xmlns:xsi="http://www.w3.org/2001/XMLSchema-instance" creator="Sports Tracker" version="1.1" xsi:schemaLocation="http://www.topografix.com/GPX/1/1 http://www.topografix.com/GPX/1/1/gpx.xsd http://www.garmin.com/xmlschemas/TrackPointExtension/v1 http://www.garmin.com/xmlschemas/TrackPointExtensionv1.xsd"><metadata><name/><desc/><author><name>anttipehkonen240</name></author></metadata><trk><name/><trkseg><trkpt lat="0.0" lon="0.0"><time>2026-07-17T21:01:47Z</time><extensions><gpxtpx:TrackPointExtension><gpxtpx:hr>64</gpxtpx:hr></gpxtpx:TrackPointExtension></extensions></trkpt><trkpt lat="0.0" lon="0.0"><time>2026-07-17T21:07:23Z</time><extensions><gpxtpx:TrackPointExtension><gpxtpx:hr>65</gpxtpx:hr></gpxtpx:TrackPointExtension></extensions></trkpt><trkpt lat="0.0" lon="0.0"><time>2026-07-17T21:08:46Z</time><extensions><gpxtpx:TrackPointExtension><gpxtpx:hr>66</gpxtpx:hr></gpxtpx:TrackPointExtension></extensions></trkpt><trkpt lat="0.0" lon="0.0"><time>2026-07-17T21:14:44Z</time><extensions><gpxtpx:TrackPointExtension><gpxtpx:hr>64</gpxtpx:hr></gpxtpx:TrackPointExtension></extensions></trkpt><trkpt lat="0.0" lon="0.0"><time>2026-07-17T21:19:38Z</time><extensions><gpxtpx:TrackPointExtension><gpxtpx:hr>66</gpxtpx:hr></gpxtpx:TrackPointExtension></extensions></trkpt><trkpt lat="0.0" lon="0.0"><time>2026-07-17T21:23:32Z</time><extensions><gpxtpx:TrackPointExtension><gpxtpx:hr>64</gpxtpx:hr></gpxtpx:TrackPointExtension></extensions></trkpt><trkpt lat="0.0" lon="0.0"><time>2026-07-17T21:30:21Z</time><extensions><gpxtpx:TrackPointExtension><gpxtpx:hr>64</gpxtpx:hr></gpxtpx:TrackPointExtension></extensions></trkpt><trkpt lat="0.0" lon="0.0"><time>2026-07-17T21:31:48Z</time><extensions><gpxtpx:TrackPointExtension><gpxtpx:hr>63</gpxtpx:hr></gpxtpx:TrackPointExtension></extensions></trkpt><trkpt lat="0.0" lon="0.0"><time>2026-07-17T21:36:42Z</time><extensions><gpxtpx:TrackPointExtension><gpxtpx:hr>62</gpxtpx:hr></gpxtpx:TrackPointExtension></extensions></trkpt><trkpt lat="0.0" lon="0.0"><time>2026-07-17T21:39:34Z</time><extensions><gpxtpx:TrackPointExtension><gpxtpx:hr>64</gpxtpx:hr></gpxtpx:TrackPointExtension></extensions></trkpt><trkpt lat="0.0" lon="0.0"><time>2026-07-17T21:44:45Z</time><extensions><gpxtpx:TrackPointExtension><gpxtpx:hr>63</gpxtpx:hr></gpxtpx:TrackPointExtension></extensions></trkpt><trkpt lat="0.0" lon="0.0"><time>2026-07-17T21:46:28Z</time><extensions><gpxtpx:TrackPointExtension><gpxtpx:hr>61</gpxtpx:hr></gpxtpx:TrackPointExtension></extensions></trkpt><trkpt lat="0.0" lon="0.0"><time>2026-07-17T21:47:42Z</time><extensions><gpxtpx:TrackPointExtension><gpxtpx:hr>63</gpxtpx:hr></gpxtpx:TrackPointExtension></extensions></trkpt><trkpt lat="0.0" lon="0.0"><time>2026-07-17T21:51:39Z</time><extensions><gpxtpx:TrackPointExtension><gpxtpx:hr>58</gpxtpx:hr></gpxtpx:TrackPointExtension></extensions></trkpt><trkpt lat="0.0" lon="0.0"><time>2026-07-17T22:00:36Z</time><extensions><gpxtpx:TrackPointExtension><gpxtpx:hr>57</gpxtpx:hr></gpxtpx:TrackPointExtension></extensions></trkpt><trkpt lat="0.0" lon="0.0"><time>2026-07-17T22:03:39Z</time><extensions><gpxtpx:TrackPointExtension><gpxtpx:hr>53</gpxtpx:hr></gpxtpx:TrackPointExtension></extensions></trkpt><trkpt lat="0.0" lon="0.0"><time>2026-07-17T22:07:33Z</time><extensions><gpxtpx:TrackPointExtension><gpxtpx:hr>53</gpxtpx:hr></gpxtpx:TrackPointExtension></extensions></trkpt><trkpt lat="0.0" lon="0.0"><time>2026-07-17T22:09:35Z</time><extensions><gpxtpx:TrackPointExtension><gpxtpx:hr>55</gpxtpx:hr></gpxtpx:TrackPointExtension></extensions></trkpt><trkpt lat="0.0" lon="0.0"><time>2026-07-17T22:12:15Z</time><extensions><gpxtpx:TrackPointExtension><gpxtpx:hr>55</gpxtpx:hr></gpxtpx:TrackPointExtension></extensions></trkpt><trkpt lat="0.0" lon="0.0"><time>2026-07-17T22:18:32Z</time><extensions><gpxtpx:TrackPointExtension><gpxtpx:hr>55</gpxtpx:hr></gpxtpx:TrackPointExtension></extensions></trkpt><trkpt lat="0.0" lon="0.0"><time>2026-07-17T22:24:11Z</time><extensions><gpxtpx:TrackPointExtension><gpxtpx:hr>57</gpxtpx:hr></gpxtpx:TrackPointExtension></extensions></trkpt><trkpt lat="0.0" lon="0.0"><time>2026-07-17T22:27:24Z</time><extensions><gpxtpx:TrackPointExtension><gpxtpx:hr>57</gpxtpx:hr></gpxtpx:TrackPointExtension></extensions></trkpt><trkpt lat="0.0" lon="0.0"><time>2026-07-17T22:34:38Z</time><extensions><gpxtpx:TrackPointExtension><gpxtpx:hr>60</gpxtpx:hr></gpxtpx:TrackPointExtension></extensions></trkpt><trkpt lat="0.0" lon="0.0"><time>2026-07-17T22:38:57Z</time><extensions><gpxtpx:TrackPointExtension><gpxtpx:hr>59</gpxtpx:hr></gpxtpx:TrackPointExtension></extensions></trkpt><trkpt lat="0.0" lon="0.0"><time>2026-07-17T22:39:35Z</time><extensions><gpxtpx:TrackPointExtension><gpxtpx:hr>58</gpxtpx:hr></gpxtpx:TrackPointExtension></extensions></trkpt><trkpt lat="0.0" lon="0.0"><time>2026-07-17T22:41:39Z</time><extensions><gpxtpx:TrackPointExtension><gpxtpx:hr>58</gpxtpx:hr></gpxtpx:TrackPointExtension></extensions></trkpt><trkpt lat="0.0" lon="0.0"><time>2026-07-17T22:48:34Z</time><extensions><gpxtpx:TrackPointExtension><gpxtpx:hr>58</gpxtpx:hr></gpxtpx:TrackPointExtension></extensions></trkpt><trkpt lat="0.0" lon="0.0"><time>2026-07-17T22:52:22Z</time><extensions><gpxtpx:TrackPointExtension><gpxtpx:hr>57</gpxtpx:hr></gpxtpx:TrackPointExtension></extensions></trkpt><trkpt lat="0.0" lon="0.0"><time>2026-07-17T22:57:29Z</time><extensions><gpxtpx:TrackPointExtension><gpxtpx:hr>58</gpxtpx:hr></gpxtpx:TrackPointExtension></extensions></trkpt><trkpt lat="0.0" lon="0.0"><time>2026-07-17T23:02:39Z</time><extensions><gpxtpx:TrackPointExtension><gpxtpx:hr>59</gpxtpx:hr></gpxtpx:TrackPointExtension></extensions></trkpt><trkpt lat="0.0" lon="0.0"><time>2026-07-17T23:08:17Z</time><extensions><gpxtpx:TrackPointExtension><gpxtpx:hr>56</gpxtpx:hr></gpxtpx:TrackPointExtension></extensions></trkpt><trkpt lat="0.0" lon="0.0"><time>2026-07-17T23:09:36Z</time><extensions><gpxtpx:TrackPointExtension><gpxtpx:hr>57</gpxtpx:hr></gpxtpx:TrackPointExtension></extensions></trkpt><trkpt lat="0.0" lon="0.0"><time>2026-07-17T23:14:22Z</time><extensions><gpxtpx:TrackPointExtension><gpxtpx:hr>57</gpxtpx:hr></gpxtpx:TrackPointExtension></extensions></trkpt><trkpt lat="0.0" lon="0.0"><time>2026-07-17T23:20:59Z</time><extensions><gpxtpx:TrackPointExtension><gpxtpx:hr>57</gpxtpx:hr></gpxtpx:TrackPointExtension></extensions></trkpt><trkpt lat="0.0" lon="0.0"><time>2026-07-17T23:22:04Z</time><extensions><gpxtpx:TrackPointExtension><gpxtpx:hr>57</gpxtpx:hr></gpxtpx:TrackPointExtension></extensions></trkpt><trkpt lat="0.0" lon="0.0"><time>2026-07-17T23:27:41Z</time><extensions><gpxtpx:TrackPointExtension><gpxtpx:hr>65</gpxtpx:hr></gpxtpx:TrackPointExtension></extensions></trkpt><trkpt lat="0.0" lon="0.0"><time>2026-07-17T23:34:15Z</time><extensions><gpxtpx:TrackPointExtension><gpxtpx:hr>61</gpxtpx:hr></gpxtpx:TrackPointExtension></extensions></trkpt><trkpt lat="0.0" lon="0.0"><time>2026-07-17T23:38:28Z</time><extensions><gpxtpx:TrackPointExtension><gpxtpx:hr>59</gpxtpx:hr></gpxtpx:TrackPointExtension></extensions></trkpt><trkpt lat="0.0" lon="0.0"><time>2026-07-17T23:43:02Z</time><extensions><gpxtpx:TrackPointExtension><gpxtpx:hr>60</gpxtpx:hr></gpxtpx:TrackPointExtension></extensions></trkpt><trkpt lat="0.0" lon="0.0"><time>2026-07-17T23:46:17Z</time><extensions><gpxtpx:TrackPointExtension><gpxtpx:hr>59</gpxtpx:hr></gpxtpx:TrackPointExtension></extensions></trkpt><trkpt lat="0.0" lon="0.0"><time>2026-07-17T23:49:36Z</time><extensions><gpxtpx:TrackPointExtension><gpxtpx:hr>59</gpxtpx:hr></gpxtpx:TrackPointExtension></extensions></trkpt><trkpt lat="0.0" lon="0.0"><time>2026-07-17T23:54:14Z</time><extensions><gpxtpx:TrackPointExtension><gpxtpx:hr>58</gpxtpx:hr></gpxtpx:TrackPointExtension></extensions></trkpt><trkpt lat="0.0" lon="0.0"><time>2026-07-17T23:56:42Z</time><extensions><gpxtpx:TrackPointExtension><gpxtpx:hr>57</gpxtpx:hr></gpxtpx:TrackPointExtension></extensions></trkpt><trkpt lat="0.0" lon="0.0"><time>2026-07-18T00:02:02Z</time><extensions><gpxtpx:TrackPointExtension><gpxtpx:hr>58</gpxtpx:hr></gpxtpx:TrackPointExtension></extensions></trkpt><trkpt lat="0.0" lon="0.0"><time>2026-07-18T00:09:01Z</time><extensions><gpxtpx:TrackPointExtension><gpxtpx:hr>56</gpxtpx:hr></gpxtpx:TrackPointExtension></extensions></trkpt><trkpt lat="0.0" lon="0.0"><time>2026-07-18T00:13:25Z</time><extensions><gpxtpx:TrackPointExtension><gpxtpx:hr>54</gpxtpx:hr></gpxtpx:TrackPointExtension></extensions></trkpt><trkpt lat="0.0" lon="0.0"><time>2026-07-18T00:13:52Z</time><extensions><gpxtpx:TrackPointExtension><gpxtpx:hr>53</gpxtpx:hr></gpxtpx:TrackPointExtension></extensions></trkpt><trkpt lat="0.0" lon="0.0"><time>2026-07-18T00:18:39Z</time><extensions><gpxtpx:TrackPointExtension><gpxtpx:hr>54</gpxtpx:hr></gpxtpx:TrackPointExtension></extensions></trkpt><trkpt lat="0.0" lon="0.0"><time>2026-07-18T00:21:41Z</time><extensions><gpxtpx:TrackPointExtension><gpxtpx:hr>53</gpxtpx:hr></gpxtpx:TrackPointExtension></extensions></trkpt><trkpt lat="0.0" lon="0.0"><time>2026-07-18T00:26:41Z</time><extensions><gpxtpx:TrackPointExtension><gpxtpx:hr>55</gpxtpx:hr></gpxtpx:TrackPointExtension></extensions></trkpt><trkpt lat="0.0" lon="0.0"><time>2026-07-18T00:33:03Z</time><extensions><gpxtpx:TrackPointExtension><gpxtpx:hr>55</gpxtpx:hr></gpxtpx:TrackPointExtension></extensions></trkpt><trkpt lat="0.0" lon="0.0"><time>2026-07-18T00:40:48Z</time><extensions><gpxtpx:TrackPointExtension><gpxtpx:hr>55</gpxtpx:hr></gpxtpx:TrackPointExtension></extensions></trkpt><trkpt lat="0.0" lon="0.0"><time>2026-07-18T00:41:55Z</time><extensions><gpxtpx:TrackPointExtension><gpxtpx:hr>57</gpxtpx:hr></gpxtpx:TrackPointExtension></extensions></trkpt><trkpt lat="0.0" lon="0.0"><time>2026-07-18T00:47:08Z</time><extensions><gpxtpx:TrackPointExtension><gpxtpx:hr>58</gpxtpx:hr></gpxtpx:TrackPointExtension></extensions></trkpt><trkpt lat="0.0" lon="0.0"><time>2026-07-18T00:51:44Z</time><extensions><gpxtpx:TrackPointExtension><gpxtpx:hr>53</gpxtpx:hr></gpxtpx:TrackPointExtension></extensions></trkpt><trkpt lat="0.0" lon="0.0"><time>2026-07-18T00:56:53Z</time><extensions><gpxtpx:TrackPointExtension><gpxtpx:hr>54</gpxtpx:hr></gpxtpx:TrackPointExtension></extensions></trkpt><trkpt lat="0.0" lon="0.0"><time>2026-07-18T01:05:24Z</time><extensions><gpxtpx:TrackPointExtension><gpxtpx:hr>54</gpxtpx:hr></gpxtpx:TrackPointExtension></extensions></trkpt><trkpt lat="0.0" lon="0.0"><time>2026-07-18T01:11:03Z</time><extensions><gpxtpx:TrackPointExtension><gpxtpx:hr>54</gpxtpx:hr></gpxtpx:TrackPointExtension></extensions></trkpt><trkpt lat="0.0" lon="0.0"><time>2026-07-18T01:12:37Z</time><extensions><gpxtpx:TrackPointExtension><gpxtpx:hr>57</gpxtpx:hr></gpxtpx:TrackPointExtension></extensions></trkpt><trkpt lat="0.0" lon="0.0"><time>2026-07-18T01:13:35Z</time><extensions><gpxtpx:TrackPointExtension><gpxtpx:hr>54</gpxtpx:hr></gpxtpx:TrackPointExtension></extensions></trkpt><trkpt lat="0.0" lon="0.0"><time>2026-07-18T01:21:04Z</time><extensions><gpxtpx:TrackPointExtension><gpxtpx:hr>56</gpxtpx:hr></gpxtpx:TrackPointExtension></extensions></trkpt><trkpt lat="0.0" lon="0.0"><time>2026-07-18T01:24:09Z</time><extensions><gpxtpx:TrackPointExtension><gpxtpx:hr>55</gpxtpx:hr></gpxtpx:TrackPointExtension></extensions></trkpt><trkpt lat="0.0" lon="0.0"><time>2026-07-18T01:27:37Z</time><extensions><gpxtpx:TrackPointExtension><gpxtpx:hr>55</gpxtpx:hr></gpxtpx:TrackPointExtension></extensions></trkpt><trkpt lat="0.0" lon="0.0"><time>2026-07-18T01:35:40Z</time><extensions><gpxtpx:TrackPointExtension><gpxtpx:hr>56</gpxtpx:hr></gpxtpx:TrackPointExtension></extensions></trkpt></trkseg></trk></gpx>